Name,Address,Postcode,City,Phone,Website
Ambulantes Zentrum Laufen,"Lochbruggstrasse 39, 4242 Laufen",4242,Laufen,tel:+41614008080,https://www.local.ch/en/d/laufen/4242/hospital/ambulantes-zentrum-laufen-2Kor_nY0mYiO2Gq6ZWO5JQ
Centre hospitalier Bienne,"Chante-Merle 84, 2502 Biel/Bienne",2502,Biel/Bienne,tel:+41323242424,https://www.local.ch/en/d/biel-bienne/2502/hospital/centre-hospitalier-bienne-v2IRb0bQiV7-r5oXepCw8A
Clinica Santa Chiara SA - Pronto Soccorso accessibile dalle ore 07:00 alle ore 22:00,"Via Stefano Franscini 4, 6600 Locarno",6600,Locarno,tel:+41917564111,https://www.local.ch/en/d/locarno/6600/clinic/clinica-santa-chiara-sa-pronto-soccorso-accessibile-dalle-ore-07-00-alle-ore-22-00-UbTvjMMz3s1X4KMJ0ma99w
Gesundheitzentrum Fricktal AG,"Roberstenstrasse 33, 4310 Rheinfelden",4310,Rheinfelden,tel:+41618350865,https://www.local.ch/en/d/rheinfelden/4310/clinic/gesundheitzentrum-fricktal-ag-kBBJAVv5ILpGv6GFiYDutg
Hôpital de La Tour,"Avenue Jacob-Daniel Maillard 3, 1217 Meyrin",1217,Meyrin,tel:+41227196111,https://www.local.ch/en/d/meyrin/1217/clinic/hopital-de-la-tour-mNzp_Gui1oNGUmyShp-pPQ
Kantonsspital Baselland Bruderholz,"Kantonsspital Bruderholz, 4101 Bruderholz",4101,Bruderholz,tel:+41614363636,https://www.local.ch/en/d/bruderholz/4101/hospital/kantonsspital-baselland-bruderholz-rpsJgzQnerhhPpYTvRyrVw
Kantonsspital Baselland Liestal,"Rheinstrasse 26, 4410 Liestal",4410,Liestal,tel:+41619252525,https://www.local.ch/en/d/liestal/4410/hospital/kantonsspital-baselland-liestal-lAGqVlMCSeL7uV0QLTUWhg
Spitalzentrum Biel AG,"Vogelsang 84, 2502 Biel/Bienne",2502,Biel/Bienne,tel:+41323242424,https://www.local.ch/en/d/biel-bienne/2502/hospital/spitalzentrum-biel-ag-p5viQb4RucPctoI2xhAVTg
Solothurner Spitäler AG,"Schöngrünstrasse 42, 4500 Solothurn",4500,Solothurn,tel:+41326273121,https://www.local.ch/en/d/solothurn/4500/hospital/solothurner-spitaeler-ag-TSliuzPLKh1ytqF5bSrGGg
Adipositas und StoffwechselZentrum Zürich,"Witellikerstrasse 36, 8008 Zürich",8008,Zürich,tel:+41443874000,https://www.local.ch/en/d/zuerich/8008/hospital/adipositas-und-stoffwechselzentrum-zuerich-uWsqvpPZo2mexFZYyAPSoA
Prof. Dr. med. Bachmann Alexander,"Marktplatz 5, 4001 Basel",4001,Basel,tel:+41612610555,https://www.local.ch/en/d/basel/4001/urology/prof-dr-med-bachmann-alexander-0-sB8fj3eFoZ40qp1u59vQ
Berner Klinik Montana - Clinique Bernoise Montana,"Impasse Palace Bellevue 1, 3963 Crans-Montana",3963,Crans-Montana,tel:+41274855288,https://www.local.ch/en/d/crans-montana/3963/clinic/berner-klinik-montana-clinique-bernoise-montana-Dnlweidl2rdUOJYjj9Y7BA
Centre dentaire d'altitude de Verbier,"Place Centrale, 1936 Verbier",1936,Verbier,tel:+41277712121,https://www.local.ch/en/d/verbier/1936/dentist/centre-dentaire-d-altitude-de-verbier-EZoQaDEDpS_XxnF0ABCXXQ
Centre dentaire de Martigny,"Rue des Cèdres 9, 1920 Martigny",1920,Martigny,tel:+41277229188,https://www.local.ch/en/d/martigny/1920/dentist/centre-dentaire-de-martigny-7X_5AS9MFo4v6firfX9VYQ
Centre dentaire de Sierre,"Avenue Général-Guisan 30, 3960 Sierre",3960,Sierre,tel:+41274567575,https://www.local.ch/en/d/sierre/3960/dentist/centre-dentaire-de-sierre-8ArvnRl98PlkJ6uULE8Xuw
Centre dentaire de Sion,"Rue du Scex 33, 1950 Sion",1950,Sion,tel:+41273227576,https://www.local.ch/en/d/sion/1950/dental-clinic/centre-dentaire-de-sion-JiT9JaBAhkQySNWW9GBFgg
Centre dentaire de Versoix,"Grand-Montfleury 54, 1290 Versoix",1290,Versoix,tel:+41227750300,https://www.local.ch/en/d/versoix/1290/dentist/centre-dentaire-de-versoix-e1SDhHKjo86_vwKn9uJI9g
Centre Jean-Violette,"Rue Jean-Violette 3-5, 1205 Genève",1205,Genève,tel:+41223204022,https://www.local.ch/en/d/geneve/1205/radiological-institute/centre-jean-violette-Qn4kbCvNyJZgoiIwa0lK3A
Centre Médical de Sion,"Rue du Scex 33, 1950 Sion",1950,Sion,tel:+41273227578,https://www.local.ch/en/d/sion/1950/health-care-center/centre-medical-de-sion-uKy8IBtPDfOI85GWHEVAGg
Centre médical VIGIMED,"Rue du Léman 18B, 1920 Martigny",1920,Martigny,tel:+41277755575,https://www.local.ch/en/d/martigny/1920/medical-centre/centre-medical-vigimed-EHFthg7iOf2xaDsN99JoNg
Centre Médico-Chirurgical Vermont-Grand-Pré SA,"Rue de Vermont 9A, 1202 Genève",1202,Genève,tel:+41227345150,https://www.local.ch/en/d/geneve/1202/physician-on-call/centre-medico-chirurgical-vermont-grand-pre-sa-ysUQvj2sewq9VqZ4VsOKFQ
CENTRO LASER LUGANO,"Riva Antonio Caccia 1b, 6900 Lugano",6900,Lugano,tel:+41919857050,https://www.local.ch/en/d/lugano/6900/ophthalmology/centro-laser-lugano-KW8P9rlRmS-wFEupOrrnAg
CLINICA HILDEBRAND,"Via Crodolo 18, 6614 Brissago",6614,Brissago,tel:+41917868686,https://www.local.ch/en/d/brissago/6614/clinic/clinica-hildebrand-yFF57dLoMXnAXHhQVYWWww
Clinica Holistica Engiadina SA,"Plaz 40, 7542 Susch",7542,Susch,tel:+41813002030,https://www.local.ch/en/d/susch/7542/clinic/clinica-holistica-engiadina-sa-hucRA6oy69mdwRumGsfENw
CLINICA OCULISTICA LUGANO,"Riva Antonio Caccia 1B, 6900 Lugano",6900,Lugano,tel:+41919857050,https://www.local.ch/en/d/lugano/6900/ophthalmology/clinica-oculistica-lugano-KsFOUs_1zBUAHmhijPh4uA
Clinique de la Main Genève,"Rue des Bains 35, 1205 Genève",1205,Genève,tel:+41225950808,https://www.local.ch/en/d/geneve/1205/clinic/clinique-de-la-main-geneve-8tqYGmLxv6jujAhVrGO-Gg
Clinique de Maisonneuve SA,"Avenue de Châtelaine 60, 1219 Châtelaine",1219,Châtelaine,tel:+41229794646,https://www.local.ch/en/d/chatelaine/1219/clinic/clinique-de-maisonneuve-sa-_n7RYTxGwqm1e1CsjAlNsQ
Clinique romande de réadaptation (Suva),"Avenue du Grand-Champsec 90, 1950 Sion",1950,Sion,tel:+41276033030,https://www.local.ch/en/d/sion/1950/clinic/clinique-romande-de-readaptation-suva-xpAirwxZDWvnEfU8PjWo6w
Dr. med. Dombi Veronika Hanna,"Bahnhöfliplatz 2, 8634 Hombrechtikon",8634,Hombrechtikon,tel:+41552544004,https://www.local.ch/en/d/hombrechtikon/8634/gynaecology-and-obstetrics/dr-med-dombi-veronika-hanna-10Rb38ilTtJYts1c-1Sxhw
entero Klinik,"Zürcherstrasse 52, 5432 Neuenhof",5432,Neuenhof,tel:+41628869910,https://www.local.ch/en/d/neuenhof/5432/addiction-treatment/entero-klinik-U7wzb-npkLDa1bzD2ft_jA
ENTOURAGE Medical Esthetic Solutions SA,"Avenue de la Gare 39A, 1003 Lausanne",1003,Lausanne,tel:+41215526000,https://www.local.ch/en/d/lausanne/1003/plastic-reconstructive-and-aesthetic-surgery/entourage-medical-esthetic-solutions-sa-4oxOxxCsHyiLlhIELBAjSQ
ESTHETIKA,"Avenue de la Gare 30, 1630 Bulle",1630,Bulle,tel:+41269138000,https://www.local.ch/en/d/bulle/1630/clinic/esthetika-FyLFtnqqTLO3RvSP4OSKJQ
fisioAndreotti & Co. SA,"Via Chicherio 2, 6514 Sementina",6514,Sementina,tel:+41918509540,https://www.local.ch/en/d/sementina/6514/physical-therapy/fisioandreotti-co-sa-P8Sgu7p3ckNdwGI2J0xaAQ
Gesundheitszentrum Fricktal AG,"Mühlegasse 18, 5070 Frick",5070,Frick,tel:+41628657777,https://www.local.ch/en/d/frick/5070/hospital/gesundheitszentrum-fricktal-ag-CkLCAnjKdgn156HuGGBuPA
GGHA - Cabinet de Gastroentérologie,"Rue Giovanni-Gambini 8, 1206 Genève",1206,Genève,tel:+41229081000,https://www.local.ch/en/d/geneve/1206/clinic/ggha-cabinet-de-gastroenterologie-rHkMPD3tCQdpsLAjr7vgSQ
HandZentrum Hirslanden Zürich,"Morgental 35, 8126 Zumikon",8126,Zumikon,tel:+41432880015,https://www.local.ch/en/d/zumikon/8126/hospital/handzentrum-hirslanden-zuerich-KLk7UAO8MY4TqEjc_RimXQ
HerzGefässKlinik Bethanien,"Toblerstrasse 51, 8044 Zürich",8044,Zürich,,https://www.local.ch/en/d/zuerich/8044/clinic/herzgefaessklinik-bethanien-MAxOmiMu-GQx70ACHMMhMw
HerzKlinik Hirslanden,"Witellikerstrasse 40, 8008 Zürich",8008,Zürich,tel:+41443879700,https://www.local.ch/en/d/zuerich/8008/clinic/herzklinik-hirslanden-4YjF90mzt5HCgsm9tsUXEA
HerzZentrum Hirslanden AG,"Witellikerstrasse 36, 8008 Zürich",8008,Zürich,tel:+41443873711,https://www.local.ch/en/d/zuerich/8008/clinic/herzzentrum-hirslanden-ag-Zp_veIZnXGucwXCfobPZkQ
Kantonsspital Nidwalden,"Ennetmooserstrasse 19, 6370 Stans",6370,Stans,tel:+41416181818,https://www.local.ch/en/d/stans/6370/hospital/kantonsspital-nidwalden-__xsWCXPSeIVb7shiRDyNw
Klinik Arlesheim AG,"Pfeffingerweg 1, 4144 Arlesheim",4144,Arlesheim,tel:+41617057111,https://www.local.ch/en/d/arlesheim/4144/hospital/klinik-arlesheim-ag-dLAaqw-dWXHtNMR5GoUg-g
Klinik Professor Sailer,"Heuelstrasse 28, 8032 Zürich",8032,Zürich,tel:+41432683078,https://www.local.ch/en/d/zuerich/8032/plastic-reconstructive-and-aesthetic-surgery/klinik-professor-sailer-awE97k2lERPomYfllk1LNA
Klinik Seeschau AG,"Bernrainstrasse 17, 8280 Kreuzlingen",8280,Kreuzlingen,tel:+41716775353,https://www.local.ch/en/d/kreuzlingen/8280/clinic/klinik-seeschau-ag-2iDu_CPsHis8Nq9as2e3TA
Klinik SGM Langenthal,"Weissensteinstrasse 30, 4900 Langenthal",4900,Langenthal,tel:+41629192211,https://www.local.ch/en/d/langenthal/4900/clinic/klinik-sgm-langenthal-ci70FVl8A0qcVKmyZHDM7w
Klinik Sonnenhalde AG Psychiatrie und Psychotherapie,"Gänshaldenweg 28, 4125 Riehen",4125,Riehen,tel:+41616454646,https://www.local.ch/en/d/riehen/4125/psychiatric/klinik-sonnenhalde-ag-psychiatrie-und-psychotherapie-h7YuMYxsnT-hwqD3nqOAyw
Klinik Wysshölzli,"Waldrandweg 19, 3360 Herzogenbuchsee",3360,Herzogenbuchsee,tel:+41629562356,https://www.local.ch/en/d/herzogenbuchsee/3360/clinic/klinik-wysshoelzli-HdzOtZyzJpu4Y3PvcAjOdQ
LipoFilling,"Dammstrasse 29, 8702 Zollikon",8702,Zollikon,tel:+41443971717,https://www.local.ch/en/d/zollikon/8702/clinic/lipofilling-frC02xIiv4qzTeReUsj1ww
Maison Tóā - Clinique esthétique,"Voie du Chariot 6, 1003 Lausanne",1003,Lausanne,tel:+41217917070,https://www.local.ch/en/d/lausanne/1003/clinic/maison-toa-clinique-esthetique-Lz9ktKRXFQhO6pA1oHofAA
Dr. med. Menon Suresh,"Brättligäu 6, 5600 Lenzburg",5600,Lenzburg,tel:+41628910808,https://www.local.ch/en/d/lenzburg/5600/eye-center/dr-med-menon-suresh-uQZPU5bZN5HF1NdJpdQNtw
Ospedale Malcantonese,"Nucleo Castelrotto, 6980 Castelrotto",6980,Castelrotto,tel:+41916113700,https://www.local.ch/en/d/castelrotto/6980/hospital/ospedale-malcantonese-PBY661lw2VxHg9NOtbGc4A
Polyclinique Helvétique du Rhône - Centre partenaire Unilabs,"Rue du Rhône 118, 1204 Genève",1204,Genève,tel:+41227079670,https://www.local.ch/en/d/geneve/1204/surgery/polyclinique-helvetique-du-rhone-centre-partenaire-unilabs-uYReDCVfFVrrGZ-QFYaWjA
POLYMEDES Schmerzzentrum,"Fröhlichstrasse 7, 5200 Brugg AG",5200,AG,tel:+41433666262,https://www.local.ch/en/d/brugg-ag/5200/pain-therapy/polymedes-schmerzzentrum-h-57jHgUbTTJ_6I_IRQELA
Privatklinik Wyss AG,"Fellenbergstrasse 34, 3053 Münchenbuchsee",3053,Münchenbuchsee,tel:+41318683333,https://www.local.ch/en/d/muenchenbuchsee/3053/private-clinic/privatklinik-wyss-ag-P5Y-ORQ5iJIv7RMsyOpiCg
Psychiatrische Universitätsklinik Zürich,"Lenggstrasse 31, 8008 Zürich",8008,Zürich,tel:+41583842111,https://www.local.ch/en/d/zuerich/8008/hospital/psychiatrische-universitaetsklinik-zuerich-jg8xlFoqQrzF8KLKkIsQLA
PZM Psychiatrie Biel/Psychiatrie Bienne,"Vogelsang 84, 2502 Biel/Bienne",2502,Biel/Bienne,tel:+41323242323,https://www.local.ch/en/d/biel-bienne/2502/psychiatry-and-psychotherapy/pzm-psychiatrie-biel-psychiatrie-bienne-aqXVxDtx7d3jNocN8iPExQ
PZM Psychiatriezentrum Münsingen AG,"Hunzigenallee 1, 3110 Münsingen",3110,Münsingen,tel:+41317208111,https://www.local.ch/en/d/muensingen/3110/psychiatry-and-psychotherapy/pzm-psychiatriezentrum-muensingen-ag-62UkyqhmSv2biaAn9cFA1Q
Schlafapnoe,"Heuelstrasse 28, 8032 Zürich",8032,Zürich,tel:+41432683078,https://www.local.ch/en/d/zuerich/8032/head-and-neck-surgery/schlafapnoe-Z_frIbnBhcgqNi2uXlMi5w
Schlaflabor Zürich AG,"Sonnenbergstrasse 60, 8032 Zürich",8032,Zürich,tel:+41435558099,https://www.local.ch/en/d/zuerich/8032/general-internal-medicine/schlaflabor-zuerich-ag-EJxHiFTDOvlbeZC7L9QF8w
Spital Affoltern,"Sonnenbergstrasse 27, 8910 Affoltern am Albis",8910,Albis,tel:+41447142111,https://www.local.ch/en/d/affoltern-am-albis/8910/hospital/spital-affoltern-G412EAy3fjIMbYNknDQIUw
Swiss Central Clinic AG,"Giesshübelstrasse 45, 8045 Zürich",8045,Zürich,tel:+41415108045,https://www.local.ch/en/d/zuerich/8045/clinic/swiss-central-clinic-ag-vxUvXcfgONioHz1QHUYVUQ
Swissklinik - Zentrum Orthopädische Chirurgie und Gefäss-/Venenchirurgie Pfäffikon,"Gwattstrasse 15, 8808 Pfäffikon SZ",8808,SZ,tel:+41554154070,https://www.local.ch/en/d/pfaeffikon-sz/8808/orthopaedic-surgery/swissklinik-zentrum-orthopaedische-chirurgie-und-gefaess-venenchirurgie-pfaeffikon-c_5asCGYHIYTYqsPUAg85Q
Tiefenbrunnen,"Dammstrasse 29, 8702 Zollikon",8702,Zollikon,tel:+41443971717,https://www.local.ch/en/d/zollikon/8702/clinic/tiefenbrunnen-AbHo1bcasx8xpEatuF1d_w
Zanzi Clinic,"Place Bel-Air 1, 1003 Lausanne",1003,Lausanne,tel:+41213203515,https://www.local.ch/en/d/lausanne/1003/plastic-reconstructive-and-aesthetic-surgery/zanzi-clinic-7myfIEoJbBZFREwc_vol0w
Dr Zuber Christian,"Rue de Lausanne 25, 1950 Sion",1950,Sion,tel:+41273228222,https://www.local.ch/en/d/sion/1950/plastic-reconstructive-and-aesthetic-surgery/dr-zuber-christian-JiZaCvEt5UfwtBQ0yzcdIg
Ambi Rorschach,"Heidenerstrasse 11, 9400 Rorschach",9400,Rorschach,tel:+41718583111,https://www.local.ch/en/d/rorschach/9400/hospital/ambi-rorschach-MvHeMdBvTWXFUIx8YeT9Ag
Kantonsspital St.Gallen,"Rorschacher Strasse 95, 9000 St. Gallen",9000,Gallen,tel:+41714941111,https://www.local.ch/en/d/st-gallen/9000/hospital/kantonsspital-st-gallen-7J_1liJHRYDi5KnX1YIrpQ
Ospedale Regionale di Locarno La Carità - EOC,"Via dell'Ospedale 1, 6600 Locarno",6600,Locarno,tel:+41918114111,https://www.local.ch/en/d/locarno/6600/clinic/ospedale-regionale-di-locarno-la-carita-eoc-LYYPAvkYmfTrbSClCUwfsg
Spital Zollikerberg,"Trichtenhauser Strasse 20, 8125 Zollikerberg",8125,Zollikerberg,tel:+41443972111,https://www.local.ch/en/d/zollikerberg/8125/hospital/spital-zollikerberg-h2yBr7FAOfRwL7G3gmdaIw
Dr. med. Schneider Christoph,"Bohl 1, 9000 St. Gallen",9000,Gallen,tel:+41712235353,https://www.local.ch/en/d/st-gallen/9000/gynaecology-and-obstetrics/dr-med-schneider-christoph-Ou85dnF9kDf56PZGJnS3iw
Dr méd. Abrazhda Dritan,"Rue T.-Combe 1, 2400 Le Locle",2400,Locle,tel:+41329422067,https://www.local.ch/en/d/le-locle/2400/surgery/dr-med-abrazhda-dritan-dtB_GYejvW1OuWWazrtdCw
Ambi Flawil,"Magdenauerstrasse 1, 9230 Flawil",9230,Flawil,tel:+41714946295,https://www.local.ch/en/d/flawil/9230/hospital/ambi-flawil-80noRvRCrm-TJJP6tZNasA
Blutspendezentrum SRK beider Basel,"Hebelstrasse 10, 4031 Basel",4031,Basel,tel:+41612652090,https://www.local.ch/en/d/basel/4031/blood-donations/blutspendezentrum-srk-beider-basel-OXKKbfCYEVOItk-mE1odcw
centromedico Castione,"Via delle Scuole 2b, 6532 Castione",6532,Castione,tel:+41916402456,https://www.local.ch/en/d/castione/6532/medical-centre/centromedico-castione-u1ZV9P9UDnTEbGs-dJa8ZQ
centromedico locarno,"Via Stefano Franscini 12, 6600 Locarno",6600,Locarno,tel:+41916402840,https://www.local.ch/en/d/locarno/6600/medical-centre/centromedico-locarno-D8CHdk_C5Idog0nE_gHwdw
"Clinica di Riabilitazione EOC, Faido - EOC","Via Ospedale 32, 6760 Faido",6760,Faido,tel:+41918112111,https://www.local.ch/en/d/faido/6760/clinic/clinica-di-riabilitazione-eoc-faido-eoc-GHCp3VI81RUuct9NEVeIOw
"Clinica di Riabilitazione EOC, Novaggio - EOC","Via Dr. Erich Schwarz 6, 6986 Novaggio",6986,Novaggio,tel:+41918112211,https://www.local.ch/en/d/novaggio/6986/clinic/clinica-di-riabilitazione-eoc-novaggio-eoc-0TcstQ3fiYAAKvfTmj3CmQ
Clinique Bois-Bougy Sàrl,"Avenue de Bois-Bougy 6, 1260 Nyon",1260,Nyon,tel:+41224363636,https://www.local.ch/en/d/nyon/1260/clinic/clinique-bois-bougy-sarl-QqU9BZQLIh1O-H-wz3sT7Q
Clinique La Métairie Sàrl,"Avenue de Bois-Bougy 8, 1260 Nyon",1260,Nyon,tel:+41223632020,https://www.local.ch/en/d/nyon/1260/clinic/clinique-la-metairie-sarl-83zNchYPDX8XJGIuAIVE4A
Clinique Le Noirmont,"Chemin de Roc-Montès 20, 2340 Le Noirmont",2340,Noirmont,tel:+41329575111,https://www.local.ch/en/d/le-noirmont/2340/hospital/clinique-le-noirmont-VrqqOs0hEml5mnYauGPOiA
Clinique Suisse Martigny,"Rue du Léman 19, 1920 Martigny",1920,Martigny,tel:+41273237788,https://www.local.ch/en/d/martigny/1920/general-internal-medicine/clinique-suisse-martigny-Tk-WwwPljqDWgmxc4NM2fQ
Clinique Suisse Montreux SA,"Grand-Rue 3, 1820 Montreux",1820,Montreux,tel:+41219668181,https://www.local.ch/en/d/montreux/1820/clinic/clinique-suisse-montreux-sa-Wdu1HreGcoOIMeh5X05jmw
crossklinik,"Bundesstrasse 1, 4054 Basel",4054,Basel,tel:+41612851010,https://www.local.ch/en/d/basel/4054/sport-and-exercise-medicine/crossklinik-xeGEkNeGCEcyD5sycUByxA
Edelweiss Medical Sàrl,"Route des Arsenaux 6, 1700 Fribourg",1700,Fribourg,tel:+41264204000,https://www.local.ch/en/d/fribourg/1700/clinic/edelweiss-medical-sarl-q2Gms2FKImUxMWl5Jr8fPg
entero Klinik,"Hutmattenweg 11, 5704 Egliswil",5704,Egliswil,tel:+41628869950,https://www.local.ch/en/d/egliswil/5704/addiction-treatment/entero-klinik-PyE5jAA7t4DhPc3qppYRfw
entero Klinik,"Steinlerweg 12, 5702 Niederlenz",5702,Niederlenz,tel:+41628869930,https://www.local.ch/en/d/niederlenz/5702/addiction-treatment/entero-klinik-Qnsc95o0k-GG5RMuF_kD4Q
Herz-Neuro-Zentrum Bodensee AG,"Spitalstrasse 15, 8596 Münsterlingen",8596,Münsterlingen,tel:+41716775151,https://www.local.ch/en/d/muensterlingen/8596/hospital/herz-neuro-zentrum-bodensee-ag-hPTlCFpZKHQmI96UGxFxYA
Integrierte Psychiatrie Winterthur - Zürcher Unterland ipw,"Wieshofstrasse 102, 8408 Winterthur",8408,Winterthur,tel:+41522643333,https://www.local.ch/en/d/winterthur/8408/psychiatric/integrierte-psychiatrie-winterthur-zuercher-unterland-ipw-d-GRCuDAECDS7Hb61w4qQA
Istituto Cardiocentro Ticino,"Via Tesserete 48, 6900 Lugano",6900,Lugano,tel:+41918115111,https://www.local.ch/en/d/lugano/6900/clinic/istituto-cardiocentro-ticino-c86k1P7T0hjcbMZfp5OZQg
Klinik Schloss Mammern AG,"Dr. A. O.Fleisch-Strasse 3, 8265 Mammern",8265,Mammern,tel:+41527421111,https://www.local.ch/en/d/mammern/8265/rehabilitation/klinik-schloss-mammern-ag-DkWWkG38lpGkx_FI4l50Iw
Klinik Schönberg AG,"Schönbergstrasse 40, 3654 Gunten",3654,Gunten,tel:+41332523838,https://www.local.ch/en/d/gunten/3654/rehabilitation/klinik-schoenberg-ag-BAFCc6PaEeOqYgzVCbA8bw
Leukerbad Clinic (LBCL),"Willy-Spühlerstrasse 2, 3954 Leukerbad",3954,Leukerbad,tel:+41274725111,https://www.local.ch/en/d/leukerbad/3954/clinic/leukerbad-clinic-lbcl-0Dmb1C1o-Pm5Bn88l10rlw
Luzerner Höhenklinik Montana - Clinique Lucernoise,"Route de l'Astoria 2, 3963 Crans-Montana",3963,Crans-Montana,tel:+41274858181,https://www.local.ch/en/d/crans-montana/3963/clinic/luzerner-hoehenklinik-montana-clinique-lucernoise-8kFW1fq0Ii3wCXGF_zlvUA
MEDIFORM PRAXIS & TAGESKLINIK FÜR CHIRURGIE,"Bahnhofstrasse 9, 8580 Amriswil",8580,Amriswil,,https://www.local.ch/en/d/amriswil/8580/clinic/mediform-praxis-tagesklinik-fuer-chirurgie-h6B0HPhmEz9NRKBfSBqXdw
Oberwaid - Das Hotel. Die Klinik.,"Rorschacher Strasse 311, 9016 St. Gallen",9016,Gallen,tel:+41712820000,https://www.local.ch/en/d/st-gallen/9016/hotel/oberwaid-das-hotel-die-klinik-xB4mUgQPdvgRUyJbhyJgvg
Oncologia Varini Calderoni Christinat,"Via Antonio Fogazzaro 3, 6900 Lugano",6900,Lugano,tel:+41919226988,https://www.local.ch/en/d/lugano/6900/medical-oncology/oncologia-varini-calderoni-christinat-Fi9QUuPCOsj1_2XyR3P98g
Praxisklinik Dr. med. Rolf Hüsler,"Zürichstrasse 7, 6004 Luzern",6004,Luzern,tel:+41414120686,https://www.local.ch/en/d/luzern/6004/plastic-reconstructive-and-aesthetic-surgery/praxisklinik-dr-med-rolf-huesler-71inTaYKbkCA1hZ1uescbQ
Privatklinik Hohenegg AG,"Hohenegg 1, 8706 Meilen",8706,Meilen,tel:+41449251212,https://www.local.ch/en/d/meilen/8706/psychiatric/privatklinik-hohenegg-ag-wCjodHziwBm12yB64bzQSg
Procrea Centro Fertilità Svizzera Italiana SA,"Via Clemente Maraini 8, 6900 Lugano",6900,Lugano,tel:+41919245555,https://www.local.ch/en/d/lugano/6900/clinic/procrea-centro-fertilita-svizzera-italiana-sa-SSXQbZdnpQ1v25O_3obREQ
Psychiatrische Dienste Graubünden (PDGR),"Loëstrasse 220, 7000 Chur",7000,Chur,tel:+41582252525,https://www.local.ch/en/d/chur/7000/psychiatry-and-psychotherapy/psychiatrische-dienste-graubuenden-pdgr-RjD78y1n4mdTOZ3ZVeB_Kw
Rennbahnklinik,"Kriegackerstrasse 100, 4132 Muttenz",4132,Muttenz,tel:+41614656464,https://www.local.ch/en/d/muttenz/4132/sport-and-exercise-medicine/rennbahnklinik-bhulOlrFfEdLrDPnIcniSw
Rosengarten Frauenpraxis AG,"Bahnhofstrasse 231, 8623 Wetzikon ZH",8623,ZH,tel:+41434952919,https://www.local.ch/en/d/wetzikon-zh/8623/gynaecology-and-obstetrics/rosengarten-frauenpraxis-ag-p_Ylrwj79f9c-KckcWq-AA
St. Claraspital,"Kleinriehenstrasse 30, 4058 Basel",4058,Basel,tel:+41616858585,https://www.local.ch/en/d/basel/4058/hospital/st-claraspital-ou6Jd-4LM-R80Py3XjQ0Yg
Dr méd. Staszewicz Wojciech,"Chemin des Retraites 11, 1004 Lausanne",1004,Lausanne,tel:+41213239752,https://www.local.ch/en/d/lausanne/1004/surgery/dr-med-staszewicz-wojciech-v-KKFGIN6h8TEGe3Pcs7jQ
Tierklinik Leimental,"Gewerbestrasse 4, 4105 Biel-Benken BL",4105,BL,tel:+41617221010,https://www.local.ch/en/d/biel-benken-bl/4105/vet/tierklinik-leimental-ABlt3BClUpdUlLCShvJCfw
Universitäres Zentrum für Prävention und Sportmedizin,"Forchstrasse 319, 8008 Zürich",8008,Zürich,tel:+41443865252,https://www.local.ch/en/d/zuerich/8008/physical-therapy/universitaeres-zentrum-fuer-praevention-und-sportmedizin-aJW4Gd3x6UXe0RMNmfYCSQ
UroZentrum Zürich,"Forchstrasse 424, 8702 Zollikon",8702,Zollikon,tel:+41445526400,https://www.local.ch/en/d/zollikon/8702/urology/urozentrum-zuerich-AYgTAuHhomGmHUhkHTyDOA
Viarnetto,"Via Ceresio 34B, 6963 Pregassona",6963,Pregassona,tel:+41919713221,https://www.local.ch/en/d/pregassona/6963/clinic/viarnetto-TQizhhfsGCMxZ6x9fJ4Vkg
Zentrum für Schlafmedizin AG Hirslanden,"Forchstrasse 420, 8702 Zollikon",8702,Zollikon,tel:+41434995211,https://www.local.ch/en/d/zollikon/8702/center/zentrum-fuer-schlafmedizin-ag-hirslanden-9uwfD148rc0oIhr_CWQwwA
Kantonsspital Frauenfeld,"Pfaffenholzstrasse 4, 8500 Frauenfeld",8500,Frauenfeld,tel:+41527237711,https://www.local.ch/en/d/frauenfeld/8500/clinic/kantonsspital-frauenfeld-T27pC4zvi5p_mp8XPbHxPQ
Kantonsspital Münsterlingen,"Spitalcampus 1, 8596 Münsterlingen",8596,Münsterlingen,tel:+41716861111,https://www.local.ch/en/d/muensterlingen/8596/clinic/kantonsspital-muensterlingen-hgc4oE5HO79VMyCSXIdpgA
Klinik Schützen Rheinfelden,"Bahnhofstrasse 19, 4310 Rheinfelden",4310,Rheinfelden,tel:+41618362626,https://www.local.ch/en/d/rheinfelden/4310/clinic/klinik-schuetzen-rheinfelden-6vl08jwc1yKW8Ktwe-HMnA
Merian Iselin Klinik,"Föhrenstrasse 2, 4054 Basel",4054,Basel,tel:+41613051111,https://www.local.ch/en/d/basel/4054/hospital/merian-iselin-klinik-_odsTMQZQt1Toyj-CLj6XQ
Dr. med. Gilg Martin,"Vadianstrasse 31, 9000 St. Gallen",9000,Gallen,tel:+41712220744,https://www.local.ch/en/d/st-gallen/9000/surgery/dr-med-gilg-martin-8s50lv64F5fKus-wDPdZbQ
Alpstein Clinic Gais,"Dorfplatz 5, 9056 Gais",9056,Gais,tel:+41717918100,https://www.local.ch/en/d/gais/9056/health-center/alpstein-clinic-gais-l5lDebw3-8eEIeld2_pzqQ
AMEOS Seeklinikum Brunnen,"Gersauerstrasse 8, 6440 Brunnen",6440,Brunnen,tel:+41418254848,https://www.local.ch/en/d/brunnen/6440/psychiatry-and-psychotherapy/ameos-seeklinikum-brunnen-P6nQKJtmhxxD-xvtm4orhg
Berit Klinik AG Rehabilitation und Kur,"Steinweg 1, 9052 Niederteufen",9052,Niederteufen,tel:+41713350101,https://www.local.ch/en/d/niederteufen/9052/clinic/berit-klinik-ag-rehabilitation-und-kur-qoAoRwCpI6fE-2fFT98Nkg
Berit Klinik AG und Berit SportClinic,"Vögelinsegg 5, 9042 Speicher",9042,Speicher,,https://www.local.ch/en/d/speicher/9042/clinic/berit-klinik-ag-und-berit-sportclinic-efvpnIXUkaV8LLBlB3eUtA
Berit Klinik Goldach,"Klosterstrasse 19, 9403 Goldach",9403,Goldach,tel:+41718981212,https://www.local.ch/en/d/goldach/9403/clinic/berit-klinik-goldach-bUrh5tKAIiCtXOcHUCAOKA
Berit Klinik Wattwil und Alkoholkurzzeittherapie PSA,"Steig, 9630 Wattwil",9630,Wattwil,tel:+41719873111,https://www.local.ch/en/d/wattwil/9630/clinic/berit-klinik-wattwil-und-alkoholkurzzeittherapie-psa-d6FgFkkvgO9FWwfwz8gmgg
Centre Angiologie Champel,"Avenue de Champel 24, 1206 Genève",1206,Genève,tel:+41228000102,https://www.local.ch/en/d/geneve/1206/clinic/centre-angiologie-champel-I0gdojtf0U_HhLL7LBeVtw
Centre Cardiologie Champel,"Avenue de Champel 24, 1206 Genève",1206,Genève,tel:+41225126602,https://www.local.ch/en/d/geneve/1206/cardiology/centre-cardiologie-champel-fuOqXK2oZwYDa96g1RwoiA
Centre de chirurgie de la hanche et du genou,"Avenue de Beau-Séjour 6, 1206 Genève",1206,Genève,tel:+41227022427,https://www.local.ch/en/d/geneve/1206/clinic/centre-de-chirurgie-de-la-hanche-et-du-genou-HPcGJ23hxF0dUfyXxslIlw
Centre de chirurgie générale et digestive,"Avenue de la Roseraie 76A, 1205 Genève",1205,Genève,tel:+41223463434,https://www.local.ch/en/d/geneve/1205/clinic/centre-de-chirurgie-generale-et-digestive-j_McUzHMhqcBYyfLaW_rdg
Centre de Médecine du Sport et de l'Exercice,"Chemin Thury 7A, 1206 Genève",1206,Genève,tel:+41227022541,https://www.local.ch/en/d/geneve/1206/clinic/centre-de-medecine-du-sport-et-de-l-exercice-0-2AWCYZUcKZIb09ymGRxQ
Centre du dos et de neurochirurgie,"Avenue de la Roseraie 76A, 1205 Genève",1205,Genève,tel:+41227022382,https://www.local.ch/en/d/geneve/1205/clinic/centre-du-dos-et-de-neurochirurgie-tmGICYIV3xja8x7L-gEixg
Centre Gynécologie Champel,"Avenue de Champel 24, 1206 Genève",1206,Genève,tel:+41223473883,https://www.local.ch/en/d/geneve/1206/gynaecology-and-obstetrics/centre-gynecologie-champel-_3Lq4MCU0yAw4kk83xcuNQ
Centre Médical 21,"Rue de Chantepoulet 21, 1201 Genève",1201,Genève,tel:+41227163040,https://www.local.ch/en/d/geneve/1201/medical-centre/centre-medical-21-A-6GzSRVCmSQmkb6-DpOTA
Cleage Genève - Clinique de Médecine et de Chirurgie Esthétique à Genève,"Place du Molard 5, 1204 Genève",1204,Genève,tel:+41223685555,https://www.local.ch/en/d/geneve/1204/aesthetic-medicine/cleage-geneve-clinique-de-medecine-et-de-chirurgie-esthetique-a-geneve-odbKFZSu1GyXVOSdxjg8hw
Clinique CIC Montreux,"Rue du Grammont 2, 1815 Clarens",1815,Clarens,tel:+41219892828,https://www.local.ch/en/d/clarens/1815/clinic/clinique-cic-montreux-59kg3kv8p3myhyuNUyk6ow
Clinique CIC Saxon,"Route du Léman 29, 1907 Saxon",1907,Saxon,tel:+41277434040,https://www.local.ch/en/d/saxon/1907/clinic/clinique-cic-saxon-OHbd_T3mIa9-3XdY7pHuQA
Clinique La Lignière,"La Lignière 5, 1196 Gland",1196,Gland,tel:+41229996464,https://www.local.ch/en/d/gland/1196/clinic/clinique-la-ligniere-hTL5aQGOCkvotsgMTH3O5A
Clinique Saint-Amé,"Vers Saint-Amé 10, 1890 St-Maurice",1890,St-Maurice,tel:+41276046655,https://www.local.ch/en/d/st-maurice/1890/hospital/clinique-saint-ame-8DOAJQX7eHsLusiUxrL11g
Dr Cuénod Philippe,"Rue des Bains 35, 1205 Genève",1205,Genève,tel:+41225950808,https://www.local.ch/en/d/geneve/1205/hand-surgery/dr-cuenod-philippe-pTXknAy1Y_6nqeUg7ghonA
Elsner Martin,"Seidengasse 1, 8001 Zürich",8001,Zürich,tel:+41583350000,https://www.local.ch/en/d/zuerich/8001/clinic/elsner-martin-a5uyBBggHPPdMBWl7a02bA
entero Stiftung,"Hutmattenweg 11, 5704 Egliswil",5704,Egliswil,tel:+41628869950,https://www.local.ch/en/d/egliswil/5704/addiction-treatment/entero-stiftung-8iNo_ReDmkj4xnPqWxFGBA
ESTA - Klinik für Suchtbehandlung,"Gstadstrasse 42, 4153 Reinach BL",4153,BL,tel:+41617068787,https://www.local.ch/en/d/reinach-bl/4153/addiction-treatment/esta-klinik-fuer-suchtbehandlung-fN3LEaCP9YRoiGE_5BbEfw
etzelclinic,"Churerstrasse 43, 8808 Pfäffikon SZ",8808,SZ,tel:+41554158020,https://www.local.ch/en/d/pfaeffikon-sz/8808/orthopaedic-surgery/etzelclinic-gANP3IObhNjUpT9NtXltrA
Forel Klinik Ambulatorium,"Sihlquai 255, 8005 Zürich",8005,Zürich,tel:+41442669020,https://www.local.ch/en/d/zuerich/8005/outpatient-clinic/forel-klinik-ambulatorium-FRkUPN_0gBxNQ-e-4e94OQ
Dr. med. Gregorin Joël Patrick,"Weissensteinstrasse 2, 4500 Solothurn",4500,Solothurn,tel:+41326221642,https://www.local.ch/en/d/solothurn/4500/urology/dr-med-gregorin-joel-patrick-Q1E0QPkRk3ZBVueIL7nAEw
Hirslanden Clinique La Colline,"Avenue de Beau-Séjour 6, 1206 Genève",1206,Genève,tel:+41227022022,https://www.local.ch/en/d/geneve/1206/clinic/hirslanden-clinique-la-colline-azCBb2fXjyGcM4VPCu9OCw
Hôpital de Martigny,"Avenue de la Fusion 27, 1920 Martigny",1920,Martigny,tel:+41276039000,https://www.local.ch/en/d/martigny/1920/hospital/hopital-de-martigny-lgEp4CJNbnJM0-ZMFD-ZLQ
Hôpital de Sierre,"Rue Saint-Charles 14, 3960 Sierre",3960,Sierre,tel:+41276037000,https://www.local.ch/en/d/sierre/3960/hospital/hopital-de-sierre-2TZUqk2o9pAL1ZdODaMe3g
Hôpital de Sion,"Avenue du Grand-Champsec 80, 1950 Sion",1950,Sion,tel:+41276034000,https://www.local.ch/en/d/sion/1950/hospital/hopital-de-sion-l18oLd_UyWSJyJvo4Uxhgg
Hospiz im Park,"Stollenrain 12, 4144 Arlesheim",4144,Arlesheim,tel:+41617069222,https://www.local.ch/en/d/arlesheim/4144/clinic/hospiz-im-park-f_WleUwLynCkTswTgeFrOw
Dr Kämpfen Stéphane,"Rue des Bains 35, 1205 Genève",1205,Genève,tel:+41225950808,https://www.local.ch/en/d/geneve/1205/hand-surgery/dr-kaempfen-stephane-n-m3CJV0RvivN-5fPNb-mw
Klinik Beverin Cazis,"La Nicca Strasse 17, 7408 Cazis",7408,Cazis,tel:+41582253535,https://www.local.ch/en/d/cazis/7408/clinic/klinik-beverin-cazis-jc-d4l9MdhYZk8whZYm41w
Klinik Hohmad AG,"Hohmadstrasse 1, 3600 Thun",3600,Thun,tel:+41332252580,https://www.local.ch/en/d/thun/3600/clinic/klinik-hohmad-ag-oU7F2EbeaTZTEO8seriz9A
Klinik Im Hasel AG,"Hasel 837, 5728 Gontenschwil",5728,Gontenschwil,tel:+41627386000,https://www.local.ch/en/d/gontenschwil/5728/clinic/klinik-im-hasel-ag-GdsMMViKVCLSI9Vkdor3MA
Klinik Meissenberg AG,"Meisenbergstrasse 17, 6300 Zug",6300,Zug,tel:+41417265757,https://www.local.ch/en/d/zug/6300/clinic/klinik-meissenberg-ag-97oUrxS0GepqtJ1ln8L6pQ
Klinik St. Katharinental,"St. Katharinental, 8253 Diessenhofen",8253,Diessenhofen,tel:+41526316060,https://www.local.ch/en/d/diessenhofen/8253/clinic/klinik-st-katharinental-_lAt3WuOjHmV-TJS9RU51g
Klinik Südhang,"Südhang 1, 3038 Kirchlindach",3038,Kirchlindach,tel:+41318281414,https://www.local.ch/en/d/kirchlindach/3038/addiction-treatment/klinik-suedhang-E-Kc-n-_fKWk9TSOhdVHZA
Klinik Teufen für ambulante psychosomatische Behandlung und Rehabilitation AG,"Landhausstrasse 1b, 9053 Teufen AR",9053,AR,tel:+41713356000,https://www.local.ch/en/d/teufen-ar/9053/clinic/klinik-teufen-fuer-ambulante-psychosomatische-behandlung-und-rehabilitation-ag-TL0LAUVYeafKbjxeYmeQww
Lappe Martin,"Seidengasse 1, 8001 Zürich",8001,Zürich,tel:+41583350000,https://www.local.ch/en/d/zuerich/8001/surgery/lappe-martin-xyucRUDXmzQW0hMQrOChiA
Dr méd. Lendi Beat,"Route de Cossonay 26, 1008 Prilly",1008,Prilly,tel:+41216263060,https://www.local.ch/en/d/prilly/1008/ophthalmology/dr-med-lendi-beat-3-h77Ypna_iiazhv4rfYHA
Limmatklinik AG,"Hardturmstrasse 133, 8005 Zürich",8005,Zürich,tel:+41444483030,https://www.local.ch/en/d/zuerich/8005/clinic/limmatklinik-ag-IKdR5WzCxQtPzynb7WNF_w
Dr Mauler Flavien,"Rue des Bains 35, 1205 Genève",1205,Genève,tel:+41225950808,https://www.local.ch/en/d/geneve/1205/clinic/dr-mauler-flavien-LpOmbe4DjcdpG9or4hFPVg
Dr Papaloïzos Michaël,"Rue des Bains 35, 1205 Genève",1205,Genève,tel:+41225950808,https://www.local.ch/en/d/geneve/1205/hand-surgery/dr-papaloizos-michael-eLGs0S0KmMDXSDuJyX-bUw
Psychiatrie-Zentrum Engadin / Südbünden,"Plazza Paracelsus 2, 7500 St. Moritz",7500,Moritz,,https://www.local.ch/en/d/st-moritz/7500/psychiatry-and-psychotherapy/psychiatrie-zentrum-engadin-suedbuenden-T0UrZRsSmQWXpUqOID5L9A
Psychiatrie-Zentrum Surselva,"Spitalstrasse 7, 7130 Ilanz",7130,Ilanz,tel:+41582251100,https://www.local.ch/en/d/ilanz/7130/psychiatry-and-psychotherapy/psychiatrie-zentrum-surselva-HxRKi4d7qAoAvTWdyb3Xgw
Psychiatrische Dienste Aargau AG (PDAG),"Königsfelderstrasse 1, 5210 Windisch",5210,Windisch,tel:+41564622111,https://www.local.ch/en/d/windisch/5210/psychiatric/psychiatrische-dienste-aargau-ag-pdag-Q6KGTmBxP4t1WMG3XF-Q5Q
Reha-Pflegeklinik Eden AG,"Schulhausweg 11, 3852 Ringgenberg BE",3852,BE,tel:+41338281800,https://www.local.ch/en/d/ringgenberg-be/3852/home/reha-pflegeklinik-eden-ag-L5L8-gu30XDnqwyaBndWpA
Reha Rheinfelden,"Salinenstrasse 98, 4310 Rheinfelden",4310,Rheinfelden,tel:+41618365151,https://www.local.ch/en/d/rheinfelden/4310/rehabilitation/reha-rheinfelden-vD2cpbMBALG3Nn8dKekucQ
Rehaklinik Zihlschlacht AG,"Hauptstrasse 2, 8588 Zihlschlacht",8588,Zihlschlacht,tel:+41714243333,https://www.local.ch/en/d/zihlschlacht/8588/hospital/rehaklinik-zihlschlacht-ag-WZUV2LVAEtzNiCXW4yqRWg
Santos Academy,"Rue Jean-Jaquet 12, 1201 Genève",1201,Genève,tel:+41792252996,https://www.local.ch/en/d/geneve/1201/beauty-center/santos-academy-nqm1yHVieNT39-v6k_8URg
Schulthess Klinik,"Lengghalde 2, 8008 Zürich",8008,Zürich,,https://www.local.ch/en/d/zuerich/8008/clinic/schulthess-klinik-1t9tuAkBdFowuEiu55PBOw
Schweizer Paraplegiker-Zentrum,"Guido A. Zäch Strasse 1, 6207 Nottwil",6207,Nottwil,tel:+41419395454,https://www.local.ch/en/d/nottwil/6207/hospital/schweizer-paraplegiker-zentrum-MgnLUWMlXksVGb3Gh34xhw
Thurklinik AG,"Bahnhofstrasse 123A, 9244 Niederuzwil",9244,Niederuzwil,tel:+41719559191,https://www.local.ch/en/d/niederuzwil/9244/clinic/thurklinik-ag-MevVwiYN8oBHNfrBPJB-8w
Universitätsklinik Balgrist,"Forchstrasse 340, 8008 Zürich",8008,Zürich,tel:+41443861111,https://www.local.ch/en/d/zuerich/8008/clinic/universitaetsklinik-balgrist-UHCQYZy9v_VdyBFPDyC0rQ
Alterspsychiatrie,"Bienentalstrasse 7, 4410 Liestal",4410,Liestal,tel:+41615535757,https://www.local.ch/en/d/liestal/4410/clinic/alterspsychiatrie-cCuQ9ydmZnIox6YgTxfKJA
Berner Klinik Montana,"Impasse Palace Bellevue 1, 3963 Crans-Montana",3963,Crans-Montana,tel:+41274855121,https://www.local.ch/en/d/crans-montana/3963/clinic/berner-klinik-montana-ILhDrUs76uMA-AzhqiNnOQ
Biotonus Clinique Bon Port,"Rue de Bon-Port 27, 1820 Territet",1820,Territet,tel:+41219665858,https://www.local.ch/en/d/territet/1820/clinic/biotonus-clinique-bon-port-rDbKoMaVsQIeCy8dHX1BZQ
Dr. med. Burkart Sandro,"Poststrasse 23, 9000 St. Gallen",9000,Gallen,tel:+41712225633,https://www.local.ch/en/d/st-gallen/9000/otorhinolaryngology/dr-med-burkart-sandro-wIUIL9AnkvOW9lBTt5z5ZQ
Centre Leenaards de la Mémoire - CHUV,"Chemin de Mont-Paisible 16, 1011 Lausanne",1011,Lausanne,tel:+41213145151,https://www.local.ch/en/d/lausanne/1011/clinic/centre-leenaards-de-la-memoire-chuv-JVm9bqDtZloYdjdSV2dYZg
Chirurgische Tagesklinik Biel CTK,"Eisengasse 11, 2502 Biel/Bienne",2502,Biel/Bienne,tel:+41323444699,https://www.local.ch/en/d/biel-bienne/2502/clinic/chirurgische-tagesklinik-biel-ctk-MCVa9etfvEKgUvE-e9FQsw
Clinique chirurgicale de jour Bienne CTK,"Rue du Fer 11, 2502 Biel/Bienne",2502,Biel/Bienne,tel:+41323444699,https://www.local.ch/en/d/biel-bienne/2502/clinic/clinique-chirurgicale-de-jour-bienne-ctk-VBLPGvKNU4VlR5JoT5l4iw
Clinique Générale-Beaulieu - Genève - Clinique,"Chemin de Beau-Soleil 20, 1206 Genève",1206,Genève,tel:+41228395555,https://www.local.ch/en/d/geneve/1206/clinic/clinique-generale-beaulieu-geneve-clinique-pU0ZXPiJthdlyFPWMZiZ5w
Clinique Les Hauts d'Anières,"Chemin des Courbes 9, 1247 Anières",1247,Anières,tel:+41227519900,https://www.local.ch/en/d/anieres/1247/clinic/clinique-les-hauts-d-anieres-G8e500vFuheuyJ3boaViSA
Clinique Matignon Suisse SA,"Av Jean-Jacques-Rousseau 7, 2000 Neuchâtel",2000,Neuchâtel,tel:+41323222215,https://www.local.ch/en/d/neuchatel/2000/clinic/clinique-matignon-suisse-sa-Zm3J-YXsEqvWLMzo4qWxNg
Clinique Matignon Suisse SA,"Chemin de Précossy 11, 1260 Nyon",1260,Nyon,tel:+41223111120,https://www.local.ch/en/d/nyon/1260/clinic/clinique-matignon-suisse-sa-gw4UHVq-b7g8OWVKjXgOEg
Clinique Matignon Suisse SA,"Rue des Moulins 4, 1800 Vevey",1800,Vevey,tel:+41219639631,https://www.local.ch/en/d/vevey/1800/clinic/clinique-matignon-suisse-sa-IU0roOu9gACSBHuA1rqTwQ
Hirslanden Klinik St. Anna,"St.-Anna-Strasse 32, 6006 Luzern",6006,Luzern,tel:+41412083232,https://www.local.ch/en/d/luzern/6006/clinic/hirslanden-klinik-st-anna-TKPJ5OY1g2cXPeX2GJuNOg
Klinik für Ästhetische Chirurgie Biel / Clinique de Chirurgie Esthétique Bienne,"Bahnhofstrasse 39, 2502 Biel/Bienne",2502,Biel/Bienne,tel:+41323227783,https://www.local.ch/en/d/biel-bienne/2502/clinic/klinik-fuer-aesthetische-chirurgie-biel-clinique-de-chirurgie-esthetique-bienne-P9nd4U3W1VcWMCmbUSNalg
Klinik Teufen für ambulante psychosomatische Behandlung und Rehabilitation Rorschach AG,"Marktplatz 9, 9400 Rorschach",9400,Rorschach,tel:+41713356060,https://www.local.ch/en/d/rorschach/9400/clinic/klinik-teufen-fuer-ambulante-psychosomatische-behandlung-und-rehabilitation-rorschach-ag-trakNI0VaLvMhv6gkbNn9g
Klinik Villa im Park AG,"Bernstrasse 84, 4852 Rothrist",4852,Rothrist,tel:+41627856666,https://www.local.ch/en/d/rothrist/4852/orthopedics-not-included-in-doctors-category/klinik-villa-im-park-ag-Wvj8gET7d6m-UnRKiy5BeA
Kliniken Valens Rehabilitationszentrum Walenstadtberg,8881 Walenstadtberg,8881,Walenstadtberg,tel:+41585115111,https://www.local.ch/en/d/walenstadtberg/8881/clinic/kliniken-valens-rehabilitationszentrum-walenstadtberg-VcTxPPhhLMRVce4Iouy38Q
Meon Clinic AG,"Haldenstrasse 39, 6006 Luzern",6006,Luzern,tel:+41412660303,https://www.local.ch/en/d/luzern/6006/clinic/meon-clinic-ag-K6o39CFAMSNNeZ5SCE3s6g
Niehans Paul SA,"Quai Perdonnet 3, 1800 Vevey",1800,Vevey,tel:+41219226242,https://www.local.ch/en/d/vevey/1800/clinic/niehans-paul-sa-1X3xSM3PgpcJNEuIQou8Uw
Policlinique Nord-Sud Sàrl,"Rue du Jura 2, 1023 Crissier",1023,Crissier,tel:+41216331050,https://www.local.ch/en/d/crissier/1023/clinic/policlinique-nord-sud-sarl-LyelPu9RWKLhEG3R5huXxQ
Praxisklinik Binningen,"Hauptstrasse 11, 4102 Binningen",4102,Binningen,tel:+41614220066,https://www.local.ch/en/d/binningen/4102/private-clinic/praxisklinik-binningen-dOtLIQfCAhTEYqPbIaO3uw
Swiss MedSpa GmbH,"Dorfstrasse 19a, 6340 Baar",6340,Baar,tel:+41417203659,https://www.local.ch/en/d/baar/6340/clinic/swiss-medspa-gmbh-z3XZvOn06Q_WpS-RsX4pUA
SWISS SCOLIOSIS AG,"Seestrasse 220, 8002 Zürich",8002,Zürich,tel:+41442092440,https://www.local.ch/en/d/zuerich/8002/clinic/swiss-scoliosis-ag-_pEU7pDmT6cBWbdV4o5CPg
Tagesklinik für Traumafolgestörungen IPW,"Technikumstrasse 81, 8400 Winterthur",8400,Winterthur,tel:+41522643852,https://www.local.ch/en/d/winterthur/8400/clinic/tagesklinik-fuer-traumafolgestoerungen-ipw-Lni2Opt6lRY57_2Bzr8taQ
Venenklinik Bellevue,"Brückenstrasse 9, 8280 Kreuzlingen",8280,Kreuzlingen,tel:+41716782266,https://www.local.ch/en/d/kreuzlingen/8280/clinic/venenklinik-bellevue-KkSnB_R1un4YrGTsT3-Z5A
Vista Augenklinik Dr. Bucher,"Bahnhofplatz 70, 8500 Frauenfeld",8500,Frauenfeld,tel:+41527205000,https://www.local.ch/en/d/frauenfeld/8500/clinic/vista-augenklinik-dr-bucher-sVTB8xdcpjHd1rIF9Fm_dg
Zentrum für Unfallchirurgie,"Seestrasse 220, 8002 Zürich",8002,Zürich,tel:+41442092040,https://www.local.ch/en/d/zuerich/8002/clinic/zentrum-fuer-unfallchirurgie-QoK7_AqODRw2jvuhotu4Vw
Zufferey Jacques,"Rue de Lausanne 30, 1950 Sion",1950,Sion,tel:+41273224444,https://www.local.ch/en/d/sion/1950/plastic-reconstructive-and-aesthetic-surgery/zufferey-jacques-2Qf1kCGD4uT3RXi8jAYwjA
Augentagesklinik Sursee,"Bahnhofstrasse 38B, 6210 Sursee",6210,Sursee,tel:+41419201920,https://www.local.ch/en/d/sursee/6210/clinic/augentagesklinik-sursee-Ivk-rkAXXcP9rWtrkatXVQ
Dr. med. Bandhauer Florian,"Rorschacher Strasse 150, 9000 St. Gallen",9000,Gallen,tel:+41712440909,https://www.local.ch/en/d/st-gallen/9000/otorhinolaryngology/dr-med-bandhauer-florian-DrHEK1E8oF28Vy95MbBf1g
"Clinique Dermatologique du Seujet, CIDGE SA","Quai du Seujet 14, 1201 Genève",1201,Genève,tel:+41228881414,https://www.local.ch/en/d/geneve/1201/clinic/clinique-dermatologique-du-seujet-cidge-sa-N4gQQewN52hevt2S2YY0-A
"Institut für Dermatologie, Stadtspital Zürich Europaallee","Gustav-Gull-Platz 5, 8004 Zürich",8004,Zürich,tel:+41444163200,https://www.local.ch/en/d/zuerich/8004/clinic/institut-fuer-dermatologie-stadtspital-zuerich-europaallee-TYOfYpstUOTaHtUmsuL6lg
Dr. Jagella Caroline,"Impasse Palace Bellevue 1, 3963 Crans-Montana",3963,Crans-Montana,tel:+41274855391,https://www.local.ch/en/d/crans-montana/3963/clinic/dr-jagella-caroline-ne6vOXuKSCILvPTSiEu05A
"Klinik für Allgemein-, Behinderten- und Seniorenmedizin","Plattenstrasse 15, 8032 Zürich",8032,Zürich,tel:+41446343331,https://www.local.ch/en/d/zuerich/8032/clinic/klinik-fuer-allgemein-behinderten-und-seniorenmedizin-ckFOTF5PMXAo-Nwns-mMVw
Körpertherapie Core Energetic Praxis,"Bollwerk 41, 3011 Bern",3011,Bern,tel:+41313716747,https://www.local.ch/en/d/bern/3011/clinic/koerpertherapie-core-energetic-praxis-18JZMKfkCYvzftBHWlEi2w
Lice Clinics of Switzerland,"Rue de Lausanne 49G, 1020 Renens VD",1020,VD,tel:+41215350856,https://www.local.ch/en/d/renens-vd/1020/clinic/lice-clinics-of-switzerland-aPZPJfYABJyd1lD8kbf0CA
Psichiatrica di giorno,"Via Lugano 1, 6982 Agno",6982,Agno,tel:+41916054252,https://www.local.ch/en/d/agno/6982/clinic/psichiatrica-di-giorno-ciD4o4EvG1fbOaWJv87qFQ
Suchtfachklinik Zürich,"Emil-Klöti-Strasse 18, 8037 Zürich",8037,Zürich,tel:+41444155620,https://www.local.ch/en/d/zuerich/8037/clinic/suchtfachklinik-zuerich-FcXkfKvaNApSNHeg5-Ay7Q
UPK Basel Notfall,"Wilhelm Klein-Strasse 27, 4056 Basel",4056,Basel,tel:+41613255100,https://www.local.ch/en/d/basel/4056/emergency-psychology/upk-basel-notfall-idXcuke7azt0m-2gfYnbWQ
Valmont,"Route de Valmont 22, 1823 Glion",1823,Glion,tel:+41219623535,https://www.local.ch/en/d/glion/1823/clinic/valmont-TW_BNgZocL-i9wq9bZdCRQ
Vista Augenklinik Binningen,"Hauptstrasse 55, 4102 Binningen",4102,Binningen,tel:+41614266000,https://www.local.ch/en/d/binningen/4102/clinic/vista-augenklinik-binningen-CMADa-gzFMMWDX2Rj-XB9A
Clinique CIC Collombey,"Zone artisanale Plavaux 103, 1893 Muraz (Collombey)",1893,(Collombey),tel:+41245522424,https://www.local.ch/en/d/muraz-collombey/1893/clinic/clinique-cic-collombey-iOSFBGjm3ejUiW9nKRkUtg
Cardiologie,1224 Chêne-Bougeries,1224,Chêne-Bougeries,tel:+41223050620,https://www.local.ch/en/d/chene-bougeries/1224/clinic/cardiologie-waEL5mxafatQTaJYmRyalA
Hirslanden Klinik Aarau,"Schänisweg, 5000 Aarau",5000,Aarau,tel:+41628367000,https://www.local.ch/en/d/aarau/5000/clinic/hirslanden-klinik-aarau-5MFy6vXnMPesbsn2l5J8MQ
Hirslanden Klinik St. Anna,"St.-Anna-Strasse 32, 6006 Luzern",6006,Luzern,tel:+41412083232,https://www.local.ch/en/d/luzern/6006/clinic/hirslanden-klinik-st-anna-5glR3zUOhMB41YRHKvVRbg
Klinik Im Park,"Seestrasse 220, 8002 Zürich",8002,Zürich,tel:+41442092111,https://www.local.ch/en/d/zuerich/8002/clinic/klinik-im-park-y5NGfQdpvk9zwuQNMZuqng
Notfallzentrum St. Anna,"St.-Anna-Strasse 32, 6006 Luzern",6006,Luzern,tel:+41412084444,https://www.local.ch/en/d/luzern/6006/clinic/notfallzentrum-st-anna-BGkeSfYgDPbcWqe0QftHnA
Klinik Luzern,"Kantonsspital 11, 6004 Luzern",6004,Luzern,tel:+41588564441,https://www.local.ch/en/d/luzern/6004/clinic/klinik-luzern-kl3VaoAGTytuRedET_lkKQ
Cardiologie de l'Enfant et de l'Adolescent,1224 Chêne-Bougeries,1224,Chêne-Bougeries,tel:+41223050118,https://www.local.ch/en/d/chene-bougeries/1224/clinic/cardiologie-de-l-enfant-et-de-l-adolescent-CzaQX6AmkoutBI4I4KwkeQ
Notfallstation,5000 Aarau,5000,Aarau,tel:+41628367676,https://www.local.ch/en/d/aarau/5000/clinic/notfallstation-RShMKKI0NMyI4M-GFa_bEQ
Dr méd. Pfulg Michel,"Avenue de Collonge 43, 1820 Territet",1820,Territet,tel:+41219667000,https://www.local.ch/en/d/territet/1820/plastic-reconstructive-and-aesthetic-surgery/dr-med-pfulg-michel-FqViZ597yXuQrvRnyaXfBg
SoWohnen Psychiatrische Familienpflege,"Waldeggstrasse 37, 3097 Liebefeld",3097,Liebefeld,tel:+41319700891,https://www.local.ch/en/d/liebefeld/3097/clinic/sowohnen-psychiatrische-familienpflege-5iWhnGymI9mNzc-w8TyILg
Gemeindepsychiatrisches Zentrum Bern West (GPZ),"Morgenstrasse 83, 3018 Bern",3018,Bern,tel:+41319304500,https://www.local.ch/en/d/bern/3018/clinic/gemeindepsychiatrisches-zentrum-bern-west-gpz-y-bmURhlxUy0vV0-vckrZQ
Prof. Dr. med. Otto Florian,"Rorschacher Strasse 286, 9016 St. Gallen",9016,Gallen,tel:+41712430202,https://www.local.ch/en/d/st-gallen/9016/clinic/prof-dr-med-otto-florian-redadTqsMs2CrmPd05yCEQ
Centre Brazelton,1224 Chêne-Bougeries,1224,Chêne-Bougeries,tel:+41223050660,https://www.local.ch/en/d/chene-bougeries/1224/clinic/centre-brazelton-8b_ujynLtbSvzTmDOlQv-Q
Dialysestation,5000 Aarau,5000,Aarau,tel:+41628367121,https://www.local.ch/en/d/aarau/5000/clinic/dialysestation-YnkjOT4AjUlCpYupHHuKHg
Institut für Radiologie und Nuklearmedizin,"St.-Anna-Strasse 32, 6006 Luzern",6006,Luzern,tel:+41412083030,https://www.local.ch/en/d/luzern/6006/radiological-institute/institut-fuer-radiologie-und-nuklearmedizin-KU9M-zf6uYiDnt-LX3SJlw
Memory Clinic Zentralschweiz,"Surentalstrasse 10, 6210 Sursee",6210,Sursee,tel:+41588564620,https://www.local.ch/en/d/sursee/6210/clinic/memory-clinic-zentralschweiz-Jeuc9UcO505zSSpK8_LO9w
Universitätsklinik für Kinder- und Jugendpsychiatrie und Psychotherapie,"Untere Zollgasse 99, 3063 Ittigen",3063,Ittigen,tel:+41319309830,https://www.local.ch/en/d/ittigen/3063/clinic/universitaetsklinik-fuer-kinder-und-jugendpsychiatrie-und-psychotherapie-3ZFALy6ZUVQ1VldfTRLu1w
Orthopädie,8500 Frauenfeld,8500,Frauenfeld,tel:+41527237952,https://www.local.ch/en/d/frauenfeld/8500/clinic/orthopaedie-P2t6HT8FstlvRNAcOHjiyw
Centre de consultations d'urgences ADULTES médico-chirurgicales,"Chemin des Grangettes 7, 1224 Chêne-Bougeries",1224,Chêne-Bougeries,tel:+41223050777,https://www.local.ch/en/d/chene-bougeries/1224/clinic/centre-de-consultations-d-urgences-adultes-medico-chirurgicales-B89jUQwXdPMSN6h7LPUs9g
Ernährungstherapie und- beratung Klinik St. Anna,"St.-Anna-Strasse 32, 6006 Luzern",6006,Luzern,tel:+41412083010,https://www.local.ch/en/d/luzern/6006/hospital/ernaehrungstherapie-und-beratung-klinik-st-anna-yDSYtVq5Z5zUzo-PcGAcvQ
PhysioART Klinik St. Anna,6006 Luzern,6006,Luzern,tel:+41412083571,https://www.local.ch/en/d/luzern/6006/clinic/physioart-klinik-st-anna-GNV9hpyNfiA4MffI6fbKBQ
Organizzazione sociopsichiatrica cantonale,"Vicolo Sottocorte 4, 6500 Bellinzona",6500,Bellinzona,tel:+41918143161,https://www.local.ch/en/d/bellinzona/6500/clinic/organizzazione-sociopsichiatrica-cantonale-stLGXrrVIPHzg9rWc9Be8g
Centre de consultations d'urgences ENFANTS,"Chemin des Grangettes 7, 1224 Chêne-Bougeries",1224,Chêne-Bougeries,tel:+41223050555,https://www.local.ch/en/d/chene-bougeries/1224/clinic/centre-de-consultations-d-urgences-enfants-eoGvGvJWIESQ02ybGN4qJw
Institut für Labormedizin,5000 Aarau,5000,Aarau,tel:+41628367040,https://www.local.ch/en/d/aarau/5000/clinic/institut-fuer-labormedizin-iLrSBQkB9DSVQet33eym8w
Physiotherapie/ MTT,6006 Luzern,6006,Luzern,tel:+41412083571,https://www.local.ch/en/d/luzern/6006/hospital/physiotherapie-mtt-HALmprlVDPGMjN2ycQHECg
Universitäre Psychiatrische Kliniken Basel,"Wilhelm Klein-Strasse 27, 4056 Basel",4056,Basel,tel:+41613255111,https://www.local.ch/en/d/basel/4056/hospital/universitaere-psychiatrische-kliniken-basel-jlt8dFxQ5HefFYCt3NGYFg
Centre d'oncologie et d'hématologie,"Route de Chêne 110, 1224 Chêne-Bougeries",1224,Chêne-Bougeries,tel:+41225458085,https://www.local.ch/en/d/chene-bougeries/1224/clinic/centre-d-oncologie-et-d-hematologie-7l83YdhXvIqVyhOdY_rmUA
Institut für Radiologie,5000 Aarau,5000,Aarau,tel:+41628367020,https://www.local.ch/en/d/aarau/5000/clinic/institut-fuer-radiologie-FTlkqSngqB9Ad_-ZYtt17g
Institut für Radiotherapie,"Rain 34, 5000 Aarau",5000,Aarau,tel:+41628367800,https://www.local.ch/en/d/aarau/5000/clinic/institut-fuer-radiotherapie-6cCIQYmew7tL73sD1NlHuQ
Klinik für Psychiatrie und Psychotherapie,"Nordstrasse 111, 8200 Schaffhausen",8200,Schaffhausen,tel:+41526347201,https://www.local.ch/en/d/schaffhausen/8200/clinic/klinik-fuer-psychiatrie-und-psychotherapie--VrVCKTfO_uhnF5CtavWqg
Restaurant NOVA,5000 Aarau,5000,Aarau,tel:+41628367085,https://www.local.ch/en/d/aarau/5000/clinic/restaurant-nova-nKd_34a0bnrZDENfi7l_cA
Tagesklinik,5000 Aarau,5000,Aarau,tel:+41628367002,https://www.local.ch/en/d/aarau/5000/clinic/tagesklinik-UDsQvt1vnX8vY0jfgwncPA
Chirurgie Orthopédique,"Chemin des Grangettes 7, 1224 Chêne-Bougeries",1224,Chêne-Bougeries,tel:+41223050611,https://www.local.ch/en/d/chene-bougeries/1224/clinic/chirurgie-orthopedique-uxPEPT9wl0gUV0uavCRbtQ
Abteilung für Wirbelsäulenmedizin und Schmerztherapie,5000 Aarau,5000,Aarau,tel:+41628367100,https://www.local.ch/en/d/aarau/5000/clinic/abteilung-fuer-wirbelsaeulenmedizin-und-schmerztherapie-Kh-uXsOyAwcL7TeiE8PrZg
Aerztegemeinschaft für Anästhesieologie und Intensivmedizin,5000 Aarau,5000,Aarau,tel:+41628367150,https://www.local.ch/en/d/aarau/5000/clinic/aerztegemeinschaft-fuer-anaesthesieologie-und-intensivmedizin-SmVRe8JOHIwha_pD9uSaXQ
cfc hirslanden Cranio Faciales Centrum,"Rain 34, 5000 Aarau",5000,Aarau,tel:+41628367878,https://www.local.ch/en/d/aarau/5000/clinic/cfc-hirslanden-cranio-faciales-centrum-TrRkeP_-UCASQqY7vCHw5Q
Chirurgie thoracique et chirurgie,"Chemin des Grangettes 7, 1224 Chêne-Bougeries",1224,Chêne-Bougeries,tel:+41223050737,https://www.local.ch/en/d/chene-bougeries/1224/clinic/chirurgie-thoracique-et-chirurgie-1Nh7jBmBMW3SfA0G1UYEnA
Dr. med. Müller Michèle,"Schreinerstrasse 7, 9000 St. Gallen",9000,Gallen,tel:+41712206177,https://www.local.ch/en/d/st-gallen/9000/paediatrics/dr-med-mueller-michele-1jByUWHaNQdq9U0A5_035A
Chirurgie vasculaire et endovasculaire,"Chemin des Grangettes 7, 1224 Chêne-Bougeries",1224,Chêne-Bougeries,tel:+41223050136,https://www.local.ch/en/d/chene-bougeries/1224/clinic/chirurgie-vasculaire-et-endovasculaire-rNuyll6iTC66EUa6CiMtRQ
Gefäss Zentrum,"Schänisweg 7, 5000 Aarau",5000,Aarau,tel:+41628367620,https://www.local.ch/en/d/aarau/5000/clinic/gefaess-zentrum-AnedWWSc8AhGRbNbUI0AuQ
Herz Zentrum,5000 Aarau,5000,Aarau,tel:+41628367996,https://www.local.ch/en/d/aarau/5000/clinic/herz-zentrum-OHguXrUl6uPueDZNvJF7-Q
Lungen Zentrum,5000 Aarau,5000,Aarau,tel:+41628367580,https://www.local.ch/en/d/aarau/5000/clinic/lungen-zentrum-JHRLhG6QK8tFatS0COzSBw
Dr. med. Nakhostin Manoutch,"Rorschacher Strasse 155, 9000 St. Gallen",9000,Gallen,,https://www.local.ch/en/d/st-gallen/9000/sport-and-exercise-medicine/dr-med-nakhostin-manoutch-mCkL96eTpghdjzEDHmhZoQ
Trauma Zentrum,"Schänisweg 7, 5000 Aarau",5000,Aarau,tel:+41628367600,https://www.local.ch/en/d/aarau/5000/clinic/trauma-zentrum-ar4D5ZK-Pqs0VM4f4FiHsg
Tumor Zentrum,5000 Aarau,5000,Aarau,tel:+41628367830,https://www.local.ch/en/d/aarau/5000/clinic/tumor-zentrum-bEmShs39kB9lnXSRXAgOLA
Dr. med. Lenggenhager Cornelius,"Waisenhausstrasse 5, 9000 St. Gallen",9000,Gallen,tel:+41712223452,https://www.local.ch/en/d/st-gallen/9000/urology/dr-med-lenggenhager-cornelius-YZzzAsOnouMIQ8KO7_AktA
Institut de médecine nucléaire,"Chemin des Grangettes 7, 1224 Chêne-Bougeries",1224,Chêne-Bougeries,tel:+41223050333,https://www.local.ch/en/d/chene-bougeries/1224/clinic/institut-de-medecine-nucleaire-4jdoXAMLSRfNXsoA54U0oQ
Urologie Zentrum,5000 Aarau,5000,Aarau,tel:+41628367200,https://www.local.ch/en/d/aarau/5000/clinic/urologie-zentrum-3O5Er6j2gXoFfAGiLhzYHQ
Institut de radiologie Adulte,1224 Chêne-Bougeries,1224,Chêne-Bougeries,tel:+41223492333,https://www.local.ch/en/d/chene-bougeries/1224/clinic/institut-de-radiologie-adulte-R6R283FKq-UR6ro8qsKRZQ
Viszeralchirurgie,5000 Aarau,5000,Aarau,tel:+41628367400,https://www.local.ch/en/d/aarau/5000/clinic/viszeralchirurgie-uOgK22XA_qCblVVxNS8bsg
Zentrum für Aesthetische und Rekonstruktive Chirurgie,"Schänisweg 7, 5000 Aarau",5000,Aarau,tel:+41628367755,https://www.local.ch/en/d/aarau/5000/clinic/zentrum-fuer-aesthetische-und-rekonstruktive-chirurgie-RA81KFykV1vcArQ9pIay8g
Institut de Radiologie Pédiatrique,"Chemin des Grangettes 7, 1224 Chêne-Bougeries",1224,Chêne-Bougeries,tel:+41223050580,https://www.local.ch/en/d/chene-bougeries/1224/clinic/institut-de-radiologie-pediatrique-nPeCE5MpLckn4zRg6fh7jw
Zentrum für Handchirurgie,5000 Aarau,5000,Aarau,tel:+41628367940,https://www.local.ch/en/d/aarau/5000/clinic/zentrum-fuer-handchirurgie-xyGeALjN4-TY1rcuQjA5jA
Zentrum für Innere Medizin,5000 Aarau,5000,Aarau,tel:+41628367850,https://www.local.ch/en/d/aarau/5000/clinic/zentrum-fuer-innere-medizin-yF3Sk3V2n_JrlZqXizlhlQ
Médecine interne,"Chemin des Grangettes 7, 1224 Chêne-Bougeries",1224,Chêne-Bougeries,tel:+41223050348,https://www.local.ch/en/d/chene-bougeries/1224/clinic/medecine-interne-mNvK1XMnBYeGtUbOyGGfDQ
Cabinet de Physiothérapie,1224 Chêne-Bougeries,1224,Chêne-Bougeries,tel:+41223050754,https://www.local.ch/en/d/chene-bougeries/1224/clinic/cabinet-de-physiotherapie-8fEkrfSZBS8NT8CIEtllvg
aarReha Schinznach,"Badstrasse 55, 5116 Schinznach Bad",5116,Bad,tel:+41564638641,https://www.local.ch/en/d/schinznach-bad/5116/clinic/aarreha-schinznach-9C2RbUTSCHy8QEF--A57TQ
aarReha Schinznach,"Badstrasse 55, 5116 Schinznach Bad",5116,Bad,tel:+41564638511,https://www.local.ch/en/d/schinznach-bad/5116/clinic/aarreha-schinznach-xr8Wlnq3TfyhwARXYOfNiw
Klinik Waldhaus Chur,"Loëstrasse 220, 7000 Chur",7000,Chur,tel:+41582252525,https://www.local.ch/en/d/chur/7000/clinic/klinik-waldhaus-chur-HtKvU2XV8i-Tg5JuKppw3A
Rehabilitationszentrum für Sklerodermie,"Salinenstrasse 98, 4310 Rheinfelden",4310,Rheinfelden,tel:+41618365235,https://www.local.ch/en/d/rheinfelden/4310/hospital/rehabilitationszentrum-fuer-sklerodermie-1rfG0SS3nsEQwqbP-sKXbg
Swiss Hair Life GmbH,"Campingweg 13, 4665 Oftringen",4665,Oftringen,tel:+41625571557,https://www.local.ch/en/d/oftringen/4665/clinic/swiss-hair-life-gmbh-p5At0eUBexCzuP3pYfk4yw
Berner Reha Zentrum,"Schwendi 299, 3625 Heiligenschwendi",3625,Heiligenschwendi,tel:+41332443333,https://www.local.ch/en/d/heiligenschwendi/3625/clinic/berner-reha-zentrum-Muz7YxJEaaAgCyCLZPrtdA
Care,"Rue Rodolphe-Toepffer 12, 1206 Genève",1206,Genève,tel:+41223475757,https://www.local.ch/en/d/geneve/1206/clinic/care-MC9qbgp4jVR9r9eHAqzHFQ
Chatsiproios Dimitrios,"Hauptstrasse 70, 8280 Kreuzlingen",8280,Kreuzlingen,tel:+41716729494,https://www.local.ch/en/d/kreuzlingen/8280/clinic/chatsiproios-dimitrios-3tCU747rlmPSXPO4P29Zhg
Clinique de Chirurgie Esthétique Bienne,"Rue de la Gare 39, 2502 Biel/Bienne",2502,Biel/Bienne,tel:+41323227783,https://www.local.ch/en/d/biel-bienne/2502/clinic/clinique-de-chirurgie-esthetique-bienne-VXjdSGrj9UFjkLzFGA64Jw
CLINIQUE DE LA PLAINE SA,"Rue Charles-Humbert 5, 1205 Genève",1205,Genève,tel:+41225950505,https://www.local.ch/en/d/geneve/1205/clinic/clinique-de-la-plaine-sa-c_wyaNUhxbp-liyTf-_cZQ
Clinique de Morges,"Chemin du Crêt 2, 1110 Morges",1110,Morges,tel:+41218043000,https://www.local.ch/en/d/morges/1110/clinic/clinique-de-morges-wBy2SS-F9eLGMVdcj4a81g
Cross Research SA,"Via Francesco Antonio Giorgioli 14, 6864 Arzo",6864,Arzo,tel:+41916404450,https://www.local.ch/en/d/arzo/6864/clinic/cross-research-sa-V6fT41heaHO7nws-RCPsTQ
Cross Research SA,"Via Luigi Lavizzari 18, 6850 Mendrisio",6850,Mendrisio,tel:+41916300510,https://www.local.ch/en/d/mendrisio/6850/clinic/cross-research-sa-IiEwY8-iApu03pIUe4SoVQ
DAZZ Diabetes Adipositas Zentrum Zürich,"Rietholzstrasse 4, 8125 Zollikerberg",8125,Zollikerberg,tel:+41442287000,https://www.local.ch/en/d/zollikerberg/8125/clinic/dazz-diabetes-adipositas-zentrum-zuerich-RWfqmddOPeZ4HZoHtcC6Cw
KLINIK BETHESDA,3233 Tschugg,3233,Tschugg,,https://www.local.ch/en/d/tschugg/3233/clinic/klinik-bethesda-J9KMxJXKsttqfeS9o-9BUQ
Klinik Sonnenhof,"Sonnenhofstrasse 15, 9608 Ganterschwil",9608,Ganterschwil,tel:+41719832633,https://www.local.ch/en/d/ganterschwil/9608/clinic/klinik-sonnenhof-_jiQZDqbi2Jeshaixp2Wug
Klinik Susenberg,"Schreberweg 9, 8044 Zürich",8044,Zürich,tel:+41442683838,https://www.local.ch/en/d/zuerich/8044/clinic/klinik-susenberg-bikzdjiVBykqnekG5MmxDg
KTK Kindertagesklinik Liestal AG,"Oristalstrasse 87A, 4410 Liestal",4410,Liestal,tel:+41619279427,https://www.local.ch/en/d/liestal/4410/clinic/ktk-kindertagesklinik-liestal-ag-te9jfzhPNmdNAayd5iu2HQ
Dr. med. Külling Fabrice,"Brauerstrasse 95A, 9016 St. Gallen",9016,Gallen,tel:+41712824040,https://www.local.ch/en/d/st-gallen/9016/clinic/dr-med-kuelling-fabrice-XxYs7AvqQOE-0ymnOLjbcA
Nouvelle Clinique Vert-Pré SA,"Chemin de la Colombe 15, 1231 Conches",1231,Conches,tel:+41227043131,https://www.local.ch/en/d/conches/1231/clinic/nouvelle-clinique-vert-pre-sa-5HTLgVegNLNQA7sgfr0WzA
OPIOSTOP,"Weissenaustrasse 27, 3800 Unterseen",3800,Unterseen,tel:+41338262626,https://www.local.ch/en/d/unterseen/3800/clinic/opiostop-O-AouRj0WrAdwEzUNSTmOA
OPZentrum,"Rudolfstrasse 25, 8400 Winterthur",8400,Winterthur,tel:+41522120440,https://www.local.ch/en/d/winterthur/8400/clinic/opzentrum-ryWORFrAiHFaNb5PbBx3Jw
PolyClinic St. Moritz AG,"Plazza Paracelsus 2, 7500 St. Moritz",7500,Moritz,tel:+41818308040,https://www.local.ch/en/d/st-moritz/7500/clinic/polyclinic-st-moritz-ag-SY3EkOMHcyKKxH3u-808iw
Privatklinik Lindberg,"Schickstrasse 11, 8400 Winterthur",8400,Winterthur,tel:+41522661111,https://www.local.ch/en/d/winterthur/8400/clinic/privatklinik-lindberg-HmRFKuEADL4u6UE9e-wQjA
RehaClinic AG,"Sonnengässli 1, 5330 Bad Zurzach",5330,Zurzach,tel:+41562695151,https://www.local.ch/en/d/bad-zurzach/5330/clinic/rehaclinic-ag-hWlsqCpQk3n6Pn3Be66lDg
Schmerzklinik Basel,"Hirschgässlein 11, 4051 Basel",4051,Basel,tel:+41612958989,https://www.local.ch/en/d/basel/4051/clinic/schmerzklinik-basel-EbWCpFFf4GL9u9DZTIArGA
Siloah AG,"Worbstrasse 316, 3073 Gümligen",3073,Gümligen,tel:+41319581111,https://www.local.ch/en/d/guemligen/3073/clinic/siloah-ag-QsNE9xA49p_cKnyY9iNyrg
SportClinic Zurich,"Tödistrasse 49, 8002 Zürich",8002,Zürich,tel:+41442096030,https://www.local.ch/en/d/zuerich/8002/clinic/sportclinic-zurich-3j13MAO2aMETnWBc9aYMyw
SportClinic Zurich,"Giessereistrasse 18, 8005 Zürich",8005,Zürich,tel:+41442748888,https://www.local.ch/en/d/zuerich/8005/clinic/sportclinic-zurich-RZN-ETZP1gW4uYwfasKn6g
Summit Clinic,"Rue Centrale 62, 3963 Crans-Montana",3963,Crans-Montana,tel:+41274868090,https://www.local.ch/en/d/crans-montana/3963/clinic/summit-clinic-agLYr3CBTF3NWchue3plpg
Therapiezentrum Meggen,"Rütliweg 1, 6045 Meggen",6045,Meggen,tel:+41413790220,https://www.local.ch/en/d/meggen/6045/clinic/therapiezentrum-meggen-bhXX2Vnwzcl_sdJZcH7I0A
Vita-Med,"Boulevard de la Tour 4, 1205 Genève",1205,Genève,tel:+41227002826,https://www.local.ch/en/d/geneve/1205/clinic/vita-med-M9NaaJAdr-bvm0m5V46jBg
Zürcher RehaZentrum Davos,"Klinikstrasse 6, 7272 Davos Clavadel",7272,Clavadel,tel:+41814144222,https://www.local.ch/en/d/davos-clavadel/7272/clinic/zuercher-rehazentrum-davos-BH8NZkLGyRLM21nJNh0GVg
Zürcher RehaZentrum Wald,"Faltigbergstrasse 7, 8636 Wald ZH",8636,ZH,tel:+41552566111,https://www.local.ch/en/d/wald-zh/8636/clinic/zuercher-rehazentrum-wald-2sOc7GGLp1jsVXJQQlDqYQ
ZURZACH Care Klinik für Schlafmedizin Bad Zurzach,"Badstrasse 33, 5330 Bad Zurzach",5330,Zurzach,tel:+41562695151,https://www.local.ch/en/d/bad-zurzach/5330/clinic/zurzach-care-klinik-fuer-schlafmedizin-bad-zurzach-omjhu98rkaDCPOy9-nPMOg
"Chirurgie et médecine esthétiques, esthétique dentaire","Avenue de Collonge 43, 1820 Territet",1820,Territet,tel:+41219667000,https://www.local.ch/en/d/territet/1820/clinic/chirurgie-et-medecine-esthetiques-esthetique-dentaire-hp3TyLm98rnTYHmBDKnoFQ
Clinique La Prairie,"Rue du Lac 142B, 1815 Clarens",1815,Clarens,tel:+41219893350,https://www.local.ch/en/d/clarens/1815/clinic/clinique-la-prairie-vBl_s6CVJZKO9eb7vkYS5A
Notfallaufnahme,"Brauerstrasse 95, 9016 St. Gallen",9016,Gallen,tel:+41712827474,https://www.local.ch/en/d/st-gallen/9016/clinic/notfallaufnahme-PGUM-i5xkt6QDu00G1a3Cw
Réservations pour les programmes d une semaine,"Rue du Lac 142B, 1815 Clarens",1815,Clarens,tel:+41219893481,https://www.local.ch/en/d/clarens/1815/clinic/reservations-pour-les-programmes-d-une-semaine-_Vgk2Ff6gb4MFgVs9IYCDQ
Responsable,"Avenue Cardinal-Mermillod 1, 1227 Carouge GE",1227,GE,tel:+41223094640,https://www.local.ch/en/d/carouge-ge/1227/clinic/responsable-j3kWzi_97mnPxjqnvDh7zw
Cardiologie,"Rue du Lac 142B, 1815 Clarens",1815,Clarens,tel:+41219893372,https://www.local.ch/en/d/clarens/1815/clinic/cardiologie-Q8NxJEm1SSCr4Udf1S6lVA
Facturation,"Avenue Cardinal-Mermillod 1, 1227 Carouge GE",1227,GE,tel:+41223094536,https://www.local.ch/en/d/carouge-ge/1227/clinic/facturation-OdbM7CS5xQKMKu1lHcauCg
Unfallchirurgie,"Brauerstrasse 95, 9016 St. Gallen",9016,Gallen,tel:+41712827474,https://www.local.ch/en/d/st-gallen/9016/clinic/unfallchirurgie-P1ix-hZh53e6q-zqlT2Maw
Salina Rehaklinik für muskuloskelettale Rehabilitation im Parkresort Rheinfelden,"Roberstenstrasse 31, 4310 Rheinfelden",4310,Rheinfelden,tel:+41618366666,https://www.local.ch/en/d/rheinfelden/4310/clinic/salina-rehaklinik-fuer-muskuloskelettale-rehabilitation-im-parkresort-rheinfelden-LCZENANd1iHs8LsA54Jg3A
Personalabteilung,"Hochschulstrasse 6, 3012 Bern",3012,Bern,tel:+41316845151,https://www.local.ch/en/d/bern/3012/clinic/personalabteilung-KlyHo3lZ67IEqt2gP7IQuQ
Brustzentrum Stephanshorn,"Brauerstrasse 95, 9016 St. Gallen",9016,Gallen,tel:+41712827373,https://www.local.ch/en/d/st-gallen/9016/clinic/brustzentrum-stephanshorn-c8IzIJDRxADtA0oAib2IBQ
Centre de chirurgie esthétique,"Rue du Lac 142B, 1815 Clarens",1815,Clarens,tel:+41219893371,https://www.local.ch/en/d/clarens/1815/clinic/centre-de-chirurgie-esthetique-GnGLh5B9UJ8UClgvcpKa-A
Ernährungsberatung,5000 Aarau,5000,Aarau,tel:+41628367510,https://www.local.ch/en/d/aarau/5000/clinic/ernaehrungsberatung-NrRf8wfV29PM3GTp12dZ6w
Consultation sur rendez-vous,"Avenue Cardinal-Mermillod 3, 1227 Carouge GE",1227,GE,tel:+41223094545,https://www.local.ch/en/d/carouge-ge/1227/clinic/consultation-sur-rendez-vous-VynbAYnWfvpKuoOOWYrAVw
Clinique genevoise de Montana (HUG),"Impasse Clairmont 2, 3963 Crans-Montana",3963,Crans-Montana,tel:+41274856111,https://www.local.ch/en/d/crans-montana/3963/clinic/clinique-genevoise-de-montana-hug-TUImwUkZXjo8AI8Tp3suxg
Beckenbodenzentrum,"Schuppisstrasse 10, 9016 St. Gallen",9016,Gallen,tel:+41712211073,https://www.local.ch/en/d/st-gallen/9016/clinic/beckenbodenzentrum-BLJlgmeoKooST4yI0TtcnQ
Chirurgie générale,"Rue du Lac 142B, 1815 Clarens",1815,Clarens,tel:+41219893259,https://www.local.ch/en/d/clarens/1815/clinic/chirurgie-generale-WnY41W_b-Pb7sBlz9_XnVw
Brustzentrum Infoline,9016 St. Gallen,9016,Gallen,tel:+41712827373,https://www.local.ch/en/d/st-gallen/9016/clinic/brustzentrum-infoline-cQhArStdK3QC5e4wASEZ0w
Dr. Rindone Salvatore,"Rue du Lac 142B, 1815 Clarens",1815,Clarens,tel:+41219893354,https://www.local.ch/en/d/clarens/1815/clinic/dr-rindone-salvatore-NW_oGyVgok2DaTAtM2fZlA
Centre d'urologie,"Route de Chêne 110, 1224 Chêne-Bougeries",1224,Chêne-Bougeries,tel:+41225458050,https://www.local.ch/en/d/chene-bougeries/1224/clinic/centre-d-urologie-BZEpadWoadC_46o7YbBJyg
Nutrition et des troubles du comportement alimentaire,"Rue du Lac 142B, 1815 Clarens",1815,Clarens,tel:+41219893136,https://www.local.ch/en/d/clarens/1815/clinic/nutrition-et-des-troubles-du-comportement-alimentaire-WtK7BibxEky4fYj1fShVKw
dr. Foiada Mario,6598 Tenero,6598,Tenero,tel:+41917351111,https://www.local.ch/en/d/tenero/6598/clinic/dr-foiada-mario-zVBocHyA_w4LMPMDPJLqDA
Endocrinologie et diabétologie,"Rue du Lac 142B, 1815 Clarens",1815,Clarens,tel:+41219893296,https://www.local.ch/en/d/clarens/1815/clinic/endocrinologie-et-diabetologie-hBL8pfb1tIW75XXdJYaP3w
Physiotherapie Stephanshorn,"Brauerstrasse 97, 9016 St. Gallen",9016,Gallen,tel:+41712827508,https://www.local.ch/en/d/st-gallen/9016/clinic/physiotherapie-stephanshorn-lxuaRf6AoVLYaLKoTrfUsw
Dr. med. Schirm Andreas,"Pestalozzistrasse 2, 9000 St. Gallen",9000,Gallen,tel:+41712273545,https://www.local.ch/en/d/st-gallen/9000/clinic/dr-med-schirm-andreas-l-OOmg7nPXgV3PIIjPqhZA
Dr. med. Schmid Dominik W.,"Sonnenstrasse 6, 9000 St. Gallen",9000,Gallen,tel:+41712435959,https://www.local.ch/en/d/st-gallen/9000/clinic/dr-med-schmid-dominik-w-eUO5xvWH8sSJ7maSPvgXGQ
dr. med. Fontana Pio Eugenio,"Via Soldino 5A, 6900 Lugano",6900,Lugano,tel:+41919608033,https://www.local.ch/en/d/lugano/6900/clinic/dr-med-fontana-pio-eugenio-PAnoegwC51rA88yABZAdmQ
Gastro-entérologie et hépatologie,"Rue du Lac 142B, 1815 Clarens",1815,Clarens,tel:+41219893070,https://www.local.ch/en/d/clarens/1815/clinic/gastro-enterologie-et-hepatologie-Tw_uGn_7Q475EOJvQ-lQRg
Médecine générale,"Rue du Lac 142B, 1815 Clarens",1815,Clarens,tel:+41219893269,https://www.local.ch/en/d/clarens/1815/clinic/medecine-generale-eRzeUesCmzeF2Sz5mqwCaw
Neurologie,"Rue du Lac 142B, 1815 Clarens",1815,Clarens,tel:+41219893215,https://www.local.ch/en/d/clarens/1815/clinic/neurologie-UUJ3rODXidy3Y4IS094g6w
Dr. med. Filin Svitlana,"Schuppisstrasse 10, 9016 St. Gallen",9016,Gallen,tel:+41712211070,https://www.local.ch/en/d/st-gallen/9016/clinic/dr-med-filin-svitlana-uKjRZH3ZqVtOBYKMS1yVvA
Dr. med. Keller Sara,9000 St. Gallen,9000,Gallen,tel:+41712237574,https://www.local.ch/en/d/st-gallen/9000/clinic/dr-med-keller-sara-thGBaOHobTvLu6JLQ_b7Fw
Dr. med. Looser Gian-Luzi,"Museumstrasse 47, 9000 St. Gallen",9000,Gallen,tel:+41712440690,https://www.local.ch/en/d/st-gallen/9000/clinic/dr-med-looser-gian-luzi-nU5Es8zEacGEaaWl7i-aow
Dr. med. Schütz Michael,"Schützengasse 5, 9000 St. Gallen",9000,Gallen,tel:+41712221614,https://www.local.ch/en/d/st-gallen/9000/clinic/dr-med-schuetz-michael-OM3OlBN9pvfEK4AFGYwZlg
Ophtalmologie et Ophtalmochirurgie,"Rue du Lac 142B, 1815 Clarens",1815,Clarens,tel:+41219893055,https://www.local.ch/en/d/clarens/1815/clinic/ophtalmologie-et-ophtalmochirurgie-uaMt-uAQ9czjiNmIen8I-Q
Physiothérapie,1815 Clarens,1815,Clarens,tel:+41219893136,https://www.local.ch/en/d/clarens/1815/clinic/physiotherapie-KLAnUAXc2o-ddjbFrednmw
Dr. med. Studer Kathrin,9000 St. Gallen,9000,Gallen,tel:+41712828242,https://www.local.ch/en/d/st-gallen/9000/clinic/dr-med-studer-kathrin-HGS6sJygAjsBvVV9dB7xIA
PD Dr. med. Camathias Carlo,9000 St. Gallen,9000,Gallen,tel:+41712828242,https://www.local.ch/en/d/st-gallen/9000/clinic/pd-dr-med-camathias-carlo-i1dLtDi-4U86ah-amkrC7w
Pneumologie,"Rue du Lac 142B, 1815 Clarens",1815,Clarens,tel:+41219893234,https://www.local.ch/en/d/clarens/1815/clinic/pneumologie-kyoCbiMJTaJXN727Zj1wEA
"Psychiatrie, psychothérapie, hypnothérapie","Rue du Lac 142B, 1815 Clarens",1815,Clarens,tel:+41219893215,https://www.local.ch/en/d/clarens/1815/clinic/psychiatrie-psychotherapie-hypnotherapie-S2hvTe5aAslxPsXHxHSBKw
dr.ssa Fraulini Chiara,6600 Locarno,6600,Locarno,tel:+41917564413,https://www.local.ch/en/d/locarno/6600/clinic/dr-ssa-fraulini-chiara-gG-Il6cSgx8hqWxkVRvLNw
"Dermatologie, chirurgie cosmétique",1224 Chêne-Bougeries,1224,Chêne-Bougeries,tel:+41225458010,https://www.local.ch/en/d/chene-bougeries/1224/clinic/dermatologie-chirurgie-cosmetique-ih2jYWP14NusaMtOqPH1lQ
Radiologie,"Rue du Lac 142B, 1815 Clarens",1815,Clarens,tel:+41219893355,https://www.local.ch/en/d/clarens/1815/clinic/radiologie-cgbx8Wx6JLHL-HP9FihRjw
"Praxis für Hals-, Nasen- und Ohrenkrankheiten (HNO)","Schanzweg 7, 5000 Aarau",5000,Aarau,tel:+41628250150,https://www.local.ch/en/d/aarau/5000/clinic/praxis-fuer-hals-nasen-und-ohrenkrankheiten-hno-ir8D6g8LZ30LVeV3nWTmXg
Rhumatologie,"Rue du Lac 142B, 1815 Clarens",1815,Clarens,tel:+41219893237,https://www.local.ch/en/d/clarens/1815/clinic/rhumatologie-z206qd4s6Ha_JUSukDo-ZA
Dr. med. Hollmann Ralph,"Lindenstrasse 137, 9016 St. Gallen",9016,Gallen,tel:+41712808899,https://www.local.ch/en/d/st-gallen/9016/clinic/dr-med-hollmann-ralph-KKE0aT_qkLqp-J1F6QeE0g
dr. med. Bolognini Gianfranco,"Via Soldino 5, 6900 Lugano",6900,Lugano,tel:+41919608588,https://www.local.ch/en/d/lugano/6900/clinic/dr-med-bolognini-gianfranco-ajDGMPErCxBG6vRd1rTuYg
SPA,"Rue du Lac 142B, 1815 Clarens",1815,Clarens,tel:+41219893344,https://www.local.ch/en/d/clarens/1815/clinic/spa-mBqdOowRUbMZ1d_zdVE61w
Dr. med. Gilta Marte,"Brauerstrasse 95a, 9016 St. Gallen",9016,Gallen,tel:+41712210040,https://www.local.ch/en/d/st-gallen/9016/clinic/dr-med-gilta-marte-8-KBHxgi1CMs7-LpYpFCHQ
Dr. med. Hoederath Petra,"Brauerstrasse 95a, 9016 St. Gallen",9016,Gallen,tel:+41712210040,https://www.local.ch/en/d/st-gallen/9016/clinic/dr-med-hoederath-petra-YQQUfDJE_Sv2hefAic_UDg
Dr. med. Leippold Thomas,"Brauerstrasse 95a, 9016 St. Gallen",9016,Gallen,tel:+41712454444,https://www.local.ch/en/d/st-gallen/9016/clinic/dr-med-leippold-thomas-lCh-YH15F4jhW1eRCg5Lfg
Dr. med. Meier Mark,"Brauerstrasse 95a, 9016 St. Gallen",9016,Gallen,tel:+41712454444,https://www.local.ch/en/d/st-gallen/9016/clinic/dr-med-meier-mark-XkewV6jRnZ5yS2yXayoEQQ
Sulmoni Mauro,"Poststrasse 25, 9000 St. Gallen",9000,Gallen,tel:+41712233573,https://www.local.ch/en/d/st-gallen/9000/clinic/sulmoni-mauro-idCmGKcjQLJaxtlpPmIAgw
Dr. med. Betschart Patrick,"Brauerstrasse 95a, 9016 St. Gallen",9016,Gallen,tel:+41712454444,https://www.local.ch/en/d/st-gallen/9016/clinic/dr-med-betschart-patrick-Ez5IOXUwn0eujJIJkywEdQ
Schwizer Gastroenterologie-Zentrum Stephanshorn AG,"Brauerstrasse 95, 9016 St. Gallen",9016,Gallen,tel:+41715771111,https://www.local.ch/en/d/st-gallen/9016/clinic/schwizer-gastroenterologie-zentrum-stephanshorn-ag-sBY3aLNzkFKglCsL6MLhXA
Isenring Bruno D.,"Schuppisstrasse 10, 9016 St. Gallen",9016,Gallen,tel:+41712445181,https://www.local.ch/en/d/st-gallen/9016/clinic/isenring-bruno-d-VNMAUwEAMIrhj0FCRFGCiQ
dr. med. Tanzi Franco,"Via Soldino 5, 6900 Lugano",6900,Lugano,tel:+41919608585,https://www.local.ch/en/d/lugano/6900/clinic/dr-med-tanzi-franco-qNKX9qZCM2ASLQJ0kCzXDg
dr. med. Pertoldi William,"Via Soldino 5A, 6900 Lugano",6900,Lugano,tel:+41919608033,https://www.local.ch/en/d/lugano/6900/clinic/dr-med-pertoldi-william-vg8pXMSSVevuBUf7V-s0BQ
Oto-Rhino-Laryngologie,"Route de Chêne 110, 1224 Chêne-Bougeries",1224,Chêne-Bougeries,tel:+41225458001,https://www.local.ch/en/d/chene-bougeries/1224/clinic/oto-rhino-laryngologie-MJ5WiaLOuQr-mfBEYmhaeA
1DS (One-Day-Surgery) SA,"Route du Jura 43, 1700 Fribourg",1700,Fribourg,tel:+41264676767,https://www.local.ch/en/d/fribourg/1700/clinic/1ds-one-day-surgery-sa-RoL6uv2UeFlOdCwhu3j33g
"Airport Medical Center, Uroviva - Urologie Zürich Flughafen",8302 Kloten,8302,Kloten,tel:+41438166000,https://www.local.ch/en/d/kloten/8302/clinic/airport-medical-center-uroviva-urologie-zuerich-flughafen-zWPEPwZSjFeh-L0l_YoElg
AndreasKlinik Cham Zug,"Rigistrasse 1, 6330 Cham",6330,Cham,tel:+41417840784,https://www.local.ch/en/d/cham/6330/clinic/andreasklinik-cham-zug-rt9VVdmSRAr6G-wKamI8ow
Dr. med. Bärlocher Christian,"Schuppisstrasse 10, 9016 St. Gallen",9016,Gallen,tel:+41712424400,https://www.local.ch/en/d/st-gallen/9016/clinic/dr-med-baerlocher-christian-fy3NXsHnGNo83q1r0pS2ww
Dr. med. Bothmann Matthias,"Brauerstrasse 95a, 9016 St. Gallen",9016,Gallen,tel:+41712822040,https://www.local.ch/en/d/st-gallen/9016/clinic/dr-med-bothmann-matthias-6LB1HGtqd1xFxQp46wt0Ag
CED Centre d'Endoscopie Digestive,"Avenue de Champel 24, 1206 Genève",1206,Genève,tel:+41223299000,https://www.local.ch/en/d/geneve/1206/clinic/ced-centre-d-endoscopie-digestive-MTnzawkZbrbhyfassT0ePw
Centre de Chirurgie Plastique Vert-Pré,"Chemin de la Colombe 15, 1231 Conches",1231,Conches,tel:+41227043131,https://www.local.ch/en/d/conches/1231/clinic/centre-de-chirurgie-plastique-vert-pre-X7ang-gmWur2Fhlx5HGctg
Clinica Sant' Anna,"Via Sant'Anna 1, 6924 Sorengo",6924,Sorengo,tel:+41919851211,https://www.local.ch/en/d/sorengo/6924/clinic/clinica-sant-anna-khfNlIGdjrHlsCIFGk_aXw
Clinique,"Spitalgasse 17-21, 3011 Bern",3011,Bern,tel:+41313121211,https://www.local.ch/en/d/bern/3011/clinique-MHFAaVfWJOPCmzHWQ2E75Q
Clinique,"Multergasse 47, 9000 St. Gallen",9000,Gallen,tel:+41712220024,https://www.local.ch/en/d/st-gallen/9000/clinique-dgWKB6Z2FdJcBgTRVLqw6Q
Clinique Belmont Sàrl,"Route de Chêne 26, 1207 Genève",1207,Genève,tel:+41227357811,https://www.local.ch/en/d/geneve/1207/clinic/clinique-belmont-sarl-jx8SW8feA_O-5Mwj6QO-lA
Clinique Bois-Cerf,"Avenue d'Ouchy 31, 1006 Lausanne",1006,Lausanne,tel:+41216196969,https://www.local.ch/en/d/lausanne/1006/clinic/clinique-bois-cerf-M6-pt6Ldmci-pqn0zqE9ow
Clinique Cecil,"Avenue Louis-Ruchonnet 53, 1003 Lausanne",1003,Lausanne,tel:+41213105000,https://www.local.ch/en/d/lausanne/1003/clinic/clinique-cecil-P-qRbFRFz_i5K9ebRDGE_w
Clinique Cecil,"Avenue Louis-Ruchonnet 53, 1003 Lausanne",1003,Lausanne,tel:+41213105095,https://www.local.ch/en/d/lausanne/1003/clinic/clinique-cecil-JojrkKRo1tL4QyQEvVvPXg
Clinique de Genolier,"Route du Muids 3, 1272 Genolier",1272,Genolier,tel:+41223669000,https://www.local.ch/en/d/genolier/1272/clinic/clinique-de-genolier-yv6hzqQqRonXxYVDojnD5A
Clinique de Joli-Mont,"Avenue Trembley 45, 1209 Genève",1209,Genève,tel:+41227170311,https://www.local.ch/en/d/geneve/1209/clinic/clinique-de-joli-mont-ydrXrr0pBkJ6FoL8gwHoDQ
Clinique de La Source,"Avenue Alexandre-Vinet 30, 1004 Lausanne",1004,Lausanne,tel:+41216413333,https://www.local.ch/en/d/lausanne/1004/clinic/clinique-de-la-source-xXtbi4a1olbGPIWauF9OWA
Clinique de Montchoisi,"Chemin des Allinges 10, 1006 Lausanne",1006,Lausanne,tel:+41216193939,https://www.local.ch/en/d/lausanne/1006/clinic/clinique-de-montchoisi-7x5CzWev--cytk1pA7I-7g
Fondazione Varini,"Via Consiglio Mezzano 38, 6644 Orselina",6644,Orselina,tel:+41917355555,https://www.local.ch/en/d/orselina/6644/clinic/fondazione-varini-jVpoA93UfzjzfApSZk3RjQ
FussZentrum Hirslanden,"Witellikerstrasse 40, 8008 Zürich",8008,Zürich,tel:+41443873055,https://www.local.ch/en/d/zuerich/8008/clinic/fusszentrum-hirslanden-hBGSnxj9dA0jnp2p6Eb13A
Geneva Mederi Esthetic,"Avenue de Champel 81, 1206 Genève",1206,Genève,tel:+41223474422,https://www.local.ch/en/d/geneve/1206/clinic/geneva-mederi-esthetic-1Xk8F91T2rR-lM_wPldr_A
Dr. med. Hefti Martin,"Brauerstrasse 95a, 9016 St. Gallen",9016,Gallen,tel:+41712822040,https://www.local.ch/en/d/st-gallen/9016/clinic/dr-med-hefti-martin-jt5c1T2uuamtFFRuiGk-6w
Hirslanden AG,"Boulevard Lilienthal 2, 8152 Glattpark (Opfikon)",8152,(Opfikon),tel:+41443888585,https://www.local.ch/en/d/glattpark-opfikon/8152/clinic/hirslanden-ag-n2d1AlOq40DyINRgEsuv9w
Prof. Dr. med. Hopf Nikolai,"Brauerstrasse 95a, 9016 St. Gallen",9016,Gallen,tel:+41712822040,https://www.local.ch/en/d/st-gallen/9016/clinic/prof-dr-med-hopf-nikolai-iIhKc0H0iqliVFKhm0vXUQ
Dr. med. Jakob Stephan,"Brauerstrasse 95a, 9016 St. Gallen",9016,Gallen,tel:+41712822040,https://www.local.ch/en/d/st-gallen/9016/clinic/dr-med-jakob-stephan-IlY9xwKOsRVVSbhAImbNyw
Dr. med. Kraus Ulrich,"Brauerstrasse 95a, 9016 St. Gallen",9016,Gallen,tel:+41712880162,https://www.local.ch/en/d/st-gallen/9016/clinic/dr-med-kraus-ulrich-ipYnVUlT8wFA2QOk0nonnQ
Lungenzentrum Hirslanden Zürich,"Witellikerstrasse 40, 8008 Zürich",8008,Zürich,tel:+41443873000,https://www.local.ch/en/d/zuerich/8008/clinic/lungenzentrum-hirslanden-zuerich-gpjoU60aQHylXN0cFoTuAw
Dr. med. Meyer Adrian,9000 St. Gallen,9000,Gallen,tel:+41718451414,https://www.local.ch/en/d/st-gallen/9000/clinic/dr-med-meyer-adrian-5FIaTUYhyxhpXMIZyquv5w
Mv Santé Vision,"Avenue de Rhodanie 70, 1007 Lausanne",1007,Lausanne,tel:+41216131080,https://www.local.ch/en/d/lausanne/1007/clinic/mv-sante-vision-hnNpIOIka3K01UG5WZ3O5w
Orthopädie,9435 Heerbrugg,9435,Heerbrugg,tel:+41715770055,https://www.local.ch/en/d/heerbrugg/9435/clinic/orthopaedie-CLuac8tJIzLaInjukUtD2w
Schlosstal Integrierte Psychiatrie Winterthur - Zürcher Unterland Besuchszeiten alle Abteilungen,"Wieshofstrasse 102, 8408 Winterthur",8408,Winterthur,tel:+41522643333,https://www.local.ch/en/d/winterthur/8408/clinic/schlosstal-integrierte-psychiatrie-winterthur-zuercher-unterland-besuchszeiten-alle-abteilungen-DkZGDg3XBkbRCBHWik4QNg
TAGESKLINIK BERN,"Neuengass-Passage 2, 3011 Bern",3011,Bern,tel:+41313128383,https://www.local.ch/en/d/bern/3011/clinic/tagesklinik-bern-ht5fAEwuYZVHOIY5lk8n8g
Uroviva Andrologiezentrum Zürich,"Stadelhoferstrasse 22, 8001 Zürich",8001,Zürich,tel:+41443651070,https://www.local.ch/en/d/zuerich/8001/clinic/uroviva-andrologiezentrum-zuerich-s7RNsKwniO9WfEDSdHVHDg
VenenZentrum Bellevue Zürich,"Theaterstrasse 16, 8001 Zürich",8001,Zürich,tel:+41442514300,https://www.local.ch/en/d/zuerich/8001/clinic/venenzentrum-bellevue-zuerich-x_VIuv-2FVapRvh98ydQ0w
VISION CLINIQUE SA,"Rue du Lac 12, 1207 Genève",1207,Genève,tel:+41228608020,https://www.local.ch/en/d/geneve/1207/clinic/vision-clinique-sa-S-CytnQBOouFPAQBWFjc3w
Vista Augenklinik Zürich,"Sihlstrasse 37, 8001 Zürich",8001,Zürich,tel:+41442509500,https://www.local.ch/en/d/zuerich/8001/clinic/vista-augenklinik-zuerich-DnZQrbhPr3DnfKBH9j0XdQ
ZURZACH Care Rehaklinik Braunwald,"Niederschlachtstrasse 12, 8784 Braunwald",8784,Braunwald,tel:+41556535111,https://www.local.ch/en/d/braunwald/8784/clinic/zurzach-care-rehaklinik-braunwald-7iHQ-0NLvP-NNoa9D89EVw
Clinique Bellefontaine,"Rue Bellefontaine 2, 1003 Lausanne",1003,Lausanne,tel:+41216013333,https://www.local.ch/en/d/lausanne/1003/aesthetic-medicine/clinique-bellefontaine--3udqS9HuhBOaRvSL5l1Ww
Clinique Dentaire de Neuchâtel SA,"Place Pury 7, 2000 Neuchâtel",2000,Neuchâtel,tel:+41327241924,https://www.local.ch/en/d/neuchatel/2000/dentist/clinique-dentaire-de-neuchatel-sa-DHG1SE3IcZJP0cbhVO-hZg
Clinique esthétique Morépont-Delémont,"Rue du 24-Septembre 7, 2800 Delémont",2800,Delémont,tel:+41324220137,https://www.local.ch/en/d/delemont/2800/general-internal-medicine/clinique-esthetique-morepont-delemont-0mZaNkLiLLxiiRL4LgRAGQ
Clinique Adonis,"Rue Charles-Humbert 8, 1205 Genève",1205,Genève,tel:+41227989944,https://www.local.ch/en/d/geneve/1205/aesthetic-medicine/clinique-adonis-Zy0oTpE6UqeJ46yyHuVyDw
Clinique AREDA,"Route des Neyers 8, 1880 Bex",1880,Bex,tel:+41244635220,https://www.local.ch/en/d/bex/1880/vet/clinique-areda-hQR6RGeJIJ_J8BCjknQ6XA
Clinique de Rosé,"Rue de l'Eglise 1, 2900 Porrentruy",2900,Porrentruy,tel:+41324659484,https://www.local.ch/en/d/porrentruy/2900/dentist/clinique-de-rose-l2aNQB_Bc5hzaLfUz3S30w
Clinique dentaire Cornavin,"Rue de Cornavin 5, 1201 Genève",1201,Genève,tel:+41225579379,https://www.local.ch/en/d/geneve/1201/dental-clinic/clinique-dentaire-cornavin-waGXhz8QOBLB3z84YDo88A
Clinique Dentaire d'Onex,"Avenue Bois-de-la-Chapelle 99, 1213 Onex",1213,Onex,tel:+41227932960,https://www.local.ch/en/d/onex/1213/dental-clinic/clinique-dentaire-d-onex-HMrVB7vIzRVQH5b4L0SvcQ
Clinique Dentaire de Meyrin,"Rue des Boudines 15, 1217 Meyrin",1217,Meyrin,tel:+41227823344,https://www.local.ch/en/d/meyrin/1217/dentist/clinique-dentaire-de-meyrin-zfhQ6i8bDVRvKakz4JIWpQ
Clinique Dentaire les dents du Midi,"Avenue de la Gare 24, 1870 Monthey",1870,Monthey,tel:+41244716667,https://www.local.ch/en/d/monthey/1870/dentist/clinique-dentaire-les-dents-du-midi-FX24FS8T6HNcq8NK64soww
Clinique du Grand Salève,"Avenue du Grand-Salève 2, 1255 Veyrier",1255,Veyrier,tel:+41225705050,https://www.local.ch/en/d/veyrier/1255/private-clinic/clinique-du-grand-saleve-tJ4UW5qTKFK2Rpa_yf4NYQ
Clinique du Moléson,"Avenue de la Gare 30, 1630 Bulle",1630,Bulle,tel:+41269138000,https://www.local.ch/en/d/bulle/1630/private-clinic/clinique-du-moleson-VoAnsLukH5vHiehG468fEA
Clinique Holistique de Montreux,"Avenue des Alpes 104, 1820 Montreux",1820,Montreux,tel:+41796100088,https://www.local.ch/en/d/montreux/1820/acupuncture-not-included-in-category-doctors/clinique-holistique-de-montreux-K2CFroQx2AMpZpwhPPIB2A
Clinique OrthoART Eaux-Vives,"Rue Maunoir 13, 1207 Genève",1207,Genève,tel:+41797158637,https://www.local.ch/en/d/geneve/1207/orthodontics/clinique-orthoart-eaux-vives-Qh59PgzQpAtVjOp3co4wWA
Clinique OrthoART Onex,"Route de Loëx 3, 1213 Onex",1213,Onex,tel:+41227920084,https://www.local.ch/en/d/onex/1213/orthodontics/clinique-orthoart-onex-9uD-5pKISrObVNrc0ue48Q
CLINIQUE PODOLOGIQUE ROTH KRYS,"Route du Centre Thermal 14, 1913 Saillon",1913,Saillon,tel:+41793699651,https://www.local.ch/en/d/saillon/1913/podology/clinique-podologique-roth-krys-jl3sjEejxokgKhPI6aqniA
Clinique Vétérinaire Delémont,"Route de Bâle 153, 2800 Delémont",2800,Delémont,tel:+41324213630,https://www.local.ch/en/d/delemont/2800/vet/clinique-veterinaire-delemont-FckU_VB5VT3ie-qtHxnoRw
Clinique vétérinaire du Vieux-Château Grands Animaux Sàrl,"Route de Bâle 151, 2800 Delémont",2800,Delémont,tel:+41324213636,https://www.local.ch/en/d/delemont/2800/vet/clinique-veterinaire-du-vieux-chateau-grands-animaux-sarl-Hc3Rks4M8ApZGN-2-HRSwQ
Clinique Vétérinaire du Vieux-Château Grands Animaux Sàrl,"Rue Baptiste-Savoye 51, 2610 St-Imier",2610,St-Imier,tel:+41329443636,https://www.local.ch/en/d/st-imier/2610/vet/clinique-veterinaire-du-vieux-chateau-grands-animaux-sarl-QKx7ZyR6sSzUelwnHJ3SsA
Clinique Vétérinaire du Vieux-Château Grands Animaux Sàrl (Grosstiere,"Bodenackerstrasse 1A, 4226 Breitenbach",4226,Breitenbach,tel:+41791213636,https://www.local.ch/en/d/breitenbach/4226/vet/clinique-veterinaire-du-vieux-chateau-grands-animaux-sarl-grosstiere-nHZLrBjY-M30opqkS_RVNg
Clinique dentaire LeLake,"Avenue du Théâtre 7, 1005 Lausanne",1005,Lausanne,tel:+41213187600,https://www.local.ch/en/d/lausanne/1005/dentist/clinique-dentaire-lelake-3qoVChLaMSdNpOgSsFjNkg
Clinique ostéopathie Duplain SA,"Rue du Bas de la Fin 3A, 1055 Froideville",1055,Froideville,tel:+41213232323,https://www.local.ch/en/d/froideville/1055/osteopathy/clinique-osteopathie-duplain-sa-pH2yFYjF0JLWBWmsTjRWyg
Clinique Dentaire de Genolier,"Route du Muids 3, 1272 Genolier",1272,Genolier,tel:+41223661782,https://www.local.ch/en/d/genolier/1272/dental-clinic/clinique-dentaire-de-genolier-tMhNy5SSLU_ZzbxM-yGRyw
Clinique dentaire Sourire Plus SA,"Rue du Crêt-Taconnet 8a, 2000 Neuchâtel",2000,Neuchâtel,tel:+41327244020,https://www.local.ch/en/d/neuchatel/2000/dentist/clinique-dentaire-sourire-plus-sa-JBBhY6lkOFDtKFmG3ddITA
Clinique du Vêtement,"Rue de Romont 33, 1700 Fribourg",1700,Fribourg,tel:+41263224087,https://www.local.ch/en/d/fribourg/1700/sewing-center/clinique-du-vetement-O1OGg8i4xHJvBIpSZOm2uw
Clinique du vêtement Tailleur Bulgan,"Avenue de Lavaux 24, 1009 Pully",1009,Pully,tel:+41217296981,https://www.local.ch/en/d/pully/1009/couture/clinique-du-vetement-tailleur-bulgan-5mZjJBNI3EFIBIgqVM_iWg
Clinique Moléson - Centre partenaire Unilabs,"Avenue de la Gare 30, 1630 Bulle",1630,Bulle,tel:+41269138000,https://www.local.ch/en/d/bulle/1630/medical-laboratory-analysis/clinique-moleson-centre-partenaire-unilabs-IzwP25zzTomhpuERBuqp6g
Clinique Ophtalmologique Vista Alpina SA,"Rue du Bourg 3, 3960 Sierre",3960,Sierre,tel:+41274553404,https://www.local.ch/en/d/sierre/3960/eye-center/clinique-ophtalmologique-vista-alpina-sa-H2HfQ6hABbDnE1MYzeVTPQ
Clinique Ophtalmologique Vista Alpina SA,"Avenue du Midi 14, 1950 Sion",1950,Sion,tel:+41275520500,https://www.local.ch/en/d/sion/1950/ophthalmology/clinique-ophtalmologique-vista-alpina-sa-455STdGk9LEu4-lr6XfPzA
Clinique de la Douleur,"Avenue Jacob-Daniel Maillard 3, 1217 Meyrin",1217,Meyrin,tel:+41227196577,https://www.local.ch/en/d/meyrin/1217/hospital/clinique-de-la-douleur-uGk6bRKobGTsuJDoGRNfbQ
Clinique de Médecine Esthétique et Anti-Âge,"Chemin François-Lehmann 26, 1218 Le Grand-Saconnex",1218,Grand-Saconnex,tel:+41229203882,https://www.local.ch/en/d/le-grand-saconnex/1218/aesthetic-medicine/clinique-de-medecine-esthetique-et-anti-age-zJ8nQCxUtOhE0YGBbTHGnw
Clinique Dentaire du Lac,"Rue de Lausanne 39E, 1110 Morges",1110,Morges,tel:+41218015000,https://www.local.ch/en/d/morges/1110/dentist/clinique-dentaire-du-lac-mdTAq9W-6BPy3_SAv3Wgww
Clinique des Grangettes,"Chemin des Grangettes 7, 1224 Chêne-Bougeries",1224,Chêne-Bougeries,tel:+41223050777,https://www.local.ch/en/d/chene-bougeries/1224/emergency-services/clinique-des-grangettes-pDHVceqpiFdwwGM1_ETlwQ
Clinique DIS7,"Rue du Mont 17, 1950 Sion",1950,Sion,tel:+41273221097,https://www.local.ch/en/d/sion/1950/art-therapy/clinique-dis7-vIYZ49prcpmRggeHmhJ3wQ
Clinique du Lis,"Galerie Jean-Malbuisson 15, 1204 Genève",1204,Genève,tel:+41228108530,https://www.local.ch/en/d/geneve/1204/acupuncture-not-included-in-category-doctors/clinique-du-lis-iUnCM5qfgE3fgAKDbSD_FA
Clinique Moncor SA centre fribourgeois de chirurgie,"Route de Moncor 12, 1752 Villars-sur-Glâne",1752,Villars-sur-Glâne,tel:+41264011450,https://www.local.ch/en/d/villars-sur-glane/1752/nursing-home/clinique-moncor-sa-centre-fribourgeois-de-chirurgie-PXPPz9eex48NxuxOgiOvOw
Clinique Renaissance,"Chemin du Vallon 2, 1093 La Conversion",1093,Conversion,tel:+41216533544,https://www.local.ch/en/d/la-conversion/1093/waxing/clinique-renaissance-tNo9jaFB_3DdBnwPSRv4bA
Clinique de l'Habillement,"Avenue de la Gare 32, 1950 Sion",1950,Sion,tel:+41794659529,https://www.local.ch/en/d/sion/1950/tailor-s-shop/clinique-de-l-habillement-2BtVZ0Vn-QqeejhbJwNXmw
Clinique Yongli MTC Sàrl,"Rue du Simplon 5, 1800 Vevey",1800,Vevey,tel:+41219221088,https://www.local.ch/en/d/vevey/1800/acupuncture-tcm/clinique-yongli-mtc-sarl-6b9cSC4dhIRz9P-hkLJrAA
Clinique Auto,"Chemin de la Colice 22, 1023 Crissier",1023,Crissier,tel:+41216171515,https://www.local.ch/en/d/crissier/1023/garage/clinique-auto-oN3vGrnjg1JQGbevpb1esQ
Clinique Concorde,"Rue du Bassin 12, 2000 Neuchâtel",2000,Neuchâtel,tel:+41327244590,https://www.local.ch/en/d/neuchatel/2000/chinese-medicine-tcm/clinique-concorde-0feN7Pg1m_zZ9YhG7oWvOw
Clinique DELC AG,"Marktgasse 17, 2502 Biel/Bienne",2502,Biel/Bienne,tel:+41323254433,https://www.local.ch/en/d/biel-bienne/2502/clinique-delc-ag-sKp_Gnz2dIytsRYpadfV1w
Clinique DELC AG,"Solothurnstrasse 65, 2540 Grenchen",2540,Grenchen,tel:+41325523333,https://www.local.ch/en/d/grenchen/2540/clinique-delc-ag-bC95hw5XqJNaHeZ2xqYLlw
Clinique Dentaire de Lausanne - Bussigny,"Blvd de l'Arc-en-Ciel 26, 1030 Bussigny",1030,Bussigny,tel:+41219772121,https://www.local.ch/en/d/bussigny/1030/dental-clinic/clinique-dentaire-de-lausanne-bussigny-uEALynEGpzKaVm6aUKqfMA
Clinique Dentaire du Chablais,"Route du Montagnier, 1868 Collombey",1868,Collombey,tel:+41244814949,https://www.local.ch/en/d/collombey/1868/dentist/clinique-dentaire-du-chablais-JPdcUT6H_YZumg9E_JnfWw
Clinique Dentaire du Valais,"Route Cantonale 11, 1964 Conthey",1964,Conthey,tel:+41273452727,https://www.local.ch/en/d/conthey/1964/periodontology/clinique-dentaire-du-valais-C7KMWsP4YPYH6ZqbajPObg
Clinique dentaire scolaire régionale,"Rue de la Verrerie 1, 1870 Monthey",1870,Monthey,tel:+41244713535,https://www.local.ch/en/d/monthey/1870/dental-clinic/clinique-dentaire-scolaire-regionale-uqLsx7DtQrc4kUSIg3P3gQ
Clinique Générale - Ste-Anne SA,"Rue Hans-Geiler 6, 1700 Fribourg",1700,Fribourg,tel:+41263500111,https://www.local.ch/en/d/fribourg/1700/clinique-generale-ste-anne-sa-Ccjcj-2sQ5_Jy4ZfuQgPKA
Clinique Matignon Suisse SA,"Rue des Alpes 15, 1201 Genève",1201,Genève,tel:+41227151490,https://www.local.ch/en/d/geneve/1201/cosmetic-institute/clinique-matignon-suisse-sa-8u_ORih8Yb7ODtM6T76gpQ
Clinique Matignon Suisse SA,"Chemin de Beau-Rivage 18, 1006 Lausanne",1006,Lausanne,tel:+41213117070,https://www.local.ch/en/d/lausanne/1006/clinique-matignon-suisse-sa-o0lR1WGEesJfoi3tXjiPnA
Clinique Matignon Suisse SA,"Avenue de la Gare 24, 1870 Monthey",1870,Monthey,tel:+41273237000,https://www.local.ch/en/d/monthey/1870/dermatology-and-venereology/clinique-matignon-suisse-sa-A80bXnv_w0yA3wwjxW0QHA
Clinique Tobalem (TBLM SA),"Place du Port 1, 1204 Genève",1204,Genève,tel:+41223102815,https://www.local.ch/en/d/geneve/1204/clinique-tobalem-tblm-sa-Z2Tgj52qIG-fcbnS6IYe_A
Clinique et Permanence d'Onex (Cité générations),"Route de Chancy 98, 1213 Onex",1213,Onex,tel:+41227090000,https://www.local.ch/en/d/onex/1213/emergency-medicine/clinique-et-permanence-d-onex-cite-generations-nGesfMt6KJFdm-BtdSy_Rw
Clinique de jour / Tagesklinik,"Chemin des Fléoles 2, 2503 Biel/Bienne",2503,Biel/Bienne,tel:+41324847272,https://www.local.ch/en/d/biel-bienne/2503/hospital/clinique-de-jour-tagesklinik--Ro-mXXJ2Tg2uicW8mXkOw
Clinique universitaire de médecine dentaire (CUMD),"Rue Lombard 19, 1205 Genève",1205,Genève,tel:+41223794000,https://www.local.ch/en/d/geneve/1205/state-school/clinique-universitaire-de-medecine-dentaire-cumd-tS2Kdv1M-q0K4R0HZMWQzg
Clinique de chirurgie / Chirurgie viscérale,"Chante-Merle 84, 2502 Biel/Bienne",2502,Biel/Bienne,tel:+41323243764,https://www.local.ch/en/d/biel-bienne/2502/hospital/clinique-de-chirurgie-chirurgie-viscerale-bNo0RohkUYrI9tUr1lCR5w
Clinique de jour,"Champ de Chin 18, 2735 Bévilard",2735,Bévilard,tel:+41324847272,https://www.local.ch/en/d/bevilard/2735/hospital/clinique-de-jour-uDJAxBLEQdRhxi_3ps-kdw
Clinique dentaire ambulante,2900 Porrentruy,2900,Porrentruy,tel:+41792770206,https://www.local.ch/en/d/porrentruy/2900/cantonal-administration/clinique-dentaire-ambulante-7oll0Bw8_RIYeaB4fkQQbw
Clinique de chirurgie / Traumatologie,"Chante-Merle 84, 2502 Biel/Bienne",2502,Biel/Bienne,tel:+41323243448,https://www.local.ch/en/d/biel-bienne/2502/hospital/clinique-de-chirurgie-traumatologie-CXFezdIvEn9ybdB5kGWkTQ
Clinique de chirurgie / Chirurgie thoracique,"Chante-Merle 84, 2502 Biel/Bienne",2502,Biel/Bienne,tel:+41323243224,https://www.local.ch/en/d/biel-bienne/2502/hospital/clinique-de-chirurgie-chirurgie-thoracique-N_nHC5FDpoE62gGgkrLBdQ
Clinique dentaire scolaire,"Rue du Bugnon 1, 1020 Renens VD",1020,VD,tel:+41216327572,https://www.local.ch/en/d/renens-vd/1020/municipal-government/clinique-dentaire-scolaire-_1nkhcvXlho2JwqtKcJZVQ
Clinique dentaire scolaire orthodontique,"Route de Podemainge 10, 1937 Orsières",1937,Orsières,tel:+41277831791,https://www.local.ch/en/d/orsieres/1937/dentist/clinique-dentaire-scolaire-orthodontique-_qyzE8wys-_s02mS9UTnXg
Clinique dentaire de la Jeunesse,"Rue de Neuchâtel 2, 1400 Yverdon-les-Bains",1400,Yverdon-les-Bains,tel:+41244236490,https://www.local.ch/en/d/yverdon-les-bains/1400/dental-clinic/clinique-dentaire-de-la-jeunesse-oGGdGvwSPn0VpHiNkXtlVA
Clinique de gynécologie et obstétrique,"Chante-Merle 84, 2502 Biel/Bienne",2502,Biel/Bienne,tel:+41323242424,https://www.local.ch/en/d/biel-bienne/2502/hospital/clinique-de-gynecologie-et-obstetrique-tUTBiOIonz9we0Fa3OVAYg
Clinique dentaire scolaire régionale,"Chemin des Ecoliers 3, 1896 Vouvry",1896,Vouvry,tel:+41244811131,https://www.local.ch/en/d/vouvry/1896/dentist/clinique-dentaire-scolaire-regionale-jJ306si58TcnqEhIoVeVKg
Clinique de médecine interne,"Chante-Merle 84, 2502 Biel/Bienne",2502,Biel/Bienne,tel:+41323243438,https://www.local.ch/en/d/biel-bienne/2502/hospital/clinique-de-medecine-interne-HlJpwluaigZ11PTvm-eyRQ
Clinique pour enfants Wildermeth,"Chante-Merle 84, 2502 Biel/Bienne",2502,Biel/Bienne,tel:+41323242424,https://www.local.ch/en/d/biel-bienne/2502/hospital/clinique-pour-enfants-wildermeth-dIt5x4QnRzZgQ0ym6Phhmw
CLINIQUE BIO MTC Sàrl,"Chemin de la Cigale 4B, 1010 Lausanne",1010,Lausanne,tel:+41789427035,https://www.local.ch/en/d/lausanne/1010/chinese-medicine-tcm/clinique-bio-mtc-sarl-LH0aC6PMxara4WW6aJtUzw
Clinique Care Geneva Aesthetics,"Rue Rodolphe-Toepffer 12, 1206 Genève",1206,Genève,tel:+41223475757,https://www.local.ch/en/d/geneve/1206/clinique-care-geneva-aesthetics-Z55EVOetrgZUU_j4EwBKTg
Clinique Cosmetics,"Marktplatz 2, 4001 Basel",4001,Basel,tel:+41612616551,https://www.local.ch/en/d/basel/4001/clinique-cosmetics-QkFwF38xPB6LQwrRKsatRA
Clinique Counter,"Greifengasse 22, 4058 Basel",4058,Basel,tel:+41616930630,https://www.local.ch/en/d/basel/4058/clinique-counter-9z-K5-GEU_bjFguj4a_J1Q
Clinique d'Orthodontie,"Chemin de La-Loutre 15, 1290 Versoix",1290,Versoix,tel:+41223444060,https://www.local.ch/en/d/versoix/1290/clinique-d-orthodontie-fstyuThyt7Gwq3OaEdu8rg
Clinique d'Orthodontie de Genève Sàrl,"Carrefour de Rive 2, 1207 Genève",1207,Genève,tel:+41227352151,https://www.local.ch/en/d/geneve/1207/dental-clinic/clinique-d-orthodontie-de-geneve-sarl-_0jRUyKF8BarDRfYe_4hzA
Clinique d'Orthodontie les Vergers SA,"Place de la Diversité 1, 1217 Meyrin",1217,Meyrin,,https://www.local.ch/en/d/meyrin/1217/clinique-d-orthodontie-les-vergers-sa-W6EyRixjrEkIPBTLP8yaCQ
Clinique d'Orthodontie Luis Marin C. Sàrl,"Boulevard Carl-Vogt 47, 1205 Genève",1205,Genève,tel:+41223207370,https://www.local.ch/en/d/geneve/1205/clinique-d-orthodontie-luis-marin-c-sarl-jO5J00i40RxalnJXajDw7g
Clinique de l'Oeil Martigny,"Rue de la Poste 5, 1920 Martigny",1920,Martigny,tel:+41277231377,https://www.local.ch/en/d/martigny/1920/clinique-de-l-oeil-martigny-811yVmQS2DjkwCaI42iTMw
Clinique de l'Oeil Onex,"Avenue Bois-de-la-Chapelle 15, 1213 Onex",1213,Onex,tel:+41228791234,https://www.local.ch/en/d/onex/1213/clinique-de-l-oeil-onex-ypB1nUv66zrlddLZj_NRfA
Clinique de l'Oeil Sierre,"Place de la Gare 10, 3960 Sierre",3960,Sierre,tel:+41274517227,https://www.local.ch/en/d/sierre/3960/ophthalmic-clinics/clinique-de-l-oeil-sierre-enS_kBKTBQOUvfmaY-UW1g
Clinique de l'Oeil Sion,"Rue de la Dixence 49, 1950 Sion",1950,Sion,tel:+41273244460,https://www.local.ch/en/d/sion/1950/clinique-de-l-oeil-sion-pHNJ-_WF2_P6sHpGChxd3A
Clinique de la Croix d'or,"Rue de la Croix-d'Or 7, 1204 Genève",1204,Genève,tel:+41227365050,https://www.local.ch/en/d/geneve/1204/aesthetic-medicine/clinique-de-la-croix-d-or-0wLoFkHL2-Rgc2sJbdYJHw
"Clinique de la Famille, de l'Enfant et de l'Adolescent SA","Rue Emile-Yung, 1205 Genève",1205,Genève,tel:+41228400481,https://www.local.ch/en/d/geneve/1205/psychiatry-and-psychotherapy/clinique-de-la-famille-de-l-enfant-et-de-l-adolescent-sa-A0k68nzPHz0dAKaDSG3zeQ
"Clinique de la Famille, de l'Enfant et de l'Adolescent SA","Avenue de Frontenex 6, 1207 Genève",1207,Genève,,https://www.local.ch/en/d/geneve/1207/psychotherapy-general/clinique-de-la-famille-de-l-enfant-et-de-l-adolescent-sa-BfmAKc_heJ7oI4EaUPcSUg
Clinique Dentaire BUD Sàrl,"Lindenstrasse 4, 8600 Dübendorf",8600,Dübendorf,tel:+41448208800,https://www.local.ch/en/d/duebendorf/8600/clinique-dentaire-bud-sarl-6LbPQjHnrkKh9sUoibUwcA
Clinique Dentaire BUD Sàrl,"Grand-Rue 47, 1196 Gland",1196,Gland,tel:+41223640801,https://www.local.ch/en/d/gland/1196/clinique-dentaire-bud-sarl-HSuAX4qmpDqTIc-p8Vspyw
Clinique Dentaire de Lausanne - centre,"Rue Centrale 26, 1003 Lausanne",1003,Lausanne,tel:+41213118181,https://www.local.ch/en/d/lausanne/1003/dental-clinic/clinique-dentaire-de-lausanne-centre-AcCNfVOVJRaIm52tbHqfDw
Clinique Dentaire du Chablais,"Chemin sous le Grand Pré 2, 1860 Aigle",1860,Aigle,tel:+41244717171,https://www.local.ch/en/d/aigle/1860/clinique-dentaire-du-chablais-GAWbocFsApyKyvWru59nyg
Clinique dentaire du château de la cour Sierre,"Avenue du Château de la Cour 11, 3960 Sierre",3960,Sierre,tel:+41274568181,https://www.local.ch/en/d/sierre/3960/clinique-dentaire-du-chateau-de-la-cour-sierre-RHzf2dyy007gZAYGCp_MBQ
Clinique Dentaire du Leman SA,"Chemin des Saules 4A, 1260 Nyon",1260,Nyon,tel:+41225529191,https://www.local.ch/en/d/nyon/1260/clinique-dentaire-du-leman-sa-69xaeVegIVEpQKOVWyUhGg
Clinique Dentaire Fazy SA,"Boulevard James-Fazy 13, 1201 Genève",1201,Genève,tel:+41229080780,https://www.local.ch/en/d/geneve/1201/clinique-dentaire-fazy-sa-x_r9ZrPa5XyFg8xwrZYjkA
Clinique Dentaire Scolaire,"Rue de Lausanne 42, 1950 Sion",1950,Sion,tel:+41273273311,https://www.local.ch/en/d/sion/1950/orthodontics/clinique-dentaire-scolaire-kAKoenX-ABKr4Ub-g76F7Q
Clinique dentaire scolaire itinérante du district de Nyon,1196 Gland,1196,Gland,tel:+41796075340,https://www.local.ch/en/d/gland/1196/clinique-dentaire-scolaire-itinerante-du-district-de-nyon-nGNOftrp9gDfI7YUM8z1Ig
Clinique des Cyprès Sàrl,"Rue du Puits 8, 2800 Delémont",2800,Delémont,tel:+41324667822,https://www.local.ch/en/d/delemont/2800/hand-surgery/clinique-des-cypres-sarl-Brhj9PBGfdJ-9nVYf3tnww
Clinique des Vergers,"Chemin de la Planche 1, 1217 Meyrin",1217,Meyrin,tel:+41227575757,https://www.local.ch/en/d/meyrin/1217/clinique-des-vergers-XYgB26zN_SRCEhzg7NFhjg
Clinique du cheveu,"Avenue de la Gare 29, 1920 Martigny",1920,Martigny,tel:+41277220950,https://www.local.ch/en/d/martigny/1920/clinique-du-cheveu-xUJ89vypArbtuSqRfft1eA
Clinique du Lis,"Rue de Pierre-Pertuis 15, 2710 Tavannes",2710,Tavannes,tel:+41324837070,https://www.local.ch/en/d/tavannes/2710/clinique-du-lis-p0MwLPx1dihkHBmA0ZfSSg
Clinique du luminaire,"Rue du 31-Décembre 38, 1207 Genève",1207,Genève,tel:+41228404989,https://www.local.ch/en/d/geneve/1207/clinique-du-luminaire-A0UZSzi0tMxv0rHjoX9rig
Clinique Eden Suisse SA,"Route de la Corniche 4, 1071 Chexbres",1071,Chexbres,tel:+41219268800,https://www.local.ch/en/d/chexbres/1071/clinique-eden-suisse-sa-Xj_XLUxnHNCdGddfMcZacQ
"Clinique Générale,vs","Chemin des Semailles 4, 1212 Grand-Lancy",1212,Grand-Lancy,tel:+41792857476,https://www.local.ch/en/d/grand-lancy/1212/clinique-generale-vs-wFEBg5KcTbXNplPI0StTzw
Clinique Matignon Suisse SA,"Avenue de Tourbillon 34, 1950 Sion",1950,Sion,tel:+41273222873,https://www.local.ch/en/d/sion/1950/clinique-matignon-suisse-sa-ZNKuvGm15unI6bGirCjb4Q
Clinique Montbrillant,"Rue de la Montagne 2, 2300 La Chaux-de-Fonds",2300,Chaux-de-Fonds,tel:+41329100400,https://www.local.ch/en/d/la-chaux-de-fonds/2300/clinique-montbrillant-bsRxf3P83_59hwGiPd1Uaw
Clinique Muller,"Rue du Lion-d'Or 4, 1003 Lausanne",1003,Lausanne,tel:+41213118495,https://www.local.ch/en/d/lausanne/1003/clinique-muller-iWbekIJUIFRZPQe5kw-9ug
Clinique OPS,"Rue de Carouge 18, 1205 Genève",1205,Genève,tel:+41788080745,https://www.local.ch/en/d/geneve/1205/podology/clinique-ops-L3-PFTyvoVy1_Vort0LjdQ
CLINIQUE PODERM SARL,"Rue Baylon 2B, 1227 Carouge GE",1227,GE,,https://www.local.ch/en/d/carouge-ge/1227/clinique-poderm-sarl-QNvCdlamIUlBWl84zWOJ5Q
CLINIQUE PODOLOGIQUE,"Avenue d'Echallens 61, 1004 Lausanne",1004,Lausanne,tel:+41216253889,https://www.local.ch/en/d/lausanne/1004/clinique-podologique-1vkj2Z4QvtSsnLjRSFsGMQ
Clinique Rive Gauche,"Rue Pierre-Fatio 15, 1204 Genève",1204,Genève,tel:+41225529595,https://www.local.ch/en/d/geneve/1204/clinique-rive-gauche-lUHd_KtpMnM_h4cCkYLyzg
Clinique Suisse (CS) SA,"Place Ruth-BÖSIGER 6, 1201 Genève",1201,Genève,tel:+41223118888,https://www.local.ch/en/d/geneve/1201/clinique-suisse-cs-sa-SaZbwHgauFtv_G88j2vrgg
Clinique universitaire de médecine dentaire (CUMD),"Rue Michel-Servet 1, 1206 Genève",1206,Genève,,https://www.local.ch/en/d/geneve/1206/clinique-universitaire-de-medecine-dentaire-cumd-bpIBnunX_2-VheYQxXwgow
Clinique Vétérinaire du Vieux-Château Grands Animaux Sàrl (Grosstiere,"Bodenackerstrasse 1, 4226 Breitenbach",4226,Breitenbach,tel:+41791213636,https://www.local.ch/en/d/breitenbach/4226/clinique-veterinaire-du-vieux-chateau-grands-animaux-sarl-grosstiere-Q56wKlzel_qh-FNowOuYcg
Clinique Vétérinaire La Condemène Sàrl,"Route de Coeuve 19, 2900 Porrentruy",2900,Porrentruy,tel:+41324662077,https://www.local.ch/en/d/porrentruy/2900/animal-clinic/clinique-veterinaire-la-condemene-sarl-y8HSpIiGfyDN720mCAPZ4w
Clinique Volta,"Rue Numa-Droz 185, 2300 La Chaux-de-Fonds",2300,Chaux-de-Fonds,tel:+41329123000,https://www.local.ch/en/d/la-chaux-de-fonds/2300/clinique-volta-zaLWfFbhDNB1twJr26B3bQ
Anicura Kleintierpraxis Sursee AG,"Eichenstrasse 1, 6210 Sursee",6210,Sursee,tel:+41419219393,https://www.local.ch/en/d/sursee/6210/vet/anicura-kleintierpraxis-sursee-ag-fiF1jW91hPcI1aih2VF1wQ
AniCura Tierarztpraxis am Homberg,"Dorfstrasse 18, 4612 Wangen b. Olten",4612,Olten,tel:+41622138282,https://www.local.ch/en/d/wangen-b-olten/4612/vet/anicura-tierarztpraxis-am-homberg-KugDqxOFr3dUczC9uZSMoQ
Centres dentaires du Léman Villeneuve,"Route du Simplon 21, 1845 Noville",1845,Noville,tel:+41219682828,https://www.local.ch/en/d/noville/1845/dentist/centres-dentaires-du-leman-villeneuve-Qtv5ADbI6BPt2ee7OQ7tsA
Vista Augenklinik Seefeld,"Holbeinstrasse 25, 8008 Zürich",8008,Zürich,tel:+41442666090,https://www.local.ch/en/d/zuerich/8008/ophthalmic-clinics/vista-augenklinik-seefeld-fcw4dwhtxehyDCTF3ZRlig
ABA Aeschenplatz Zahnklinik,"Aeschengraben 26, 4051 Basel",4051,Basel,tel:+41612266000,https://www.local.ch/en/d/basel/4051/dentist/aba-aeschenplatz-zahnklinik-sH5pjneGvj-3kcN6RceGKA
ACC Am Claraplatz Zahnklinik,"Claragraben 83, 4058 Basel",4058,Basel,tel:+41618338000,https://www.local.ch/en/d/basel/4058/dentist/acc-am-claraplatz-zahnklinik-PEBfunoJo1OY3aURvrcX0Q
ADMEDICO Augenzentrum AG,"Fährweg 10, 4600 Olten",4600,Olten,tel:+41622068737,https://www.local.ch/en/d/olten/4600/eye-center/admedico-augenzentrum-ag-1VnLr8k-GhKvkWMqiH1Hrg
Dr. med. dent. Al Guburie Abass,"Rümlangstrasse 6, 8154 Oberglatt ZH",8154,ZH,tel:+41448503382,https://www.local.ch/en/d/oberglatt-zh/8154/dentist/dr-med-dent-al-guburie-abass-yZ1Wz2Vji_nT6jaF9Rj5MA
Allergiepraxis Dr. Cahen,"Schützenmattstrasse 41, 4051 Basel",4051,Basel,tel:+41612053232,https://www.local.ch/en/d/basel/4051/allergies/allergiepraxis-dr-cahen-2SeBK7P1_YCrDa5h3pOoJw
Allergiezentrum Medikos,"Sternackerstrasse 7, 9000 St. Gallen",9000,Gallen,tel:+41712201582,https://www.local.ch/en/d/st-gallen/9000/cosmetic-institute/allergiezentrum-medikos-FAl4gNZu0Zwrr_m7xC2tQg
Ambulante Anästhesie Praxis,"Strubenacher 13, 8126 Zumikon",8126,Zumikon,tel:+41449184747,https://www.local.ch/en/d/zumikon/8126/anaesthesiology/ambulante-anaesthesie-praxis-ekoLRuYReHgIQyWtde4aDQ
ARGUS Augen AG,"Sorenbühlweg 8, 5610 Wohlen AG",5610,AG,tel:+41566220030,https://www.local.ch/en/d/wohlen-ag/5610/eye-center/argus-augen-ag-WSRUB_xgt1QOSIKugp8C_Q
Ästhetik- und Laserzentrum Zürichsee,"Dorfstrasse 94, 8706 Meilen",8706,Meilen,tel:+41449252020,https://www.local.ch/en/d/meilen/8706/laser-medical-treatment/aesthetik-und-laserzentrum-zuerichsee-bHFcuZ-24UPAy7ThGmOv7Q
Augen Zentrum Fankhauser AG,"Gutenbergstrasse 18, 3011 Bern",3011,Bern,tel:+41313019880,https://www.local.ch/en/d/bern/3011/ophthalmic-clinics/augen-zentrum-fankhauser-ag-EglMnEeVqvvNrGoZupAuzw
Augen Zentrum Gutenberg AG,"Gutenbergstrasse 18, 3011 Bern",3011,Bern,tel:+41313116022,https://www.local.ch/en/d/bern/3011/eye-center/augen-zentrum-gutenberg-ag-96wjD3T-zle7ZdGasP9ZVA
Augenarzt Berikon Mutschellen,"Bellikerstrasse 11, 8965 Berikon",8965,Berikon,tel:+41565443603,https://www.local.ch/en/d/berikon/8965/eye-center/augenarzt-berikon-mutschellen-1g7l0CCpb-9k_9G6IKFDsQ
Augenarzt Zollikon,"Seestrasse 45, 8702 Zollikon",8702,Zollikon,tel:+41445378590,https://www.local.ch/en/d/zollikon/8702/ophthalmology/augenarzt-zollikon-HqjuuKqk0CsQ2Ij-EDRNxw
Augenärzte St.Gallen,"Multergasse 10, 9000 St. Gallen",9000,Gallen,tel:+41712224444,https://www.local.ch/en/d/st-gallen/9000/ophthalmology/augenaerzte-st-gallen-vh4nplBT99Oy7wKcYxDpCg
Augenarztpraxis,"Dorfstrasse 43, 8630 Rüti ZH",8630,ZH,tel:+41552407600,https://www.local.ch/en/d/rueti-zh/8630/ophthalmic-clinics/augenarztpraxis-Jh-0CQYqKuCJ2WKVPYatYQ
Augenarztpraxis Wabern,"Eichholzstrasse 2, 3084 Wabern",3084,Wabern,tel:+41313050101,https://www.local.ch/en/d/wabern/3084/ophthalmology/augenarztpraxis-wabern-BAA4qk5AVL4F90e7ie7XTg
Augenklinik Heuberger AG,"Fährweg 10, 4600 Olten",4600,Olten,tel:+41622067722,https://www.local.ch/en/d/olten/4600/ophthalmology/augenklinik-heuberger-ag-rRrzsJ7HHwRL-yvqEi9CyQ
Augenklinik Heuberger AG,"Zuchwilerstrasse 41, 4500 Solothurn",4500,Solothurn,tel:+41326257934,https://www.local.ch/en/d/solothurn/4500/ophthalmology/augenklinik-heuberger-ag-NGT0P1g3IJUsJOzCxJgxHA
Augenklinik Klinik Hohmad,"Hohmadstrasse 1, 3600 Thun",3600,Thun,tel:+41332252655,https://www.local.ch/en/d/thun/3600/ophthalmic-clinics/augenklinik-klinik-hohmad-WLcGB_2kteuIhdPykrbNLQ
Augenklinik Orasis - AugenZentrumPajic,"Titlisstrasse 44, 5734 Reinach AG",5734,AG,tel:+41627656080,https://www.local.ch/en/d/reinach-ag/5734/ophthalmology/augenklinik-orasis-augenzentrumpajic-IQF1Q6JctfVztlAdqRsR1Q
Augenklinik Pallas Aarau,"Bahnhofplatz 4, 5000 Aarau",5000,Aarau,tel:+41583350000,https://www.local.ch/en/d/aarau/5000/ophthalmology/augenklinik-pallas-aarau-nxO8YxK4g08tfONtPd80CA
Augenklinik Pallas Bern,"Länggassstrasse 18, 3012 Bern",3012,Bern,tel:+41583356110,https://www.local.ch/en/d/bern/3012/ophthalmology/augenklinik-pallas-bern-fIB9P1CD-ZxqoYKNVFn3kw
Augenklinik Pallas Zürich,"Limmatstrasse 252, 8005 Zürich",8005,Zürich,tel:+41583350000,https://www.local.ch/en/d/zuerich/8005/ophthalmology/augenklinik-pallas-zuerich-QpEjUV489s5oSaGStW2XFw
Augenklinik Thurgau,"Thundorferstrasse 4, 8500 Frauenfeld",8500,Frauenfeld,tel:+41522034000,https://www.local.ch/en/d/frauenfeld/8500/eye-center/augenklinik-thurgau-lAwD3fQ5pCNQTAiyAzf43A
Augentagesklinik Brugg,"Fröhlichstrasse 7, 5200 Brugg AG",5200,AG,tel:+41565110555,https://www.local.ch/en/d/brugg-ag/5200/eye-center/augentagesklinik-brugg-I9w3Alw1Qq3LiH_EIt955w
Augenzentrum Möhlin,"Riburgerstrasse 22, 4313 Möhlin",4313,Möhlin,tel:+41615178000,https://www.local.ch/en/d/moehlin/4313/eye-center/augenzentrum-moehlin--Dg9U2rwITx0-vXn7ATJww
Augenzentrum Pallas Winterthur,"Gertrudstrasse 1, 8400 Winterthur",8400,Winterthur,tel:+41583350000,https://www.local.ch/en/d/winterthur/8400/eye-center/augenzentrum-pallas-winterthur-QfZ0hUkIoy03d0vFmJ2kRA
Augenzentrum Perron West,"Aarauerstrasse 8- 10, 5630 Muri AG",5630,AG,,https://www.local.ch/en/d/muri-ag/5630/ophthalmic-clinics/augenzentrum-perron-west-2xCTq46-dG4iZBg90diYPQ
Augenzentrum Sissach AG,"Hauptstrasse 82, 4450 Sissach",4450,Sissach,tel:+41619730933,https://www.local.ch/en/d/sissach/4450/ophthalmology/augenzentrum-sissach-ag-fIzvB7w9wU3J8foOhgbpcQ
augenzentrum visuell,"Bachstrasse 38, 8200 Schaffhausen",8200,Schaffhausen,tel:+41526247632,https://www.local.ch/en/d/schaffhausen/8200/ophthalmology/augenzentrum-visuell-hrciT-UI-Pz8glpgCELlcg
Augenzentrum Wiedikon,"Birmensdorferstrasse 55, 8004 Zürich",8004,Zürich,tel:+41444615444,https://www.local.ch/en/d/zuerich/8004/ophthalmic-surgery/augenzentrum-wiedikon-5q8S6G80Tad9t-96SW4xkQ
Augenzentrum Winterthur,"Lagerhausstrasse 10, 8400 Winterthur",8400,Winterthur,,https://www.local.ch/en/d/winterthur/8400/eye-center/augenzentrum-winterthur-TBeCJVxMeq8gAQ5puQGSTA
Beo-Vet Gross- & Kleintierpraxis Meiringen,"Turenmattenstrasse 8, 3860 Meiringen",3860,Meiringen,tel:+41339718181,https://www.local.ch/en/d/meiringen/3860/vet/beo-vet-gross-kleintierpraxis-meiringen-ZHZsacJSu1PhbVzK_Qd7Vg
BeoVet Gross- & Kleintierpraxis Interlaken,"Hauptstrasse 37, 3800 Matten b. Interlaken",3800,Interlaken,tel:+41338221163,https://www.local.ch/en/d/matten-b-interlaken/3800/vet/beovet-gross-kleintierpraxis-interlaken-duSIo20BqFbcujUvwZAY_g
Berner Augenklinik,"Zieglerstrasse 29, 3007 Bern",3007,Bern,tel:+41313111222,https://www.local.ch/en/d/bern/3007/ophthalmic-clinics/berner-augenklinik-MiQgN4SX2w0eT1pdbVktjw
Bodensee-Hochrhein- Privatklinik-GmbH,"Stemmerstrasse 45, 8238 Büsingen",8238,Büsingen,tel:+41526573730,https://www.local.ch/en/d/buesingen/8238/surgery/bodensee-hochrhein-privatklinik-gmbh-flYfg-BJV-_AV70pcZEQrQ
Dr méd. Borer Monika,"Route de Moncor 12, 1752 Villars-sur-Glâne",1752,Villars-sur-Glâne,tel:+41265520011,https://www.local.ch/en/d/villars-sur-glane/1752/allergology-and-clinical-immunology/dr-med-borer-monika-3voCHyYVL_6dZeq4SPh61A
brillenfrei.ch,"Centralbahnstrasse 16, 4051 Basel",4051,Basel,tel:+41612702060,https://www.local.ch/en/d/basel/4051/ophthalmic-surgery/brillenfrei-ch-Zla0NuWRKubhCzp0XBjOHw
Cabinet dentaire Art'Dent Sàrl,"Avenue Léopold-Robert 31, 2300 La Chaux-de-Fonds",2300,Chaux-de-Fonds,tel:+41329140551,https://www.local.ch/en/d/la-chaux-de-fonds/2300/dentist/cabinet-dentaire-art-dent-sarl-QIjTHwU9S_LudSi1wbWJVQ
Cabinet dentaire Clinilac,"Rue Madeleine 18, 1003 Lausanne",1003,Lausanne,tel:+41213129440,https://www.local.ch/en/d/lausanne/1003/dentist/cabinet-dentaire-clinilac-4n0JEd0SN8u8LEwoo3SM-w
Cabinet Dentaire Crans Sourire,"Rue du Grand Pré 15, 1299 Crans VD",1299,VD,tel:+41228101515,https://www.local.ch/en/d/crans-vd/1299/dentist/cabinet-dentaire-crans-sourire-z8-kW60i2DWTyNuuDjwtFA
Cabinet Dentaire de Rumine,"Avenue de Rumine 8, 1005 Lausanne",1005,Lausanne,tel:+41213127010,https://www.local.ch/en/d/lausanne/1005/dental-clinic/cabinet-dentaire-de-rumine-wjpKcVMYjPDl1Aeucw3o5w
Cabinet dentaire du Léman,"Route Suisse 9B, 1295 Mies",1295,Mies,tel:+41227556500,https://www.local.ch/en/d/mies/1295/orthodontics/cabinet-dentaire-du-leman-WM38vprdJ45EjaA-4yaAzA
Cabinet Vétérinaire,"Rue Baptiste-Savoye 51, 2610 St-Imier",2610,St-Imier,tel:+41329443630,https://www.local.ch/en/d/st-imier/2610/vet/cabinet-veterinaire-iszh7mo4o-DH7rVWr-zmGQ
Cabinet vétérinaire d'AVRY-BOURG,"Avry-Bourg 5, 1754 Avry-sur-Matran",1754,Avry-sur-Matran,tel:+41264701773,https://www.local.ch/en/d/avry-sur-matran/1754/vet/cabinet-veterinaire-d-avry-bourg-2v9WQYUfGOcywd8daUNUww
Cabinet Vétérinaire de St-Jean,"Rue de Saint-Jean 28, 1203 Genève",1203,Genève,tel:+41223402727,https://www.local.ch/en/d/geneve/1203/vet/cabinet-veterinaire-de-st-jean-JBflpiF1_YG1GLoaPWAxEQ
Cabinet vétérinaire Vetmidi,"Rue du Pont-Levis 2, 1162 St-Prex",1162,St-Prex,tel:+41218063636,https://www.local.ch/en/d/st-prex/1162/vet/cabinet-veterinaire-vetmidi-oVUfuFlHZALuyoPb9esCrg
Cabinet vétérinaire VETPULLY,"Avenue Charles-Ferdinand-Ramuz 60, 1009 Pully",1009,Pully,tel:+41217298336,https://www.local.ch/en/d/pully/1009/vet/cabinet-veterinaire-vetpully-gEG8j3V5C9I9ITVc-G11NQ
Cenas Centre de médecine du sommeil,"Chemin de la Gravière 3, 1225 Chêne-Bourg",1225,Chêne-Bourg,tel:+41223071095,https://www.local.ch/en/d/chene-bourg/1225/medical-centre/cenas-centre-de-medecine-du-sommeil-52abokJnSufms18Bndz6iw
Centre de Neurologie et Neurophysiologie Clinique (CNNC,"Avenue Eugène-Pittard 34, 1206 Genève",1206,Genève,,https://www.local.ch/en/d/geneve/1206/medical-centre/centre-de-neurologie-et-neurophysiologie-clinique-cnnc-Tgt26rdISTRZgwuDNTUQXQ
Centre de soins dentaires de Plan-les-Ouates,"Route de Saint-Julien 176B, 1228 Plan-les-Ouates",1228,Plan-les-Ouates,tel:+41227062222,https://www.local.ch/en/d/plan-les-ouates/1228/dental-clinic/centre-de-soins-dentaires-de-plan-les-ouates-rs-IJXc9WiFEQ-CNNhk9Rg
Centre de soins dentaires de Vésenaz,"Route de Thonon 65, 1222 Vésenaz",1222,Vésenaz,tel:+41227220422,https://www.local.ch/en/d/vesenaz/1222/dental-clinic/centre-de-soins-dentaires-de-vesenaz-oqcv0knX6E0M_bT-7Gu9uw
Centre Dentaire Champel,"Avenue Krieg 4, 1208 Genève",1208,Genève,tel:+41229597500,https://www.local.ch/en/d/geneve/1208/dentist/centre-dentaire-champel-7xiX4p3rmkGI-f85TomDoA
Centre Dentaire Chêne-Bourg,"Chemin de la Gravière 3, 1225 Chêne-Bourg",1225,Chêne-Bourg,tel:+41228709494,https://www.local.ch/en/d/chene-bourg/1225/dentist/centre-dentaire-chene-bourg-pyUEwmchikmEGPOH5D8tIg
Centre Dentaire Dentremont,"Route de la Gravenne 16, 1933 Sembrancher",1933,Sembrancher,tel:+41275587836,https://www.local.ch/en/d/sembrancher/1933/dentist/centre-dentaire-dentremont-YjIXZMmJa-FVoXb6XEi4ZQ
Centre Dentaire Du Biopole,"Route de la Corniche 1, 1066 Epalinges",1066,Epalinges,tel:+41213318080,https://www.local.ch/en/d/epalinges/1066/dentist/centre-dentaire-du-biopole-rF5kNw2Zvyu-XBA_hOaYvw
Centre Dentaire du Seyon SA,"Rue du Seyon 10, 2000 Neuchâtel",2000,Neuchâtel,tel:+41327259000,https://www.local.ch/en/d/neuchatel/2000/oral-and-maxillofacial-surgery/centre-dentaire-du-seyon-sa-cBM8ok5Cnl5Ad0d35_C8qQ
centre dentaire et holistique clinique des bastions,"Rue Jean-Sénebier 20, 1205 Genève",1205,Genève,tel:+41791914368,https://www.local.ch/en/d/geneve/1205/dentist/centre-dentaire-et-holistique-clinique-des-bastions-vpuf6aYjFPf3t-hL1LPImQ
Centre Dentaire Lovières Tramelan,"Chemin des Lovières 2, 2720 Tramelan",2720,Tramelan,tel:+41324873737,https://www.local.ch/en/d/tramelan/2720/dentist/centre-dentaire-lovieres-tramelan-VF8LnMSlFiyA6TyEEfM5XA
Centre Médico-Dentaire Balexert Sàrl,"Avenue Louis-Casaï 27, 1209 Genève",1209,Genève,tel:+41229792222,https://www.local.ch/en/d/geneve/1209/dentist/centre-medico-dentaire-balexert-sarl-cmo0CnFUxpg_AvEM-5aSqQ
CENTRO LASER LUGANO SA,"Via Senago 42, 6912 Pazzallo",6912,Pazzallo,tel:+41919731088,https://www.local.ch/en/d/pazzallo/6912/eye-center/centro-laser-lugano-sa-hIv4tZEQAkG7Q9rpVBOE4A
CENTRO OCULISTICO LUGANO SA,"Riva Antonio Caccia 1b, 6900 Lugano",6900,Lugano,tel:+41919857050,https://www.local.ch/en/d/lugano/6900/eye-center/centro-oculistico-lugano-sa-j7fJMfi5C7PlH5rs-9QLOA
Centro Veterinario Buonamano,"Via Buonamano 10, 6612 Ascona",6612,Ascona,tel:+41917913030,https://www.local.ch/en/d/ascona/6612/vet/centro-veterinario-buonamano-wKy6_A5Bb33DDZBStyhksw
Centro Veterinario Orso Bruno,"Strada Ponte di Valle 26A, 6964 Davesco-Soragno",6964,Davesco-Soragno,tel:+41919308091,https://www.local.ch/en/d/davesco-soragno/6964/vet/centro-veterinario-orso-bruno-MedQ9qgNt1zOwDf7y3908g
CHD Clinique d'Hygiène Dentaire Genève,"Rue de Lausanne 65, 1202 Genève",1202,Genève,tel:+41229203333,https://www.local.ch/en/d/geneve/1202/dental-clinic/chd-clinique-d-hygiene-dentaire-geneve-Ya3N-aAvIGtl72PCGnWRuw
CHD Clinique d'Hygiène Dentaire Lausanne,"Route de Berne 1, 1010 Lausanne",1010,Lausanne,tel:+41216521000,https://www.local.ch/en/d/lausanne/1010/dental-clinic/chd-clinique-d-hygiene-dentaire-lausanne-GMEMhOpahlTofHBeksS1lg
CHD Clinique d'Hygiène Dentaire Meyrin,"Chemin de Riantbosson 19, 1217 Meyrin",1217,Meyrin,tel:+41225776262,https://www.local.ch/en/d/meyrin/1217/dental-clinic/chd-clinique-d-hygiene-dentaire-meyrin-oL41Ap6BeS_fz6tfE6mQPQ
CHD Clinique d'Hygiène Dentaire Yverdon,"Avenue Haldimand 105, 1400 Yverdon-les-Bains",1400,Yverdon-les-Bains,tel:+41244596000,https://www.local.ch/en/d/yverdon-les-bains/1400/dental-hygiene/chd-clinique-d-hygiene-dentaire-yverdon-Ch0Cla-hphiD5wj5oAdYPw
Citysmile Clinique Dentaire,"Boulevard de Saint-Georges 72, 1205 Genève",1205,Genève,tel:+41227810810,https://www.local.ch/en/d/geneve/1205/dentist/citysmile-clinique-dentaire-v2-j49Ib8Z9JFWkX50y49A
Clear Vision Centre Ophtalmologique SA,"Avenue Peschier 41, 1206 Genève",1206,Genève,,https://www.local.ch/en/d/geneve/1206/ophthalmology/clear-vision-centre-ophtalmologique-sa-7EIYe1OK5ELyySPsQSrwgg
Clinica Santa Croce SA,"Via al Parco 27, 6644 Orselina",6644,Orselina,tel:+41917354141,https://www.local.ch/en/d/orselina/6644/psychiatry-and-psychotherapy/clinica-santa-croce-sa-54kC2YX98lcY8tTsP8kpeA
Clinicdent,"Schaffhauserstrasse 113, 8057 Zürich",8057,Zürich,tel:+41443616660,https://www.local.ch/en/d/zuerich/8057/dentist/clinicdent-Zks919e2Lw0K8pFSmUwQ5A
Clinique Dentaire Adent,"Rue du Panorama 16, 1800 Vevey",1800,Vevey,tel:+41219215588,https://www.local.ch/en/d/vevey/1800/dentist/clinique-dentaire-adent-9KvSRHygVQbiH1ClRZRJFQ
Dr. med. Courvoisier Salome,"Bahnhofstrasse 3, 8610 Uster",8610,Uster,tel:+41434978902,https://www.local.ch/en/d/uster/8610/dermatology-and-venereology/dr-med-courvoisier-salome-nbjiwGqBqEE35CuzLiW1LQ
De Francesco Antonio,"Via Luigi Lavizzari 20, 6850 Mendrisio",6850,Mendrisio,tel:+41916460565,https://www.local.ch/en/d/mendrisio/6850/dentist/de-francesco-antonio-G_PUbCbwCosUQNiJydkg1A
Denta Brice - Clinique Dentaire,"Route de Cossonay 28B, 1008 Prilly",1008,Prilly,tel:+41216246666,https://www.local.ch/en/d/prilly/1008/dental-clinic/denta-brice-clinique-dentaire-vjusRr17IzcneXob5Tpdbw
Dental Clinic Biel,"Nidaugasse 14, 2502 Biel/Bienne",2502,Biel/Bienne,,https://www.local.ch/en/d/biel-bienne/2502/dentist/dental-clinic-biel-7hxOX2KJYGd13cwCQCGNhw
Dental Suisse SA,"Via Famiglia Trevani 1, 6600 Locarno",6600,Locarno,tel:+41917512707,https://www.local.ch/en/d/locarno/6600/dentist/dental-suisse-sa-eDRqW7O9tPkNZLSR6pxmjg
DENTAL SWISS CLINICS - Cabinet dentaire,"Grand-Rue 52, 1820 Montreux",1820,Montreux,tel:+41219665454,https://www.local.ch/en/d/montreux/1820/dentist/dental-swiss-clinics-cabinet-dentaire-JYfqkI44kIwLClNkoOQnSg
Dentalcenter,"Sonnhalde 2, 3063 Ittigen",3063,Ittigen,tel:+41319211511,https://www.local.ch/en/d/ittigen/3063/dentist/dentalcenter-t_jUQEKxeZv522ze25EQPw
Dentalys Centre Dentaire d'Estavayer le Lac,"Grand-Rue 22, 1470 Estavayer-le-Lac",1470,Estavayer-le-Lac,tel:+41266631211,https://www.local.ch/en/d/estavayer-le-lac/1470/dental-clinic/dentalys-centre-dentaire-d-estavayer-le-lac-oQwTRPhswoXG-R7i6zgPPw
"Digital Zahnarztpraxis Rupperswil, Dr. med. dent. Marco Gabori","Stationsrain 3, 5102 Rupperswil",5102,Rupperswil,tel:+41628976000,https://www.local.ch/en/d/rupperswil/5102/dentist/digital-zahnarztpraxis-rupperswil-dr-med-dent-marco-gabori-F3izgBjHfopBeOW9Dw9TCw
Dr. med. Augenlaser Centrum St. Gallen AG,"Vadianstrasse 5, 9000 St. Gallen",9000,Gallen,tel:+41712787575,https://www.local.ch/en/d/st-gallen/9000/laser-medical-treatment/dr-med-augenlaser-centrum-st-gallen-ag-6cQTTGt-dCvTy2yAVu1nmw
Dr. med. dent. Morgantini Alain - Dr. med. dent. Campana Andrea,"Via San Gottardo 56, 6648 Minusio",6648,Minusio,tel:+41917438766,https://www.local.ch/en/d/minusio/6648/dentist/dr-med-dent-morgantini-alain-dr-med-dent-campana-andrea-xBD3qBEaE0FCwgizc5VvGQ
Dres. med. dent. Herzog Claudio und Guido,"Spitalgasse 1, 8400 Winterthur",8400,Winterthur,tel:+41522690555,https://www.local.ch/en/d/winterthur/8400/orthodontics/dres-med-dent-herzog-claudio-und-guido-SX31Bz4dCU6qep8pP_Bkzw
Ecodental SA,"Avenue des Roses 16, 1009 Pully",1009,Pully,tel:+41217114081,https://www.local.ch/en/d/pully/1009/dental-and-dental-hygiene-supplies/ecodental-sa-VNuYjs91GsfJC1qsovCQyQ
Engeli Jolanda,"Rue du Stand 1, 1062 Sottens",1062,Sottens,tel:+41219055190,https://www.local.ch/en/d/sottens/1062/vet/engeli-jolanda-kmUrXh5roAfLm8BvKeWlgg
ENNETSeeKLINIK für Kleintiere,"Rothusstrasse 2B, 6331 Hünenberg",6331,Hünenberg,tel:+41417808080,https://www.local.ch/en/d/huenenberg/6331/vet/ennetseeklinik-fuer-kleintiere-l2xP5NggR8hMHGbfYjC9aA
ERDODENT SA,"Rue des Cerisiers 2, 1752 Villars-sur-Glâne",1752,Villars-sur-Glâne,tel:+41263471752,https://www.local.ch/en/d/villars-sur-glane/1752/paediatric-dentistry/erdodent-sa-V87xL02LNrhGGb9oDQKTWg
Espace Dentaire Domdidier,"Vy-d'Avenches 12, 1564 Domdidier",1564,Domdidier,tel:+41266752925,https://www.local.ch/en/d/domdidier/1564/dentist/espace-dentaire-domdidier-MiJqIEXbwKjlKziNSPftQg
Dr. med. dent. Fäh Reto,"Dorfstrasse 17A, 8630 Rüti ZH",8630,ZH,tel:+41552404455,https://www.local.ch/en/d/rueti-zh/8630/orthodontics/dr-med-dent-faeh-reto-dxBXbkiWQus6ywnjzuOXpQ
Dr. med. dent. Felk Svetlana,"Untertor 4, 8400 Winterthur",8400,Winterthur,tel:+41522134466,https://www.local.ch/en/d/winterthur/8400/dentist/dr-med-dent-felk-svetlana-eWpG4lC-IyxlejZIbg204Q
dr. med. Ferrari Giovanni,"Via Giovanni Nizzola 2, 6900 Lugano",6900,Lugano,tel:+41919133000,https://www.local.ch/en/d/lugano/6900/allergology-and-clinical-immunology/dr-med-ferrari-giovanni-eSqrGK3kkDUFXyn72k6r2w
Dr. med. Fischer Andrea,"Palmstrasse 28, 8400 Winterthur",8400,Winterthur,tel:+41522124977,https://www.local.ch/en/d/winterthur/8400/ophthalmology/dr-med-fischer-andrea-HdpByqD6eRq9gBFdz5xpfw
Fornasari Jean-Christophe,"Route de Chancy 28, 1213 Petit-Lancy",1213,Petit-Lancy,tel:+41223494676,https://www.local.ch/en/d/petit-lancy/1213/eye-prosthesis/fornasari-jean-christophe-Bwi8nR-93NIbrHwRDq1WAQ
Fradent Espace dentaire SA,"Chemin des Crêts 16, 1630 Bulle",1630,Bulle,,https://www.local.ch/en/d/bulle/1630/dentist/fradent-espace-dentaire-sa-ObXFjf2eiUGdUx9FTO8C7Q
FRENKENKLINIK,"Hauptstrasse 49, 4435 Niederdorf",4435,Niederdorf,tel:+41619618577,https://www.local.ch/en/d/niederdorf/4435/dentist/frenkenklinik-etrDuAEXY_bZmYY8vsIWVA
Gauderon Vétérinaire,"Route de la Glâne 107, 1752 Villars-sur-Glâne",1752,Villars-sur-Glâne,tel:+41264022544,https://www.local.ch/en/d/villars-sur-glane/1752/vet/gauderon-veterinaire-13pZaxz8OS3jPVtg9hEf9Q
Geneva Dental Clinic,"Rue du Rhône 61, 1204 Genève",1204,Genève,tel:+41228108877,https://www.local.ch/en/d/geneve/1204/dental-clinic/geneva-dental-clinic-3E-UOzzoNNQgDhjyUD2B8Q
Dr. med. dent. Gottschlich Martin,"Oberdorfstrasse 35, 3053 Münchenbuchsee",3053,Münchenbuchsee,tel:+41318693111,https://www.local.ch/en/d/muenchenbuchsee/3053/dentist/dr-med-dent-gottschlich-martin-F0Zx2AaaLhYo8iQfxJN20w
Grieshaber Matthias C,"Bachstrasse 38, 8200 Schaffhausen",8200,Schaffhausen,tel:+41526247632,https://www.local.ch/en/d/schaffhausen/8200/ophthalmology/grieshaber-matthias-c-btdelzwAOlv_on4qmqz0Uw
Dr. med. Hasler Reto,"Zentralstrasse 55A, 5610 Wohlen AG",5610,AG,tel:+41566183070,https://www.local.ch/en/d/wohlen-ag/5610/otorhinolaryngology/dr-med-hasler-reto-ejO8zbezASLj9sCuJXKSoQ
Hautarztpraxis Arlesheim,"Neumattstrasse 4, 4144 Arlesheim",4144,Arlesheim,tel:+41617020770,https://www.local.ch/en/d/arlesheim/4144/dermatology-and-venereology/hautarztpraxis-arlesheim-1sasgiYHqpP792XWbYwhgQ
Dr. med. Hefner Juliane,"Jurastrasse 17, 4900 Langenthal",4900,Langenthal,tel:+41583350000,https://www.local.ch/en/d/langenthal/4900/eye-center/dr-med-hefner-juliane-Siaz356aNkr1EYJR6FVyMg
"HNO Praxis Strub, Dr. med. Esther Steveling","Theaterstrasse 4, 4051 Basel",4051,Basel,tel:+41618151177,https://www.local.ch/en/d/basel/4051/allergology-and-clinical-immunology/hno-praxis-strub-dr-med-esther-steveling-NjzCfHkFv4hIfjCL0XNtYQ
"HNO Praxis Strub, Dr. med. Kaspar Strub","Theaterstrasse 4, 4051 Basel",4051,Basel,tel:+41618151177,https://www.local.ch/en/d/basel/4051/otorhinolaryngology/hno-praxis-strub-dr-med-kaspar-strub-iW7QjgIBo6L-RWobVDCqaw
Dr. med. vet. Hofer Gabriel,"Allmendstrasse 6, 3600 Thun",3600,Thun,tel:+41332222254,https://www.local.ch/en/d/thun/3600/vet/dr-med-vet-hofer-gabriel-P7uLLT2_16ykvQVjVC78yw
HTC Zahnklinik,"Lohstampfestrasse 11, 8274 Tägerwilen",8274,Tägerwilen,tel:+41716667202,https://www.local.ch/en/d/taegerwilen/8274/dentist/htc-zahnklinik-FvWYp14QaLgIhW-CkHa18Q
Institut de Médecine Dentaire et de Stomatologie,"Route des Tilles 2C, 1847 Rennaz",1847,Rennaz,tel:+41244680210,https://www.local.ch/en/d/rennaz/1847/dentist/institut-de-medecine-dentaire-et-de-stomatologie-93663xPim37lSditHGNdhw
IZZ Immunologie-Zentrum Zürich,"Walchestrasse 11, 8006 Zürich",8006,Zürich,tel:+41444341000,https://www.local.ch/en/d/zuerich/8006/allergology-and-clinical-immunology/izz-immunologie-zentrum-zuerich-ga4UgJx7odwlavahfNUDtQ
Kieferorthopädie Cityhaus,"Churerstrasse 43, 8808 Pfäffikon SZ",8808,SZ,tel:+41554202520,https://www.local.ch/en/d/pfaeffikon-sz/8808/dentist/kieferorthopaedie-cityhaus-HOySSdTALGAjOBFsaSvnpA
Kinderarztpraxis Kriens,"Gallusstrasse 2, 6010 Kriens",6010,Kriens,tel:+41413207721,https://www.local.ch/en/d/kriens/6010/paediatrics/kinderarztpraxis-kriens--1w8DdTLnyzfySNsCL5hzQ
Kleintierklinik Oberstrass AG,"Spyristrasse 8, 8044 Zürich",8044,Zürich,tel:+41443615511,https://www.local.ch/en/d/zuerich/8044/vet/kleintierklinik-oberstrass-ag-VpCbRIe4bGHUOuWYzzCDwQ
Kleintierpraxis Dr. med. vet. Suppiger D.,"Einsiedlerstrasse 400, 8810 Horgen",8810,Horgen,tel:+41447253434,https://www.local.ch/en/d/horgen/8810/vet/kleintierpraxis-dr-med-vet-suppiger-d-jaVWSX3dwbRSSfc1I-ZfQQ
Kleintierpraxis Drei Höfe,"Kantonsstrasse 54, 8863 Buttikon SZ",8863,SZ,tel:+41554641141,https://www.local.ch/en/d/buttikon-sz/8863/animal-clinic/kleintierpraxis-drei-hoefe-iLsXGaCxcG_LGjH0j6JVLA
Kleintierpraxis Eberli,"Eichenweg 4, 6280 Hochdorf",6280,Hochdorf,tel:+41419103788,https://www.local.ch/en/d/hochdorf/6280/vet/kleintierpraxis-eberli--S02zTXYYeuhaHzBx11-AA
Kleintierpraxis Im Gewerbezentrum Zollikon Gmbh,"Dachslerenstrasse 11, 8702 Zollikon",8702,Zollikon,tel:+41443913939,https://www.local.ch/en/d/zollikon/8702/vet/kleintierpraxis-im-gewerbezentrum-zollikon-gmbh-BRcj7OUqq2EAP-CuAm1new
Kleintierpraxis Lyssbach GmbH,"Fabrikstrasse 23, 3250 Lyss",3250,Lyss,tel:+41323851515,https://www.local.ch/en/d/lyss/3250/vet/kleintierpraxis-lyssbach-gmbh-NjflotvMbxyvpWk-VUty0w
Dr. med. vet. Kleintierpraxis Stadler Thomas,"Giessenstrasse 46, 6460 Altdorf UR",6460,UR,tel:+41418708444,https://www.local.ch/en/d/altdorf-ur/6460/vet/dr-med-vet-kleintierpraxis-stadler-thomas-Gkps_rPrLKLI9iuL2zf3Vw
Kleintierpraxis Wydenhof,"Alpenstrasse 3, 6010 Kriens",6010,Kriens,tel:+41413109922,https://www.local.ch/en/d/kriens/6010/vet/kleintierpraxis-wydenhof-pilXx95F701mFakXGV59Ww
Dr. med. dent. Klossner Marie-Claude,"Neuengasse 43, 3011 Bern",3011,Bern,tel:+41313111621,https://www.local.ch/en/d/bern/3011/dentist/dr-med-dent-klossner-marie-claude-iI0hObZ1trvUVHUvzJDMrA
Dr. med. Kolodjaschna Julia,"Roseneggweg 10, 8866 Ziegelbrücke",8866,Ziegelbrücke,tel:+41556174030,https://www.local.ch/en/d/ziegelbruecke/8866/eye-center/dr-med-kolodjaschna-julia-EX9pUixAcgvx7dDf91qJrw
Dr. med. Levy Francis,"Löwenstrasse 42, 8001 Zürich",8001,Zürich,tel:+41447161016,https://www.local.ch/en/d/zuerich/8001/allergology-and-clinical-immunology/dr-med-levy-francis-BCebiMHyV6acx_wl2npRGQ
Ludibrium Puppenklinik/s'Lädeli BB,"Hauptstrasse 12, 4133 Pratteln",4133,Pratteln,tel:+41618218830,https://www.local.ch/en/d/pratteln/4133/doll-hospital/ludibrium-puppenklinik-s-laedeli-bb-SiY24R_OysKX39xWOuJilQ
Lützow Veronika,"Rathausstrasse 17, 8570 Weinfelden",8570,Weinfelden,tel:+41715080650,https://www.local.ch/en/d/weinfelden/8570/otorhinolaryngology/luetzow-veronika-mv4tMWwxEPEv-reGeKX-ew
Lux Augenzentrum,"Thurgauerstrasse 105, 8152 Glattpark (Opfikon)",8152,(Opfikon),tel:+41448292287,https://www.local.ch/en/d/glattpark-opfikon/8152/eye-center/lux-augenzentrum-Fi50nMCWfbjC6AGnv0KHEg
Medical Consulting Center Srl,"Via Marconi 2, 22061 Campione d'Italia",22061,d'Italia,tel:+41916494654,https://www.local.ch/en/d/campione-d-italia/22061/dental-clinic/medical-consulting-center-srl-dP9lUtEKRNZTZmIBb0KWgg
Dr. med. Miele Giuseppe,"Seestrasse 129, 8810 Horgen",8810,Horgen,tel:+41447703131,https://www.local.ch/en/d/horgen/8810/ophthalmology/dr-med-miele-giuseppe-kl-Y79yK6MyfzWnelaIIbQ
naef ortho,"Gartenweg 12, 4310 Rheinfelden",4310,Rheinfelden,tel:+41618311168,https://www.local.ch/en/d/rheinfelden/4310/orthodontics/naef-ortho-GwUrla9aCgLfzsI71ATjLg
NBB Sanitaires SA - Clinique de la Baignoire,"Route de Veyrier 146A, 1234 Vessy",1234,Vessy,tel:+41227844896,https://www.local.ch/en/d/vessy/1234/bathroom-renovation/nbb-sanitaires-sa-clinique-de-la-baignoire-DdcW9lN5l5CyR-kK70NlQQ
Dr. med. univ. Neugebauer Zuzana,"Seefeldstrasse 66, 8008 Zürich",8008,Zürich,tel:+41443830770,https://www.local.ch/en/d/zuerich/8008/ophthalmology/dr-med-univ-neugebauer-zuzana-9D48r03mab6vkeVzEKBRKw
neuhaus.tierärzte.team,"Herrenweg 33, 4500 Solothurn",4500,Solothurn,tel:+41326229922,https://www.local.ch/en/d/solothurn/4500/vet/neuhaus-tieraerzte-team-loMdWanA8KLpo9Q29CJy0g
ocM Dentaire SA,"Rue des Mille-Boilles 2, 2000 Neuchâtel",2000,Neuchâtel,tel:+41327301200,https://www.local.ch/en/d/neuchatel/2000/dental-clinic/ocm-dentaire-sa-6fI1rlA2WUsFPnZo2bZ30A
Odental,"Chemin de la Prairie 5C, 1007 Lausanne",1007,Lausanne,tel:+41216247620,https://www.local.ch/en/d/lausanne/1007/dentist/odental-drKmowKVKDZ357SqxQiCqQ
OP Zentrum Schaffhausen,"Bachstrasse 38, 8200 Schaffhausen",8200,Schaffhausen,tel:+41526247632,https://www.local.ch/en/d/schaffhausen/8200/ophthalmic-surgery/op-zentrum-schaffhausen-qvYuuzbYYs5a46gQd1iZ2g
Ophtalvision Titzé SA,"Rue de Lausanne 2, 1950 Sion",1950,Sion,tel:+41273232001,https://www.local.ch/en/d/sion/1950/ophthalmology/ophtalvision-titze-sa-mfRInPtGzskWzLO_RDqo_A
Dr méd. Oppliger Roland,"Avenue Viollier 8, 1260 Nyon",1260,Nyon,tel:+41223617300,https://www.local.ch/en/d/nyon/1260/allergology-and-clinical-immunology/dr-med-oppliger-roland-u4ie9a5E5ra73ih361USsA
Orthodontie Lancy,"Route de Chancy 59D, 1213 Petit-Lancy",1213,Petit-Lancy,tel:+41228700222,https://www.local.ch/en/d/petit-lancy/1213/orthodontics/orthodontie-lancy-xh4USENJr5qvaCzg4Z7mLg
Pallas Klinik Olten,"Louis-Giroud-Strasse 20, 4600 Olten",4600,Olten,tel:+41583350000,https://www.local.ch/en/d/olten/4600/eye-center/pallas-klinik-olten-oIITe2YLtdS6nzA2clxzDQ
Pferdeklinik Moosweid AG,"Moosweidstrasse 7, 8912 Obfelden",8912,Obfelden,tel:+41447600050,https://www.local.ch/en/d/obfelden/8912/animal-clinic/pferdeklinik-moosweid-ag-rBGO_RzjiqBAEU_hTFREbg
Pferdeklinik Thurland,"Flawilerstrasse 35, 9244 Niederuzwil",9244,Niederuzwil,tel:+41794817560,https://www.local.ch/en/d/niederuzwil/9244/animal-clinic/pferdeklinik-thurland-MH_KsmoDxDZi_RkJqJlaBQ
PLAZA Kliniken,"Oberlandstrasse 100, 8610 Uster",8610,Uster,tel:+41449404949,https://www.local.ch/en/d/uster/8610/laser-medical-treatment/plaza-kliniken-A7Mu0jPDQ6rwLbM9p8alrw
Praxis Heiniger,"Mädergutstrasse 5, 3018 Bern",3018,Bern,tel:+41319812243,https://www.local.ch/en/d/bern/3018/dentist/praxis-heiniger-5QoEG2n0kO5NZiL6reWZLg
Praxis Ott Zahnärzte,"Hauptstrasse 19, 9030 Abtwil SG",9030,SG,tel:+41713114411,https://www.local.ch/en/d/abtwil-sg/9030/dentist/praxis-ott-zahnaerzte-SAkocWtkdqPGlwAwz0tkpQ
PyanaVet AG,"Beniwil 24, 1715 Alterswil FR",1715,FR,tel:+41265052080,https://www.local.ch/en/d/alterswil-fr/1715/vet/pyanavet-ag-ul8FpHqGMQ5ZauqXO5oRSw
RB SWISS DENTAL SA,"Via Luigi Lavizzari 10B, 6600 Locarno",6600,Locarno,tel:+41917520232,https://www.local.ch/en/d/locarno/6600/dentist/rb-swiss-dental-sa-ecX3nQo7WPE51H2RiyUQcA
Res'Os : bilan osseux et composition corporelle. Clinique générale Ste Anne,"Rue Hans-Geiler 6, 1700 Fribourg",1700,Fribourg,tel:+41269121470,https://www.local.ch/en/d/fribourg/1700/rheumatology/res-os-bilan-osseux-et-composition-corporelle-clinique-generale-ste-anne-ZqX50wpidoosxErlXyDVuw
Rhône Dental Clinic,"Rue du Rhône 29, 1204 Genève",1204,Genève,tel:+41223105077,https://www.local.ch/en/d/geneve/1204/dental-clinic/rhone-dental-clinic-dKFQVM35-NOzL338kLDp_A
Dr. med. Riedel Ingrid B.,"Sonnhaldenstrasse 17, 8032 Zürich",8032,Zürich,tel:+41432683368,https://www.local.ch/en/d/zuerich/8032/naturopathy/dr-med-riedel-ingrid-b-GOHwvpZPRLuYxQ0Bl-Exig
Dr. med. Ronzani Marina,"Bachstrasse 38, 8200 Schaffhausen",8200,Schaffhausen,tel:+41526247632,https://www.local.ch/en/d/schaffhausen/8200/ophthalmology/dr-med-ronzani-marina-VrgCArsa1QAgKqB5xgcmMw
Rupp Katharina,"Lagerhausstrasse 10, 8400 Winterthur",8400,Winterthur,tel:+41522133800,https://www.local.ch/en/d/winterthur/8400/ophthalmology/rupp-katharina-BH2C03drB4PD-d1Rj2Nwbw
Dr. med. dent. Salie Sadrudin,"Gurtengasse 3, 3011 Bern",3011,Bern,tel:+41313116950,https://www.local.ch/en/d/bern/3011/dentist/dr-med-dent-salie-sadrudin-f4V0zCPgC3sbEBPrUxotvQ
Sanatorium Kilchberg AG,"Selnaustrasse 6, 8001 Zürich",8001,Zürich,tel:+41447163838,https://www.local.ch/en/d/zuerich/8001/psychiatry-and-psychotherapy/sanatorium-kilchberg-ag-kzJfal14l_TjRreN65a5BQ
Sanft Zahnmedizin & Implantologie,"Baarerstrasse 50, 6300 Zug",6300,Zug,tel:+41415108822,https://www.local.ch/en/d/zug/6300/dentist/sanft-zahnmedizin-implantologie-mHs2PPuFXB8m7VvGbad4oQ
Prof. Dr. med. Schmid Stephan,"Toblerstrasse 51, 8044 Zürich",8044,Zürich,tel:+41432682900,https://www.local.ch/en/d/zuerich/8044/otorhinolaryngology/prof-dr-med-schmid-stephan-_F5j_3OkEDIFAeQmQV97ag
Seedent Ihre Zahnarztpraxis,"Oberer Garten 1, 8598 Bottighofen",8598,Bottighofen,tel:+41716881800,https://www.local.ch/en/d/bottighofen/8598/dentist/seedent-ihre-zahnarztpraxis-9ympRgP7TCtj7HtI42r90A
Seewadel - Zentrum für Gesundheit und Alter,"Obere Seewadelstrasse 12, 8910 Affoltern am Albis",8910,Albis,tel:+41433227474,https://www.local.ch/en/d/affoltern-am-albis/8910/home/seewadel-zentrum-fuer-gesundheit-und-alter-ummXbch0blOG8UzIRGC9ng
Dr Sierro Vincent,"Avenue Saint-François 2, 1950 Sion",1950,Sion,tel:+41273236066,https://www.local.ch/en/d/sion/1950/dentist/dr-sierro-vincent-_g1aA8mzycEZrs9I6z-4rA
Dr. med. dent. Sigrist Mireille,"Pilatusstrasse 34, 6003 Luzern",6003,Luzern,tel:+41412109883,https://www.local.ch/en/d/luzern/6003/dentist/dr-med-dent-sigrist-mireille-1QOXihiGAH4mpht_dyR3AA
Silvretta Tierärzte AG,"Doggilochstrasse 29, 7250 Klosters",7250,Klosters,tel:+41814223264,https://www.local.ch/en/d/klosters/7250/vet/silvretta-tieraerzte-ag-tJ1tDJEfybLLENv_sqok_g
Stiller Ann-Christin,"Bachstrasse 38, 8200 Schaffhausen",8200,Schaffhausen,tel:+41526247632,https://www.local.ch/en/d/schaffhausen/8200/ophthalmology/stiller-ann-christin-V0D1jFDVaC90X8VzT7ypyA
Studio dentistico Dr. Gilles Nespeca,"Via Giuseppe Motta 43, 6850 Mendrisio",6850,Mendrisio,tel:+41916467356,https://www.local.ch/en/d/mendrisio/6850/dentist/studio-dentistico-dr-gilles-nespeca-1Xf9JrXhzeU957OFD_orvA
Dr. med. Stuker Nadia,"Lagerhausstrasse 10, 8400 Winterthur",8400,Winterthur,tel:+41522133800,https://www.local.ch/en/d/winterthur/8400/ophthalmology/dr-med-stuker-nadia-HcAlphAFhBovxJ11FJkPYw
Swiss Eye Clinic,"Dufourstrasse 47, 8008 Zürich",8008,Zürich,tel:+41449230404,https://www.local.ch/en/d/zuerich/8008/ophthalmic-surgery/swiss-eye-clinic-_ThroCWJZVMccuzVvNPTHA
PD Dr. med. Tandogan Tamer,"Louis-Giroud-Strasse 26, 4600 Olten",4600,Olten,tel:+41583350000,https://www.local.ch/en/d/olten/4600/ophthalmology/pd-dr-med-tandogan-tamer-_PfDLM-fZ1mFUNvw4JE5MQ
TIERARZT KILCHBERG,"Dorfstrasse 143, 8802 Kilchberg ZH",8802,ZH,tel:+41444445050,https://www.local.ch/en/d/kilchberg-zh/8802/vet/tierarzt-kilchberg-LrOnhcVFn3hIrp1zj8WMpA
Tierärzte Team Aurora AG,"Russikerstrasse 27, 8320 Fehraltorf",8320,Fehraltorf,tel:+41449543040,https://www.local.ch/en/d/fehraltorf/8320/vet/tieraerzte-team-aurora-ag-UM3mJPavaXU9jyIDehNapw
Tierarztpraxis Lindenacker GmbH,"Lindenackerstrasse 1A, 8360 Eschlikon TG",8360,TG,tel:+41719711515,https://www.local.ch/en/d/eschlikon-tg/8360/vet/tierarztpraxis-lindenacker-gmbh-nPFZfeVdw54cTbTZ1_A-CA
Tierarztpraxis Weber,"Sandgasse 5, 3263 Büetigen",3263,Büetigen,tel:+41323844284,https://www.local.ch/en/d/bueetigen/3263/vet/tierarztpraxis-weber-WFiUfIsYKrk6OD4tRAkrpw
Tierklinik am Kreis AG,"Zaunweg 11, 8754 Netstal",8754,Netstal,tel:+41556468686,https://www.local.ch/en/d/netstal/8754/vet/tierklinik-am-kreis-ag-x4-ptlFAwv1I6L8JZ_oLoA
Tierklinik Rossweid,"Rossweidstrasse 1, 8044 Gockhausen",8044,Gockhausen,tel:+41448207110,https://www.local.ch/en/d/gockhausen/8044/animal-clinic/tierklinik-rossweid-WwOAGgr4P9SQpi5cWTxKjA
Tiermedizin & Akupunktur,"Dorfstrasse 11, 4206 Seewen SO",4206,SO,tel:+41792683607,https://www.local.ch/en/d/seewen-so/4206/vet/tiermedizin-akupunktur-9m1si2zmICfRDrsP8johMw
Toppharm Limmatplatz Apotheke,"Limmatstrasse 119, 8005 Zürich",8005,Zürich,tel:+41433666020,https://www.local.ch/en/d/zuerich/8005/pharmacy/toppharm-limmatplatz-apotheke-hfKoN56tJW7gDJIEhLl78g
vetderm.ch - Dermatologie und Allergologie für Tiere,"Rothusstrasse 2, 6331 Hünenberg",6331,Hünenberg,tel:+41417808080,https://www.local.ch/en/d/huenenberg/6331/vet/vetderm-ch-dermatologie-und-allergologie-fuer-tiere-bhyERnxmPsJsR8seuNLr6w
VetoAdom Sarl,"Route des Jeunes 41A, 1227 Carouge GE",1227,GE,tel:+41225017717,https://www.local.ch/en/d/carouge-ge/1227/veterinary-emergency-service/vetoadom-sarl-1kUDrbKTr9ZXABUtjQP-Wg
Vinci Dental Concept SA,"Rue Simon-Durand 7, 1227 Les Acacias",1227,Acacias,tel:+41227938180,https://www.local.ch/en/d/les-acacias/1227/dental-technial-laboratory/vinci-dental-concept-sa-z68cQqRNk_rLC5u86S5tJQ
White Bex,"Rue Centrale 23A, 1880 Bex",1880,Bex,tel:+41244632363,https://www.local.ch/en/d/bex/1880/dentist/white-bex-vQbCZs-iKvSg-uPMdQWGhg
White Delémont,"Rue de l'Avenir 12, 2800 Delémont",2800,Delémont,tel:+41324221536,https://www.local.ch/en/d/delemont/2800/dental-clinic/white-delemont--iXAK4MW2JFeUrITBGljxA
White Vésenaz,"Route de Thonon 47, 1222 Vésenaz",1222,Vésenaz,tel:+41227523280,https://www.local.ch/en/d/vesenaz/1222/dentist/white-vesenaz-bL8KcX4R59qhKRnDnc1zKA
Wieslander Kieferorthopäde und Kinderzahnmedizin AG,"Thalwiesenstrasse 16, 8302 Kloten",8302,Kloten,tel:+41448049060,https://www.local.ch/en/d/kloten/8302/dental-school/wieslander-kieferorthopaede-und-kinderzahnmedizin-ag-VMLHJ8ZebwarRlwlqzLM-g
Yifan MTC Acupuncture Clinique,"Avenue Léopold-Robert 53, 2300 La Chaux-de-Fonds",2300,Chaux-de-Fonds,tel:+41329138888,https://www.local.ch/en/d/la-chaux-de-fonds/2300/acupuncture-not-included-in-category-doctors/yifan-mtc-acupuncture-clinique-MyIvSpjIU2zHkgypsU4JTw
YOUSEEBÄRN AG,"Marktgasse 32, 3011 Bern",3011,Bern,,https://www.local.ch/en/d/bern/3011/eye-center/youseebaern-ag-V-b2lKa9DmCa8snckJQGxg
Zahnärzte Bern | swiss smile,"Neuengasse 43, 3011 Bern",3011,Bern,tel:+41315608151,https://www.local.ch/en/d/bern/3011/dental-clinic/zahnaerzte-bern-swiss-smile--XZ-A97kXKstGgTbFtbjVg
ZahnärzteTeam Ort,"Grabengasse 14, 8180 Bülach",8180,Bülach,tel:+41448601340,https://www.local.ch/en/d/buelach/8180/dentist/zahnaerzteteam-ort-WVdxzE9p7S8-bD5Oo8EDXQ
ZahnärzteTeam Ort,"Zugerstrasse 21, 8816 Hirzel",8816,Hirzel,tel:+41447299928,https://www.local.ch/en/d/hirzel/8816/dentist/zahnaerzteteam-ort-YZpa5N332X2GMQlBJ0brwQ
Zahnarztpraxis med. dent. Andreas Loboda,"Alte Bahnhofstrasse 3, 9100 Herisau",9100,Herisau,tel:+41713511069,https://www.local.ch/en/d/herisau/9100/dentist/zahnarztpraxis-med-dent-andreas-loboda-l6w7_JNe8O68B6Qu3hhUvg
Zahnarztpraxis Schifflände,"Tanzgässlein 2, 4051 Basel",4051,Basel,tel:+41612613545,https://www.local.ch/en/d/basel/4051/dentist/zahnarztpraxis-schifflaende-3-_k7n_dKevBpHt24BmOPg
Zahnarztpraxis Winkler,"Dollikerweg 16, 8706 Meilen",8706,Meilen,tel:+41449230800,https://www.local.ch/en/d/meilen/8706/dentist/zahnarztpraxis-winkler-dFb2B8LDtsUcLTWf0mHAfw
Zahnbox50 GmbH,"Bahnhofstrasse 94, 5000 Aarau",5000,Aarau,tel:+41625085821,https://www.local.ch/en/d/aarau/5000/dentist/zahnbox50-gmbh-QGPRvrFyk0MldUAL6Haw2Q
Zahnexperten Ungarn,"Lindenstrasse 4, 8600 Dübendorf",8600,Dübendorf,tel:+41448208800,https://www.local.ch/en/d/duebendorf/8600/dentist/zahnexperten-ungarn-i71s6YWNBwnajuz5qUGmFw
ZZG AG,"Gartenstrasse 33, 8002 Zürich",8002,Zürich,tel:+41442013062,https://www.local.ch/en/d/zuerich/8002/dental-clinic/zzg-ag-hPU7NH2sfe497zjMPaWYtg
Clinic Les Alpes SA,"Route de Sonloup 37, 1833 Les Avants",1833,Avants,tel:+41583605500,https://www.local.ch/en/d/les-avants/1833/private-clinic/clinic-les-alpes-sa-5J8KgQXbr1x59pWAbCJ3SQ
Forel Klinik Tagesklinik,"Sihlquai 255, 8005 Zürich",8005,Zürich,tel:+41442775600,https://www.local.ch/en/d/zuerich/8005/day-clinic/forel-klinik-tagesklinik-GhTpmOjt-fwqG80QTC2IBA
Hautzentrum Zürich AG,"Schaffhauserstrasse 355, 8050 Zürich",8050,Zürich,tel:+41443188899,https://www.local.ch/en/d/zuerich/8050/dermatology-and-venereology/hautzentrum-zuerich-ag--stZW4sACcrYIOzNDd5Fiw
Dr. med. dent. Kyburz Michael,"Forchstrasse 319, 8008 Zürich",8008,Zürich,tel:+41443815560,https://www.local.ch/en/d/zuerich/8008/dentist/dr-med-dent-kyburz-michael-bWn_Mn4WI4X-wSaiNuvZuw
MV SANTE Clinique Champel SA,"Avenue de Champel 42, 1206 Genève",1206,Genève,tel:+41228393434,https://www.local.ch/en/d/geneve/1206/health-care-center/mv-sante-clinique-champel-sa-v0KilTf6eXGAIrM4_IcvlQ
MV SANTE Vision SA,"Avenue de Rhodanie 70, 1007 Lausanne",1007,Lausanne,tel:+41216131030,https://www.local.ch/en/d/lausanne/1007/health-care-center/mv-sante-vision-sa-wBdA5z8UY-mIIpFl1kRlTg
Kleintierpraxis Huobmatt,"Huobmattstrasse 7, 6045 Meggen",6045,Meggen,tel:+41413773210,https://www.local.ch/en/d/meggen/6045/vet/kleintierpraxis-huobmatt-bskJZvmsf-OVamX2m0Ktyw
Bleker Martin,"Hofstettenstrasse 15E, 3600 Thun",3600,Thun,tel:+41332233533,https://www.local.ch/en/d/thun/3600/laser-medical-treatment/bleker-martin-eOujq8tLkES2AasSEuonjg
Centre Dentaire B1,"Rue de la Toula 20, 1630 Bulle",1630,Bulle,tel:+41324937582,https://www.local.ch/en/d/bulle/1630/dental-clinic/centre-dentaire-b1-37pwGK3lnaAD-ehMgC3JdA
Dr. med. dent. Gilomen Tobias,"Kronenstrasse 9, 8712 Stäfa",8712,Stäfa,tel:+41449264222,https://www.local.ch/en/d/staefa/8712/dentist/dr-med-dent-gilomen-tobias-I_FZLfzc5sphE7Rse3FFUw
Kleintierpraxis Rhenus,"Rietstrasse 28, 8260 Stein am Rhein",8260,Rhein,tel:+41527411400,https://www.local.ch/en/d/stein-am-rhein/8260/vet/kleintierpraxis-rhenus-h498XzZ3gVGdI2hz6xYIOw
TIERKLINIK MITTELLAND AG,"Kieferstrasse 2, 4665 Oftringen",4665,Oftringen,tel:+41627897070,https://www.local.ch/en/d/oftringen/4665/vet/tierklinik-mittelland-ag-Q0DW9Y8pi_wkZgT0HzFy9Q
Bengtson Zahnmedizin AG,"Hauptstrasse 74, 9042 Speicher",9042,Speicher,tel:+41713442266,https://www.local.ch/en/d/speicher/9042/dentist/bengtson-zahnmedizin-ag-Mw_fywTX3_Lu-wiB6pqoug
Dr. med. Hochreutener Helen,"Bahnhofstrasse 29, 3800 Interlaken",3800,Interlaken,tel:+41338232333,https://www.local.ch/en/d/interlaken/3800/paediatrics/dr-med-hochreutener-helen-Dg-VNu1mAAxIb7IypPvs9Q
Michel Gruppe AG,3860 Schattenhalb,3860,Schattenhalb,tel:+41339728200,https://www.local.ch/en/d/schattenhalb/3860/private-clinic/michel-gruppe-ag-1gJAqS9IwAlQc5uEes7Cnw
"ACACIA CENTRO VETERINARIO, Paradiso","Via San Salvatore 4, 6900 Paradiso",6900,Paradiso,tel:+41919948332,https://www.local.ch/en/d/paradiso/6900/vet/acacia-centro-veterinario-paradiso-mhgcDd07VrxinhxhZHXiXQ
AniCura Tierklinik Thun AG,"Burgerstrasse 11, 3600 Thun",3600,Thun,tel:+41332224477,https://www.local.ch/en/d/thun/3600/animal-clinic/anicura-tierklinik-thun-ag-L4lddZUcKWw8i1hxfdmLVg
AugenCentrum Münsingen,"Bahnhofplatz 1A, 3110 Münsingen",3110,Münsingen,tel:+41317215833,https://www.local.ch/en/d/muensingen/3110/eye-center/augencentrum-muensingen-kETfIEdXreC6y6wLHiN6Uw
Augentreffpunkt Dr. med. Sanchez Lasa Enrique,"Badenerstrasse 530, 8048 Zürich",8048,Zürich,tel:+41433363800,https://www.local.ch/en/d/zuerich/8048/ophthalmology/augentreffpunkt-dr-med-sanchez-lasa-enrique-LtlZwj8CT75qHuNs3jOcQQ
Augenzentrum Bahnhof Basel AG,"Centralbahnstrasse 16, 4051 Basel",4051,Basel,tel:+41612702040,https://www.local.ch/en/d/basel/4051/eye-center/augenzentrum-bahnhof-basel-ag-JYPr4v1f_Ali0ddLOXZCMA
Augenzentrum Frauenfeld AG,"Oberstadtstrasse 4, 8500 Frauenfeld",8500,Frauenfeld,tel:+41527202022,https://www.local.ch/en/d/frauenfeld/8500/eye-center/augenzentrum-frauenfeld-ag--v0-h285t9QwYsSlUaGMtA
Augenzentrum Riehen,"Rauracherstrasse 33, 4125 Riehen",4125,Riehen,tel:+41616016066,https://www.local.ch/en/d/riehen/4125/eye-center/augenzentrum-riehen-dsEx9JdnNFliN0zDmKseeA
Augenzentrum Wasserturm,"Wasserturmplatz 3, 4410 Liestal",4410,Liestal,tel:+41619220202,https://www.local.ch/en/d/liestal/4410/eye-center/augenzentrum-wasserturm-SQbed9zp3W5spk-jT3Eb0Q
Basler Puppen- und Bärenklinik,"Reichensteinerstrasse 20, 4053 Basel",4053,Basel,tel:+41612712063,https://www.local.ch/en/d/basel/4053/doll-hospital/basler-puppen-und-baerenklinik-HcsvePuNwGUuaIPAoQN8PA
Benoit André,"Hardstrasse 81, 8424 Embrach",8424,Embrach,tel:+41443615135,https://www.local.ch/en/d/embrach/8424/dental-technial-laboratory/benoit-andre-Y4F4iezBQHI6NTJXK_AJ_Q
Dr. med. vet. Buser Andreas,"Mitteldorfstrasse 2, 4153 Reinach BL",4153,BL,tel:+41617118011,https://www.local.ch/en/d/reinach-bl/4153/vet/dr-med-vet-buser-andreas-8zStj7pgrbugEHHlqOWoBg
Cabinet Dentaire d'Octodure,"Avenue de la Gare 50, 1920 Martigny",1920,Martigny,tel:+41277222466,https://www.local.ch/en/d/martigny/1920/dentist/cabinet-dentaire-d-octodure-x-t0wPOiYZ-2j2PuoeZZ0w
Cabinet Dentaire Sédunois,"Avenue des Mayennets 5, 1950 Sion",1950,Sion,tel:+41273232531,https://www.local.ch/en/d/sion/1950/dental-clinic/cabinet-dentaire-sedunois-6VchODcjHjyA1qEU5Twd3w
Cabinet Dentaire Vernier Sàrl,"Rue du Village 28, 1214 Vernier",1214,Vernier,tel:+41223412177,https://www.local.ch/en/d/vernier/1214/dentist/cabinet-dentaire-vernier-sarl-uY-i_T1v9XERLTJVeUKFtw
Cabinet Vétérinaire des Sources SA,"Rue des Sources 10, 1205 Genève",1205,Genève,tel:+41227081199,https://www.local.ch/en/d/geneve/1205/vet/cabinet-veterinaire-des-sources-sa-u8rjJjYWItiuM4ZszwVnqA
Cabinet Vétérinaire Gambetta,"Rue Gambetta 27, 1815 Clarens",1815,Clarens,tel:+41219646411,https://www.local.ch/en/d/clarens/1815/vet/cabinet-veterinaire-gambetta-Lm3Td-JfFxrVkPuTFLufbA
Cabinet vétérinaire Pegasus,"Avenue Victor-Ruffy 52, 1012 Lausanne",1012,Lausanne,tel:+41216538866,https://www.local.ch/en/d/lausanne/1012/vet/cabinet-veterinaire-pegasus-cjiRRi2kloEr3qMWv-V5tw
Centre Vétérinaire Agy,"Route des Grives 8, 1763 Granges-Paccot",1763,Granges-Paccot,tel:+41264664141,https://www.local.ch/en/d/granges-paccot/1763/vet/centre-veterinaire-agy-1MyJEpJ3FqTLcuVjmBwVEQ
CENTRO OCULISTICO BESSO Sanchez Lasa Enrique,"Via Besso 31, 6900 Lugano",6900,Lugano,tel:+41919671155,https://www.local.ch/en/d/lugano/6900/ophthalmology/centro-oculistico-besso-sanchez-lasa-enrique-v8Te7r-dOqjwQKZZPGg-tg
Centro Veterinario Daniele Varini,"Via Locarno 8, 6616 Losone",6616,Losone,tel:+41917921333,https://www.local.ch/en/d/losone/6616/vet/centro-veterinario-daniele-varini-r-uHyD-I2OPAZi7JlDSERQ
Centro Veterinario Dott. Paolo Sattamino,"Via Mezzana 31A, 6616 Losone",6616,Losone,tel:+41917911222,https://www.local.ch/en/d/losone/6616/vet/centro-veterinario-dott-paolo-sattamino-OC-AvqNsizBGoL9WL3iasw
Dr. med. Cipolat Claudio M.,"Stettbachstrasse 6, 8600 Dübendorf",8600,Dübendorf,tel:+41443116688,https://www.local.ch/en/d/duebendorf/8600/dermatology-and-venereology/dr-med-cipolat-claudio-m-5Zp9XxfeZx7ygEpsl6L2ig
CMDP Centre Médico-Dentaire de Payerne SA,"Rue des Terreaux 3, 1530 Payerne",1530,Payerne,tel:+41263511051,https://www.local.ch/en/d/payerne/1530/dentist/cmdp-centre-medico-dentaire-de-payerne-sa-wGclaaaNsryev70RkXm1vg
Dr Coattrenec Yann,"Avenue Viollier 8, 1260 Nyon",1260,Nyon,tel:+41223652690,https://www.local.ch/en/d/nyon/1260/allergology-and-clinical-immunology/dr-coattrenec-yann-uORvzuUBRUXILj-KKC4otg
Dr. med. dent. Decrue Alexandre,"Kreuzackerweg 15, 4103 Bottmingen",4103,Bottmingen,tel:+41614219696,https://www.local.ch/en/d/bottmingen/4103/dentist/dr-med-dent-decrue-alexandre-gvYtiJqZPFitxc9pViFyTA
Dental Pearl - Soins Dentaires et Esthétique,"Avenue des Alpes 29, 1820 Montreux",1820,Montreux,tel:+41219632333,https://www.local.ch/en/d/montreux/1820/dentist/dental-pearl-soins-dentaires-et-esthetique-gSXEBG3rwdclIXSDukkjxg
Dermis Hautklinik Bülach AG,"Schaffhauserstrasse 53, 8180 Bülach",8180,Bülach,tel:+41448728000,https://www.local.ch/en/d/buelach/8180/dermatology-and-venereology/dermis-hautklinik-buelach-ag-igACz9OfPaq63cOykZHsVQ
Eulachklinik AG,"Brunngasse 6, 8400 Winterthur",8400,Winterthur,tel:+41522244848,https://www.local.ch/en/d/winterthur/8400/day-clinic/eulachklinik-ag-DWMMzvMYGRlm8UMxspuCNQ
Frau Bizirianis Vasiliki,"Schaffhauserstrasse 442, 8050 Zürich",8050,Zürich,tel:+41443020636,https://www.local.ch/en/d/zuerich/8050/dentist/frau-bizirianis-vasiliki-xDc3Miznbiv9rndIpTaTQg
Dr. med. dent. Häcki Beat,"Bahnhofstrasse 99, 8620 Wetzikon ZH",8620,ZH,tel:+41449305466,https://www.local.ch/en/d/wetzikon-zh/8620/dentist/dr-med-dent-haecki-beat-2i-2v2eqzlhmZZukTUYkPA
Kleintier-Spezialisten Klinik ARC,"Oberdorfstrasse 143, 9100 Herisau",9100,Herisau,tel:+41713546565,https://www.local.ch/en/d/herisau/9100/vet/kleintier-spezialisten-klinik-arc--qjkCb3zBs9VTxq6YP6QuA
Kleintierklinik am See,"St. Gallerstrasse 22, 9400 Rorschach",9400,Rorschach,tel:+41718454444,https://www.local.ch/en/d/rorschach/9400/animal-clinic/kleintierklinik-am-see-qq6j5I_BQNyt1Y3WbG0vsA
Kleintierpraxis Anima AG,"Grundstrasse 4A, 8712 Stäfa",8712,Stäfa,tel:+41438187171,https://www.local.ch/en/d/staefa/8712/vet/kleintierpraxis-anima-ag-oFzFjX_fytfd-xRwkAeEmA
Dr. med. vet. Kleintierpraxis Aufdorf,"Gewerbestrasse 4, 8708 Männedorf",8708,Männedorf,tel:+41449200303,https://www.local.ch/en/d/maennedorf/8708/vet/dr-med-vet-kleintierpraxis-aufdorf-v8k95mlbog-1uKrF8bNjEg
Kleintierpraxis Dr. Maute AG,"Prattelerstrasse 3, 4132 Muttenz",4132,Muttenz,tel:+41614613343,https://www.local.ch/en/d/muttenz/4132/vet/kleintierpraxis-dr-maute-ag--jSQ2nrWS-tDWjmUJnf7CQ
Kleintierpraxis im Moos AG,"Bielstrasse 39, 3232 Ins",3232,Ins,tel:+41323131616,https://www.local.ch/en/d/ins/3232/vet/kleintierpraxis-im-moos-ag-NRtxWqsElcqWnP_jNW_HHQ
Kleintierpraxis Maurer,"Brüttenerstrasse 3, 8307 Effretikon",8307,Effretikon,tel:+41764121151,https://www.local.ch/en/d/effretikon/8307/vet/kleintierpraxis-maurer-yjXnVz1FUtgcIejkViVoVA
Kleintierpraxis Schachenweid AG,"Schachenweidstrasse 46, 6030 Ebikon",6030,Ebikon,tel:+41414207000,https://www.local.ch/en/d/ebikon/6030/vet/kleintierpraxis-schachenweid-ag-0QwT3R51SplJz4Raee7HNQ
Kleintierpraxis TiM,"Dohlenzelgstrasse 23, 5210 Windisch",5210,Windisch,tel:+41564414166,https://www.local.ch/en/d/windisch/5210/vet/kleintierpraxis-tim-1zkAfMNpmMk2nDCkjd6bnw
Dr. med. Krüger Jens,"Centralbahnstrasse 16, 4051 Basel",4051,Basel,tel:+41612702040,https://www.local.ch/en/d/basel/4051/ophthalmology/dr-med-krueger-jens-18Is0sw8I3hIHHhfbmRP1w
Laboratoire de prothèse dentaire,"Avenue De-Gallatin 9, 1203 Genève",1203,Genève,tel:+41223444140,https://www.local.ch/en/d/geneve/1203/dental-technial-laboratory/laboratoire-de-prothese-dentaire-NQNxFdyEzzI4lr13ldeGxA
Dr. med. Lehner Patrik,"Sternackerstrasse 7, 9000 St. Gallen",9000,Gallen,tel:+41712225090,https://www.local.ch/en/d/st-gallen/9000/dermatology-and-venereology/dr-med-lehner-patrik-Z32TJFZI6MkrA44QBzw4fA
LEUTERT ZAHNÄRZTE,"Bruechstrasse 12, 8706 Meilen",8706,Meilen,tel:+41449234088,https://www.local.ch/en/d/meilen/8706/dentist/leutert-zahnaerzte-lqFG-U5wANPzs38CLk8ZPQ
Lindenhof Betreuen Pflegen Wohnen,"Lindenstrasse 72, 9000 St. Gallen",9000,Gallen,tel:+41712439100,https://www.local.ch/en/d/st-gallen/9000/homes-for-the-elderly-with-nursing-care/lindenhof-betreuen-pflegen-wohnen-WT9JE32dd6nXbNUP7jz5_A
Marigin Tierklinik - Zentrum für Tiermedizin,"Firststrasse 31, 8835 Feusisberg",8835,Feusisberg,tel:+41555364444,https://www.local.ch/en/d/feusisberg/8835/vet/marigin-tierklinik-zentrum-fuer-tiermedizin-SBdZXwUNIWHEjbMj8JJvaQ
Neric Médecine dentaire I Zahnmedizin,"Boulevard de Pérolles 8, 1700 Fribourg",1700,Fribourg,tel:+41263223707,https://www.local.ch/en/d/fribourg/1700/dentist/neric-medecine-dentaire-i-zahnmedizin-RmmlI7OVt7NawxxJ-nVtAw
NioDent SA - Studio Dentistico,"Via Maggio 21, 6900 Lugano",6900,Lugano,tel:+41912226111,https://www.local.ch/en/d/lugano/6900/dentist/niodent-sa-studio-dentistico-4nhTrqbR7Q8xmb2uAaLUqg
Oro-faziales Diagnostikzentrum,"Weinbergstrasse 160, 8006 Zürich",8006,Zürich,tel:+41445333010,https://www.local.ch/en/d/zuerich/8006/dental-clinic/oro-faziales-diagnostikzentrum-oH-cRCVUIrSGIpUeWMiWpQ
Dr. med. vet. Peter Andreas,"Rychenbergstrasse 240, 8404 Winterthur",8404,Winterthur,tel:+41522382181,https://www.local.ch/en/d/winterthur/8404/vet/dr-med-vet-peter-andreas-L46Zd7di7jfb3JT6Wlb5dw
Praxis am Neuhausplatz AG,"Könizstrasse 233, 3097 Liebefeld",3097,Liebefeld,tel:+41319703636,https://www.local.ch/en/d/liebefeld/3097/general-internal-medicine/praxis-am-neuhausplatz-ag-28u8HUw7An6eV90o0qagdg
Praxis Belle Dent,"Gutstrasse 53, 8055 Zürich",8055,Zürich,tel:+41444615620,https://www.local.ch/en/d/zuerich/8055/dentist/praxis-belle-dent-ytM8bYZbnkyUMY4qRpVhvQ
Ré Roberto,"Route d'Aigle 58, 1867 Ollon VD",1867,VD,tel:+41244992813,https://www.local.ch/en/d/ollon-vd/1867/vet/re-roberto-aUU_Xm47jxhjYh-9CHgkNg
Dr. med. Reimers Andrea,"Spitalgasse 4, 3011 Bern",3011,Bern,tel:+41313121545,https://www.local.ch/en/d/bern/3011/allergology-and-clinical-immunology/dr-med-reimers-andrea-bBFuUrb5hMuoFtS50cL5ew
Sanatorium Kilchberg AG,"Alte Landstrasse 70, 8802 Kilchberg ZH",8802,ZH,tel:+41447164242,https://www.local.ch/en/d/kilchberg-zh/8802/psychiatry-and-psychotherapy/sanatorium-kilchberg-ag-z9MVOQHj7tVX0Nsq9QkMsg
Stimolo Pharma Consulting GmbH,"Brünnenstrasse 88, 3018 Bern",3018,Bern,tel:+41319910264,https://www.local.ch/en/d/bern/3018/pharmaceutical-products-services/stimolo-pharma-consulting-gmbh-JyQ4yKnUTGI9uc_1dvrvJQ
Studio Dentistico Bettoni - Franscini,"Via Vincenzo Vela 11, 6600 Locarno",6600,Locarno,tel:+41917519119,https://www.local.ch/en/d/locarno/6600/dentist/studio-dentistico-bettoni-franscini-QKa7SLowdCvjOc1zGI4fwA
Tierarztpraxis Dr. Marti,"Hubweg 1, 4950 Huttwil",4950,Huttwil,tel:+41629622821,https://www.local.ch/en/d/huttwil/4950/vet/tierarztpraxis-dr-marti-ug-rkj9D_7a7_9AtwUu_vQ
Tierarztpraxis Dr. med. vet. Katja Rech,"Witikonerstrasse 299, 8053 Zürich",8053,Zürich,tel:+41444225700,https://www.local.ch/en/d/zuerich/8053/vet/tierarztpraxis-dr-med-vet-katja-rech-TqxGNV7M_RsCaGwADdOJVQ
Tierarztpraxis im Hölzli,"Weidstrasse 7, 8580 Amriswil",8580,Amriswil,tel:+41714115255,https://www.local.ch/en/d/amriswil/8580/vet/tierarztpraxis-im-hoelzli-uqw9ROjdw6ksZPEfc23LlA
Tierarztpraxis Schauenberg,"Vordergasse 19, 8353 Elgg",8353,Elgg,tel:+41523661267,https://www.local.ch/en/d/elgg/8353/vet/tierarztpraxis-schauenberg-HIdCSnRdHeTlzbIX1GXG8w
Tierarztpraxis Waldegg GmbH,"Florastrasse 26, 3800 Interlaken",3800,Interlaken,tel:+41338225555,https://www.local.ch/en/d/interlaken/3800/vet/tierarztpraxis-waldegg-gmbh-wAy5x-LdeeFRoFrvhGEyeg
Tierklinik24,"Schmittenweg 5, 5053 Staffelbach",5053,Staffelbach,tel:+41627392424,https://www.local.ch/en/d/staffelbach/5053/animal-clinic/tierklinik24-iveowXePN-7v2Fhm-_V4qw
Tierklinik Interlaken AG,"General-Guisanstrasse 39, 3800 Interlaken",3800,Interlaken,tel:+41338222141,https://www.local.ch/en/d/interlaken/3800/vet/tierklinik-interlaken-ag-X9iqRW_39x9yZAnsZjK0cA
Tierklinik Obergrund AG,"Schlossstrasse 11, 6005 Luzern",6005,Luzern,tel:+41413111380,https://www.local.ch/en/d/luzern/6005/vet/tierklinik-obergrund-ag-HtqdBpwqTHuUKzdlELPHgg
Tierklinik Rhenus AG,"Winterthurerstrasse, 8247 Flurlingen",8247,Flurlingen,tel:+41526594940,https://www.local.ch/en/d/flurlingen/8247/vet/tierklinik-rhenus-ag-aoqwfoQ8ahgoToauWoLK3g
Tierklinik Sonnenhof AG,"Luzernstrasse 55A, 4552 Derendingen",4552,Derendingen,tel:+41326816161,https://www.local.ch/en/d/derendingen/4552/animal-clinic/tierklinik-sonnenhof-ag-xWa2GTXzcVmedsoO91qZZg
Vitadent,"Avenue de la Gare 1, 1700 Fribourg",1700,Fribourg,tel:+41263223333,https://www.local.ch/en/d/fribourg/1700/dentist/vitadent-Yvr0l_UojhWwjLWmNItVkA
vue. Augenzentrum Grenchen,"Kapellstrasse 33, 2540 Grenchen",2540,Grenchen,tel:+41326521028,https://www.local.ch/en/d/grenchen/2540/eye-center/vue-augenzentrum-grenchen-npJV82K7YxAyjxaUdJAfSg
Zahnarztpraxis Embrach-Rorbas AG,"Alte Rheinstrasse 83, 8424 Embrach",8424,Embrach,tel:+41448650020,https://www.local.ch/en/d/embrach/8424/dentist/zahnarztpraxis-embrach-rorbas-ag-vD5m5fd8ID0dv1dJzO9MAw
Zahnarztpraxis Embrach-Rorbas AG,"Aspstrasse 3, 8426 Lufingen",8426,Lufingen,tel:+41448650025,https://www.local.ch/en/d/lufingen/8426/dentist/zahnarztpraxis-embrach-rorbas-ag-SvsVi-mbxbOeFqIXviZjDg
Vétérinaire des Plaines-du-Loup,"Route des Plaines-du-Loup 38, 1018 Lausanne",1018,Lausanne,tel:+41216833333,https://www.local.ch/en/d/lausanne/1018/vet/veterinaire-des-plaines-du-loup-HSRdRPISKHffWjR1PGe_xA
IFCT,"Chemin du Martelet 2, 1261 Le Vaud",1261,Vaud,tel:+41787647510,https://www.local.ch/en/d/le-vaud/1261/continuation-of-one-s-education/ifct-UL69lrefV0Y2ygP34_AXww
Tierklinik Lindenhof,"Oberegg 673, 9220 Bischofszell",9220,Bischofszell,tel:+41714223171,https://www.local.ch/en/d/bischofszell/9220/animal-clinic/tierklinik-lindenhof-7bss2TQlVk2M61E_ZtHJ4w
Dr. med. Lachmund Ulrich,"Louis-Giroud-Strasse 26, 4600 Olten",4600,Olten,tel:+41583350000,https://www.local.ch/en/d/olten/4600/ophthalmology/dr-med-lachmund-ulrich-J0nQOFIsh2GUAeR4CoEz1w
Tierarztpraxis VetCenter GmbH,"Bernstrasse 134, 3613 Steffisburg",3613,Steffisburg,tel:+41336730000,https://www.local.ch/en/d/steffisburg/3613/animal-clinic/tierarztpraxis-vetcenter-gmbh-DOV4LEu2KvSalQ5PiMupLQ
Veterinaris Cadi GmbH,"Via Sursilvana 101, 7175 Sumvitg",7175,Sumvitg,tel:+41819492060,https://www.local.ch/en/d/sumvitg/7175/vet/veterinaris-cadi-gmbh-3SXH-4JF1hvu6V_Xy_PVMQ
VetUrgences SA,"Route de Ferney 194B, 1218 Le Grand-Saconnex",1218,Grand-Saconnex,tel:+41225122424,https://www.local.ch/en/d/le-grand-saconnex/1218/veterinary-emergency-service/veturgences-sa-I0MAKM3K-yVs3oy_O6UN6Q
Cabinet Dentaire de Beaulieu,"Avenue Bergières 20, 1004 Lausanne",1004,Lausanne,tel:+41216483612,https://www.local.ch/en/d/lausanne/1004/dentist/cabinet-dentaire-de-beaulieu-U5nnkBnMb0Lb0ts6ALmQjw
Cabinet Glutz Gannagé,"Rue du Grand-Chêne 4, 1003 Lausanne",1003,Lausanne,tel:+41213203777,https://www.local.ch/en/d/lausanne/1003/ophthalmology/cabinet-glutz-gannage-o6t4SN9gQOhVlpCbN5waLw
Kleintierpraxis med. vet. Andrea Greuter,"Gerbegasse 9, 8302 Kloten",8302,Kloten,tel:+41448131024,https://www.local.ch/en/d/kloten/8302/vet/kleintierpraxis-med-vet-andrea-greuter-YJ4DzN0-YSwkC9LW4-RmMQ
"Klinik Im Hasel AG, Ambulatorium für Traumafolgestörungen Baden","Bahnhofplatz 1, 5400 Baden",5400,Baden,tel:+41627386000,https://www.local.ch/en/d/baden/5400/addiction-treatment/klinik-im-hasel-ag-ambulatorium-fuer-traumafolgestoerungen-baden-Vow8_3h9JubCnwQJ8jyeng
Studio-dentistico,"Via dei Gorla 3, 6500 Bellinzona",6500,Bellinzona,tel:+41918252248,https://www.local.ch/en/d/bellinzona/6500/dentist/studio-dentistico-MfproEu7reUA8tg43Ty4FA
vetderm.ch - Dermatologie und Allergologie für Tiere,"Schwäntenmos 12, 8126 Zumikon",8126,Zumikon,tel:+41449190091,https://www.local.ch/en/d/zumikon/8126/vet/vetderm-ch-dermatologie-und-allergologie-fuer-tiere-bXFJIsSpye8P47Jb7q5QEA
Dr. med. vet. Weber Nathalie,"Route des Vieux-Chênes 3, 1700 Fribourg",1700,Fribourg,tel:+41264813993,https://www.local.ch/en/d/fribourg/1700/vet/dr-med-vet-weber-nathalie-tfD2FZiV_k1OFYfOhlcqAg
A LA CLINIQUE,"Rue Centrale 15, 1003 Lausanne",1003,Lausanne,tel:+41213111180,https://www.local.ch/en/d/lausanne/1003/beauty-center/a-la-clinique-49jdrVC-ltMw5yNRQwe9yQ
AniCura AOI Center AG,"Rothusstrasse 2A, 6331 Hünenberg",6331,Hünenberg,tel:+41417830777,https://www.local.ch/en/d/huenenberg/6331/vet/anicura-aoi-center-ag-Ie6feHbeNBVD1Uj2UtwuWw
AUGENARZTZENTRUM ZÜRICH AG,"Limmatquai 94, 8001 Zürich",8001,Zürich,tel:+41442571074,https://www.local.ch/en/d/zuerich/8001/ophthalmic-clinics/augenarztzentrum-zuerich-ag-nnWtwrkY1ohmgTP1ntp63w
Augenpraxis Stäfa,"Oberlandstrasse 12, 8712 Stäfa",8712,Stäfa,tel:+41449262424,https://www.local.ch/en/d/staefa/8712/ophthalmic-clinics/augenpraxis-staefa-ClJ0kmlrPpd70stpMDwJGg
Cabinet Dentaire & Orthodontie,"Rue de la Serre 14, 2300 La Chaux-de-Fonds",2300,Chaux-de-Fonds,tel:+41329641652,https://www.local.ch/en/d/la-chaux-de-fonds/2300/dentist/cabinet-dentaire-orthodontie-IUFaQiU9nVr0-_PeD1KM6Q
Christoffel-OP,"Christoffelgasse 6, 3011 Bern",3011,Bern,tel:+41313135656,https://www.local.ch/en/d/bern/3011/day-clinic/christoffel-op-_BsgyqnzxQuUY_jJ7YUmRA
Dr. med. Din-Juna Galina,"Niklaus-Konrad-Strasse 25, 4500 Solothurn",4500,Solothurn,tel:+41326227344,https://www.local.ch/en/d/solothurn/4500/dermatology-and-venereology/dr-med-din-juna-galina-OQBP4ct1bpu6B_VPf_8SVA
Dr. med. Kägi Martin K.,"Schaffhauserstrasse 355, 8050 Zürich",8050,Zürich,tel:+41443188899,https://www.local.ch/en/d/zuerich/8050/dermatology-and-venereology/dr-med-kaegi-martin-k--ExpQ8ZhKyUwC5i0wh8hiQ
Dr. med. Meyer Norbert,"Schmiedengasse 1, 2502 Biel/Bienne",2502,Biel/Bienne,tel:+41323231188,https://www.local.ch/en/d/biel-bienne/2502/allergology-and-clinical-immunology/dr-med-meyer-norbert-TU9IVNJ-a4ouPuPLcbowEg
Dr. med. Drexel Barbara,"Stockerstrasse 42, 8002 Zürich",8002,Zürich,tel:+41438176857,https://www.local.ch/en/d/zuerich/8002/paediatrics/dr-med-drexel-barbara-TNu1C2qwAIRuHw0xftXkkQ
Graubündner Zahnärztegesellschaft / GZG,"Quaderstrasse 22, 7000 Chur",7000,Chur,tel:+41812522682,https://www.local.ch/en/d/chur/7000/dental-clinic/graubuendner-zahnaerztegesellschaft-gzg-tcQfxIUUJawwj3e1CySiLg
Dr. med. Graupner Maike,"Limmattalstrasse 197, 8049 Zürich",8049,Zürich,tel:+41443410380,https://www.local.ch/en/d/zuerich/8049/ophthalmology/dr-med-graupner-maike-fQQ2EfdJoSUZbBBOP03SLA
Prof. Dr. Hafezi Farhad,"Grünaustrasse 6, 8953 Dietikon",8953,Dietikon,tel:+41445004115,https://www.local.ch/en/d/dietikon/8953/ophthalmic-surgery/prof-dr-hafezi-farhad-kOX5nhhUbEuUsgdVLEuRnQ
Herzpraxis Enge,"Bleicherweg 47, 8002 Zürich",8002,Zürich,tel:+41442015060,https://www.local.ch/en/d/zuerich/8002/dental-clinic/herzpraxis-enge-nIoqIEn218rFnYYfePD17g
Dr. med. Hoernes Miriam,"Stockerstrasse 42, 8002 Zürich",8002,Zürich,tel:+41438176857,https://www.local.ch/en/d/zuerich/8002/paediatrics/dr-med-hoernes-miriam-Ugw12zuKavRcscmDblOFGw
Kleintierpraxis Dr. Romana Jäggi,"Passwangstrasse 37A, 4226 Breitenbach",4226,Breitenbach,tel:+41615337530,https://www.local.ch/en/d/breitenbach/4226/animal-clinic/kleintierpraxis-dr-romana-jaeggi-NN1NgvzbnuH5ENPJDGozHA
Dr. med. Künzli Markus,"Baslerstrasse 339, 4123 Allschwil",4123,Allschwil,tel:+41613079696,https://www.local.ch/en/d/allschwil/4123/paediatrics/dr-med-kuenzli-markus-OrVxntBGkIoJb7qsR51MZg
La Clinique Naturelle - Centre de Thérapies complémentaires,"Rue Jean-Sénebier 20, 1205 Genève",1205,Genève,tel:+41225087350,https://www.local.ch/en/d/geneve/1205/naturopathy/la-clinique-naturelle-centre-de-therapies-complementaires-aDbzWYTRSICELgiwbd0iJA
Dr. med. Langauer Messmer Sabine,"Hirzbrunnenstrasse 58, 4058 Basel",4058,Basel,tel:+41616933010,https://www.local.ch/en/d/basel/4058/allergology-and-clinical-immunology/dr-med-langauer-messmer-sabine-SbBXSxAMmBgdU77WWgrulQ
Dr méd. Langner-Viviani Felicitas,"Avenue de Rumine 27, 1005 Lausanne",1005,Lausanne,tel:+41217283040,https://www.local.ch/en/d/lausanne/1005/allergology-and-clinical-immunology/dr-med-langner-viviani-felicitas-O0MNC1biKk0Qw6_QJjBuyg
dr. med. Lantin Jean Pierre,"Via alle Vigne 7, 6963 Pregassona",6963,Pregassona,tel:+41919402165,https://www.local.ch/en/d/pregassona/6963/general-internal-medicine/dr-med-lantin-jean-pierre-Sojl_0kUGS9WXxDTQkaCZw
Leimgruber-Bosset Annette,"Avenue de Rumine 27, 1005 Lausanne",1005,Lausanne,tel:+41217283040,https://www.local.ch/en/d/lausanne/1005/allergology-and-clinical-immunology/leimgruber-bosset-annette-7jUAqbvUuwbwEDJg_gQLkQ
Maternité Clinique Générale-Beaulieu - Genève - Maternité,"Chemin de Beau-Soleil 20, 1206 Genève",1206,Genève,tel:+41228395707,https://www.local.ch/en/d/geneve/1206/maternity/maternite-clinique-generale-beaulieu-geneve-maternite-2Jmt8NIQkK7BPMQQNCGukQ
Dr. méd. Meyer Norbert,"Rue des Maréchaux 1, 2502 Biel/Bienne",2502,Biel/Bienne,tel:+41323231188,https://www.local.ch/en/d/biel-bienne/2502/allergology-and-clinical-immunology/dr-med-meyer-norbert-M9F7aFNUVhyVWTPB2t4dvg
Müller Barbara,"Zürichstrasse 49, 8910 Affoltern am Albis",8910,Albis,tel:+41447615143,https://www.local.ch/en/d/affoltern-am-albis/8910/dental-clinic/mueller-barbara-tfs5VZrkUsVxGScV0zMcoA
Olivier Gaches Clinique de l'oreille,"Avenue de la Gare 6, 1003 Lausanne",1003,Lausanne,tel:+41213238327,https://www.local.ch/en/d/lausanne/1003/hearing-aids-consultations/olivier-gaches-clinique-de-l-oreille-xjJsZgSOV1OPMeGMgKWnUQ
Radiologie Clinique Générale-Beaulieu - Genève - Institut de radiologie,"Chemin de Beau-Soleil 20, 1206 Genève",1206,Genève,tel:+41228395800,https://www.local.ch/en/d/geneve/1206/radiological-institute/radiologie-clinique-generale-beaulieu-geneve-institut-de-radiologie-BsR6SMpHT0147KErEIhZcg
Dr méd. Roethlisberger Samuel,"Allée du Communet 20, 1196 Gland",1196,Gland,,https://www.local.ch/en/d/gland/1196/paediatrics/dr-med-roethlisberger-samuel-DjI4T49HhQJTWAbLeEUdbQ
Roux Nicolas,"Chemin François-Lehmann 26, 1218 Le Grand-Saconnex",1218,Grand-Saconnex,tel:+41229203880,https://www.local.ch/en/d/le-grand-saconnex/1218/general-internal-medicine/roux-nicolas-KsnZ08gj-aNp4-K77Qmz7g
Dr. med. Sternbuch Josua,"Stockerstrasse 38, 8002 Zürich",8002,Zürich,tel:+41442018010,https://www.local.ch/en/d/zuerich/8002/ophthalmology/dr-med-sternbuch-josua-Dyx03t_OFtrpjKVTS10bRA
Tagesklinik für ältere Menschen ipw,"Feldeggstrasse 5, 8152 Glattbrugg",8152,Glattbrugg,tel:+41522643900,https://www.local.ch/en/d/glattbrugg/8152/day-clinic/tagesklinik-fuer-aeltere-menschen-ipw-ztyVMVf5ZrkHwcywLtRPIQ
Tierarztpraxis Küsnacht AG,"Seestrasse 57, 8700 Küsnacht ZH",8700,ZH,tel:+41449120404,https://www.local.ch/en/d/kuesnacht-zh/8700/vet/tierarztpraxis-kuesnacht-ag-lSJxjlxxiv6fK8DRaYbysg
Dr. med. vet. Tierklinik Appenzell,"Rütistrasse 31, 9050 Appenzell",9050,Appenzell,tel:+41717871819,https://www.local.ch/en/d/appenzell/9050/vet/dr-med-vet-tierklinik-appenzell-pDBYo_T6VjJ-kExrrmNhZA
Tierklinik Schönbühl AG,"Oberdorfstrasse 1, 3322 Urtenen-Schönbühl",3322,Urtenen-Schönbühl,tel:+41318594545,https://www.local.ch/en/d/urtenen-schoenbuehl/3322/vet/tierklinik-schoenbuehl-ag-cPqh4lu9L7L0ukz70ZoVgw
Tschannen Tanja,"Schaffhauserstrasse 355, 8050 Zürich",8050,Zürich,tel:+41443188899,https://www.local.ch/en/d/zuerich/8050/allergology-and-clinical-immunology/tschannen-tanja-d252zQs7guA2kvwlnaaHPQ
Dr méd. Winter Burdet Judith,"Avenue de Rumine 27, 1005 Lausanne",1005,Lausanne,tel:+41217283040,https://www.local.ch/en/d/lausanne/1005/allergology-and-clinical-immunology/dr-med-winter-burdet-judith-E35c38doBKcMxoTxqYYMkQ
Augenarzt Zentrum Dietikon,"Kirchstrasse 20, 8953 Dietikon",8953,Dietikon,tel:+41447410607,https://www.local.ch/en/d/dietikon/8953/eye-center/augenarzt-zentrum-dietikon-Tv2Ot06RF-Rh7l93CCM0jw
Hautarztpraxis Simon A. Wagner,"Hauptstrasse 39, 8280 Kreuzlingen",8280,Kreuzlingen,tel:+41716726000,https://www.local.ch/en/d/kreuzlingen/8280/dermatology-and-venereology/hautarztpraxis-simon-a-wagner-TC4c1rf97qRLGMvR4rRmdA
Schlossberg Ärztezentrum Islikon,"Schöntalweg 5, 8546 Islikon",8546,Islikon,tel:+41523692100,https://www.local.ch/en/d/islikon/8546/general-internal-medicine/schlossberg-aerztezentrum-islikon-wiH1I-9c89uooM48G7FlpA
Augenärzte Zürich - Zentrum Schaffhauserplatz,"Weinbergstrasse 161, 8006 Zürich",8006,Zürich,tel:+41433334444,https://www.local.ch/en/d/zuerich/8006/ophthalmic-clinics/augenaerzte-zuerich-zentrum-schaffhauserplatz-_MkOmimUV5IYsKQqB3tDaA
Dr méd. Azzi Vanessa,"Route de Cossonay 28B, 1008 Prilly",1008,Prilly,tel:+41216262146,https://www.local.ch/en/d/prilly/1008/allergology-and-clinical-immunology/dr-med-azzi-vanessa-GUhk-WKc89xOex3nUpNuoQ
Dr. med. Bauer Madeleine,"Aarauerstrasse 47, 4600 Olten",4600,Olten,tel:+41622960866,https://www.local.ch/en/d/olten/4600/general-internal-medicine/dr-med-bauer-madeleine-mxS2yY3vkOwKrs0Si6nikQ
Dr méd. Benhamou Senouf Avigael,"Boulevard des Philosophes 21, 1205 Genève",1205,Genève,tel:+41223203237,https://www.local.ch/en/d/geneve/1205/allergology-and-clinical-immunology/dr-med-benhamou-senouf-avigael-GAHswvtKw3AjQ9OhCjYL2w
Cabinet dentaire de la Tourelle,"Chemin de la Tourelle 8, 1209 Genève",1209,Genève,tel:+41227984545,https://www.local.ch/en/d/geneve/1209/dental-clinic/cabinet-dentaire-de-la-tourelle-eTOTOVtWEvvm6hTDBtROEg
Cachat Michel,"Avenue du Marché 9, 3960 Sierre",3960,Sierre,tel:+41274556687,https://www.local.ch/en/d/sierre/3960/allergology-and-clinical-immunology/cachat-michel-bdjdc_ydBZDd_B23txsLDg
Dr méd. Ciuffreda Buehler Donatella,"Route de Thonon 42, 1222 Vésenaz",1222,Vésenaz,tel:+41227161616,https://www.local.ch/en/d/vesenaz/1222/allergology-and-clinical-immunology/dr-med-ciuffreda-buehler-donatella-3Ydj64_DyHXiK9NWO8V-VQ
Dr méd. Debétaz Louis-François,"Place Bel-Air 2, 1003 Lausanne",1003,Lausanne,tel:+41213232666,https://www.local.ch/en/d/lausanne/1003/general-internal-medicine/dr-med-debetaz-louis-francois-2YYpoj9dfbM7MLEU71c8oQ
Dentxpert,"Rue Centrale 5, 1003 Lausanne",1003,Lausanne,tel:+41800010161,https://www.local.ch/en/d/lausanne/1003/dentist/dentxpert-0is70qlrVcqeEHRhhDgh_Q
Dr. med. Caroline Dürr Praxis Länggasse,"Länggassstrasse 29, 3012 Bern",3012,Bern,tel:+41313027074,https://www.local.ch/en/d/bern/3012/allergology-and-clinical-immunology/dr-med-caroline-duerr-praxis-laenggasse-Y3_EVX1Tb5l3qe6Zo6S_bw
Dr méd. Gaillard Julien,"Rue d'Orbe 27, 1400 Yverdon-les-Bains",1400,Yverdon-les-Bains,tel:+41244238282,https://www.local.ch/en/d/yverdon-les-bains/1400/allergology-and-clinical-immunology/dr-med-gaillard-julien-Mg1rCgJWCGtsd9if9cX1pw
Duc Joël,"Rue de Pré-Fleuri 5, 1950 Sion",1950,Sion,tel:+41273227454,https://www.local.ch/en/d/sion/1950/allergology-and-clinical-immunology/duc-joel-Is5gpsA2qz0BwS-D_Z3cBg
Dr méd. Ducommun Julien,"Avenue du Général-Guisan 26, 1800 Vevey",1800,Vevey,tel:+41219225522,https://www.local.ch/en/d/vevey/1800/allergology-and-clinical-immunology/dr-med-ducommun-julien-WHIjokm_lBac5cb4-MFRQQ
Dr méd. Emonet Stéphane Léon,"Avenue de la Gare 19, 1920 Martigny",1920,Martigny,tel:+41277210080,https://www.local.ch/en/d/martigny/1920/allergology-and-clinical-immunology/dr-med-emonet-stephane-leon-Nv4lDoHG9X1TdYwErClnGg
Dr. med. Eng Peter,"Leberngasse 7, 4600 Olten",4600,Olten,tel:+41622060060,https://www.local.ch/en/d/olten/4600/pneumology/dr-med-eng-peter-jyrhTmNP19ap35P-S-9egg
Fatio Muguette,"Route des Molliettes 19, 1149 Berolle",1149,Berolle,tel:+41218095132,https://www.local.ch/en/d/berolle/1149/doll-hospital/fatio-muguette-NACXbX1OmYXIQTYDR5YayA
dr. med. Fontana Massimiliano,"Via Serafino Balestra 27, 6900 Lugano",6900,Lugano,tel:+41919237561,https://www.local.ch/en/d/lugano/6900/allergology-and-clinical-immunology/dr-med-fontana-massimiliano-C_jW8t5yDyPr_eW0VJ2iIQ
Francillon Cyrille,"Rue d'Orbe 27, 1400 Yverdon-les-Bains",1400,Yverdon-les-Bains,tel:+41244238282,https://www.local.ch/en/d/yverdon-les-bains/1400/general-internal-medicine/francillon-cyrille-wJoIzlGbrssOnNr2TPbZKA
Grillet Jean-Pierre,"Chemin de Beau-Soleil 12, 1206 Genève",1206,Genève,tel:+41223466962,https://www.local.ch/en/d/geneve/1206/allergology-and-clinical-immunology/grillet-jean-pierre-4tC9R2JvVgs9FuYsTWp41Q
Gutblick - Store Zürich,"Weinbergstrasse 161, 8006 Zürich",8006,Zürich,tel:+41433334444,https://www.local.ch/en/d/zuerich/8006/ophthalmic-clinics/gutblick-store-zuerich--W3yrVqNUUnSpM56Zgg7gQ
Dr méd. Hammann Guggisberg Catherine,"Rue du Seyon 6, 2000 Neuchâtel",2000,Neuchâtel,tel:+41327256161,https://www.local.ch/en/d/neuchatel/2000/allergology-and-clinical-immunology/dr-med-hammann-guggisberg-catherine-L2RHMwmzfhbUNUrv_-YiRQ
Dr. med. Huwyler Toni,"Waltenschwilerstrasse 16, 5610 Wohlen AG",5610,AG,tel:+41566210575,https://www.local.ch/en/d/wohlen-ag/5610/allergology-and-clinical-immunology/dr-med-huwyler-toni-e5r146julCMXt9MuMdp8Cg
Institut de Chimie Clinique Sàrl,"Rue du Midi 15, 1003 Lausanne",1003,Lausanne,tel:+41213113131,https://www.local.ch/en/d/lausanne/1003/clinical-pharmacology-and-toxicology/institut-de-chimie-clinique-sarl-OAM0nVZhOxyXUk_vM-DOdA
Jaques Denis,"Avenue d'Aïre 40, 1203 Genève",1203,Genève,tel:+41229402358,https://www.local.ch/en/d/geneve/1203/general-internal-medicine/jaques-denis-bmap3POaOcKv8_PGMpeeCw
Dr méd. Karoui Olfa,"Avenue de la Gare 6, 1003 Lausanne",1003,Lausanne,tel:+41213233076,https://www.local.ch/en/d/lausanne/1003/allergology-and-clinical-immunology/dr-med-karoui-olfa-lghT2d7qyn_De6K5p9bPrw
Klinik Bellavista AG,"Vögelinsegg 2, 9042 Speicher",9042,Speicher,tel:+41713438181,https://www.local.ch/en/d/speicher/9042/ophthalmic-clinics/klinik-bellavista-ag-oNOUt6QlFDn707Ee1zMG4Q
Dr. med. Mani-Weber Ulrich,"Bälliz 67, 3600 Thun",3600,Thun,tel:+41332230070,https://www.local.ch/en/d/thun/3600/allergology-and-clinical-immunology/dr-med-mani-weber-ulrich-s2qzEVIu2-RGStOCzVgNvw
Dr méd. Mantegani Alain,"Rue de l'Hôpital 11, 2000 Neuchâtel",2000,Neuchâtel,tel:+41327249727,https://www.local.ch/en/d/neuchatel/2000/allergology-and-clinical-immunology/dr-med-mantegani-alain-O0CWxdtP4s2hxbPOAGgzJA
Dr Najem Rizk S. Nicolas,"Rue Jacob-Brandt 91, 2300 La Chaux-de-Fonds",2300,Chaux-de-Fonds,tel:+41329381010,https://www.local.ch/en/d/la-chaux-de-fonds/2300/general-internal-medicine/dr-najem-rizk-s-nicolas-LMfPzg1rTNnuRlxBiYNV3Q
Perrin Yannick,"Rue des Terreaux 23, 1003 Lausanne",1003,Lausanne,tel:+41213242828,https://www.local.ch/en/d/lausanne/1003/allergology-and-clinical-immunology/perrin-yannick-gwxPU1LwJCmsm7guEwXh8Q
PharmaFocus SA,"Route de la Maillarde 6, 1680 Romont FR",1680,FR,tel:+41585959460,https://www.local.ch/en/d/romont-fr/1680/clinical-pharmacology-and-toxicology/pharmafocus-sa-HkxKJdRHNqHEvJNXpjrP6w
Praxis am Bahnhof,"Bahnhofstrasse 20, 4144 Arlesheim",4144,Arlesheim,tel:+41617051661,https://www.local.ch/en/d/arlesheim/4144/general-internal-medicine/praxis-am-bahnhof-MEnVWxBqfJW00J4jd-yq1g
Puppen- & Bärenklinik,"Klosbachstrasse 123, 8032 Zürich",8032,Zürich,tel:+41442627181,https://www.local.ch/en/d/zuerich/8032/doll-hospital/puppen-baerenklinik-SLW0C2kh5mr-f4RSNgoT7A
Qualidental,"Egglerstrasse 1a, 8117 Fällanden",8117,Fällanden,tel:+41433555910,https://www.local.ch/en/d/faellanden/8117/dental-clinic/qualidental-oVmDRsywCTq4CA4sx0AkfA
Dr méd. Reynaud Corinne,"Rue Voltaire 18, 1201 Genève",1201,Genève,tel:+41223444020,https://www.local.ch/en/d/geneve/1201/general-internal-medicine/dr-med-reynaud-corinne-BuwLaO7LgFis_0KDfxZFyA
Schärli Branka und Kurt,"Stachelhofstrasse 33, 8854 Siebnen",8854,Siebnen,tel:+41554603460,https://www.local.ch/en/d/siebnen/8854/dolls/schaerli-branka-und-kurt-uJLVna7kwGKp3Gjeb20EWg
Dr. med. Schramm Holger,"Schaffhauserstrasse 347, 8050 Zürich",8050,Zürich,tel:+41443103848,https://www.local.ch/en/d/zuerich/8050/ophthalmic-surgery/dr-med-schramm-holger-EPipg-HvH7smuGv_89mxYw
Dr. med. Schweri Thomas,"Hans-Hugi-Strasse 10, 2502 Biel/Bienne",2502,Biel/Bienne,tel:+41323226122,https://www.local.ch/en/d/biel-bienne/2502/allergology-and-clinical-immunology/dr-med-schweri-thomas-V6tAZ0u9Fy7AjH9gWJAxJg
dr. med. Scolari Cesare,"Via San Gottardo 45, 6596 Gordola",6596,Gordola,tel:+41917456363,https://www.local.ch/en/d/gordola/6596/dentist/dr-med-scolari-cesare-j58cxJ89LeQoXLm_dVS9ow
Dr méd. Seppey Michel,"Avenue du Censuy 14, 1020 Renens VD",1020,VD,tel:+41216358845,https://www.local.ch/en/d/renens-vd/1020/otorhinolaryngology/dr-med-seppey-michel-4tm3APS8MLrBl8FtuPCpkA
Studio Veterinario Gendotti,"Via Birreria 29, 6760 Faido",6760,Faido,tel:+41918661451,https://www.local.ch/en/d/faido/6760/animal-clinic/studio-veterinario-gendotti-Eth3IFT6ALwTNeIRY1RGbA
Tierarztpraxis Sägematt AG,"Sägemattstrasse 20, 3123 Belp",3123,Belp,tel:+41318191177,https://www.local.ch/en/d/belp/3123/vet/tierarztpraxis-saegematt-ag-gohZss8tN_-zkbtqVb7Zvg
Dr. med. dent. Vijatov Sandra,"Bälliz 64, 3600 Thun",3600,Thun,tel:+41332228844,https://www.local.ch/en/d/thun/3600/dentist/dr-med-dent-vijatov-sandra-BpnTUIvx1umw7ajckJ2ILQ
Dr. med. von Schulthess Anne,"Haselstrasse 7, 5400 Baden",5400,Baden,tel:+41562100686,https://www.local.ch/en/d/baden/5400/allergology-and-clinical-immunology/dr-med-von-schulthess-anne-632AsEoH3JfgtK5Q5ACbbg
Weilenmann Christophe,"Rue du Jura 11, 2900 Porrentruy",2900,Porrentruy,tel:+41324665151,https://www.local.ch/en/d/porrentruy/2900/allergology-and-clinical-immunology/weilenmann-christophe-xMaCv6n7m3XVQ8wHZBmXiw
zahn24arzt Zuchwil,"Langfeldstrasse 24, 4528 Zuchwil",4528,Zuchwil,tel:+41326852424,https://www.local.ch/en/d/zuchwil/4528/dentist/zahn24arzt-zuchwil-CNTRBeJd5El73z6pUiBaog
Zawodnik Stanislas,"Rue de l'Athénée 22, 1206 Genève",1206,Genève,tel:+41223462696,https://www.local.ch/en/d/geneve/1206/paediatrics/zawodnik-stanislas-SNRFWwWEh3C7zlPk8YIsxw
A la Clinique Horlogère,"Rue du Creugenat 29, 2900 Porrentruy",2900,Porrentruy,tel:+41324661486,https://www.local.ch/en/d/porrentruy/2900/clocks-and-watches/a-la-clinique-horlogere-lCtgbbjpKQl2o5Vgr6nXlg
Adent Clinique Dentaire Genève - Acacias,"Rue de la Gabelle 6, 1227 Carouge GE",1227,GE,tel:+41223041750,https://www.local.ch/en/d/carouge-ge/1227/dental-clinic/adent-clinique-dentaire-geneve-acacias-s0HKY--3stzqKJOTnFr43A
Frigo-Clinique SA,"Chemin de Castelver 4, 1255 Veyrier",1255,Veyrier,tel:+41227840115,https://www.local.ch/en/d/veyrier/1255/frigo-clinique-sa-0CszYEKsob_oHx3J82DC-Q
La Clinique,"Quai du Mont-Blanc 19, 1201 Genève",1201,Genève,tel:+41229001800,https://www.local.ch/en/d/geneve/1201/dentist/la-clinique-k8AsHb0QqL32AN2HzVZLTw
La Clinique Médico-Chirurgicale de Nyon,"Rue de la Morâche 9, 1260 Nyon",1260,Nyon,tel:+41223620362,https://www.local.ch/en/d/nyon/1260/la-clinique-medico-chirurgicale-de-nyon-xQm5k8SEQAYWW1NeWKJZYg
Névé Clinique Dentaire,"Rond-Point de Plainpalais 5, 1205 Genève",1205,Genève,tel:+41228001111,https://www.local.ch/en/d/geneve/1205/dentist/neve-clinique-dentaire-DIxXiawoiTJa-5e-q_yZlQ
Nouvelle Clinique Dentaire Seeland,"Rue Theodor-Kocher 11, 2502 Biel/Bienne",2502,Biel/Bienne,tel:+41323234545,https://www.local.ch/en/d/biel-bienne/2502/nouvelle-clinique-dentaire-seeland-QyqEnjh_2p3DV2RFLeVthg
Psychologie clinique & scolaire - Avestan SA,"Avenue de Champel 35, 1206 Genève",1206,Genève,tel:+41225756335,https://www.local.ch/en/d/geneve/1206/psychology/psychologie-clinique-scolaire-avestan-sa-vSXqO_jrtMjxycZl1OJGpw
Rive Clinique Dentaire de Genève SA,"Cours de Rive 16, 1204 Genève",1204,Genève,tel:+41227860721,https://www.local.ch/en/d/geneve/1204/rive-clinique-dentaire-de-geneve-sa-lo0T4xroeXyxpzbLuYTUHQ
Suisse Clinique Sagl,"Via Ernesto Bosia 17, 6900 Paradiso",6900,Paradiso,tel:+41791212665,https://www.local.ch/en/d/paradiso/6900/dentist/suisse-clinique-sagl-XsDnPJTEI0Cc19CY5v1X0Q
Télé-Clinique - Bang & Olufsen Lausanne,"Rue Haldimand 15, 1003 Lausanne",1003,Lausanne,tel:+41213128607,https://www.local.ch/en/d/lausanne/1003/radio-and-television-shop/tele-clinique-bang-olufsen-lausanne-vkvazUuVvwv2ygHLzOz1pA
Centre de recherche clinique,"Rue Gabrielle-Perret-Gentil 4, 1205 Genève",1205,Genève,tel:+41223729134,https://www.local.ch/en/d/geneve/1205/centre-de-recherche-clinique-uNKUvXboX55_RDsyK9WnKQ
Bethesda Spital Basel,"Gellertstrasse 144, 4052 Basel",4052,Basel,tel:+41613152121,https://www.local.ch/en/d/basel/4052/hospital/bethesda-spital-basel-KDSCSiZkZFgmDh1INdfuWQ
Hôpital ophtalmique Jules-Gonin,"Avenue de France 15, 1004 Lausanne",1004,Lausanne,tel:+41216268111,https://www.local.ch/en/d/lausanne/1004/ophthalmic-clinics/hopital-ophtalmique-jules-gonin-3bu67Ky2qCaxIRBi1_BM7A
Schlossberg Ärztezentrum Mühli,"Mühle 2, 9548 Matzingen",9548,Matzingen,tel:+41523696010,https://www.local.ch/en/d/matzingen/9548/general-internal-medicine/schlossberg-aerztezentrum-muehli-XENaraLvEy8Yb7AFHcIMRA
"Clinident, Clinique dentaire de Malombré","Chemin Malombré 5, 1206 Genève",1206,Genève,tel:+41223466444,https://www.local.ch/en/d/geneve/1206/implantology/clinident-clinique-dentaire-de-malombre-C-a5rRZLT1HwabsuqoOwvg
Adent Clinique Dentaire de Meyrin,"Avenue de Feuillasse 24, 1217 Meyrin",1217,Meyrin,tel:+41229898000,https://www.local.ch/en/d/meyrin/1217/shopping-center/adent-clinique-dentaire-de-meyrin-SLFxxtRZl3V6Qtm4bNO4cA
Aesthea,"Roberstenstrasse 33, 4310 Rheinfelden",4310,Rheinfelden,tel:+41618350835,https://www.local.ch/en/d/rheinfelden/4310/private-clinic/aesthea-eWtKFWZNJlpbjnp4I-P4uA
Tagesstätte West (UPD),"Looslistrasse 15, 3027 Bern",3027,Bern,tel:+41319921202,https://www.local.ch/en/d/bern/3027/day-clinic/tagesstaette-west-upd-jwcGBf53riwwqcAFjPuhBA
"Clinident, Clinique dentaire de la Servette","Avenue Wendt 60, 1203 Genève",1203,Genève,tel:+41227339800,https://www.local.ch/en/d/geneve/1203/dentist/clinident-clinique-dentaire-de-la-servette-T_lUuJazkP7P3JPaFBfHCg
UPPC - Unité de pharmacogénétique et psychopharmacologie clinique,"Route de Cery, 1008 Prilly",1008,Prilly,tel:+41213142275,https://www.local.ch/en/d/prilly/1008/hospital/uppc-unite-de-pharmacogenetique-et-psychopharmacologie-clinique-DroeatBF50Pt_NAuybBdEA
Patinoire,"Avenue Henry-Warnery 8, 1110 Morges",1110,Morges,tel:+41218280420,https://www.local.ch/en/d/morges/1110/allergology-and-clinical-immunology/patinoire-6LB5DbbgU0s0l8ysQFkiTA
Hirslanden Clinique La Colline - Centre partenaire Unilabs,"Avenue de Beau-Séjour 6, 1206 Genève",1206,Genève,tel:+41227022705,https://www.local.ch/en/d/geneve/1206/medical-laboratory-analysis/hirslanden-clinique-la-colline-centre-partenaire-unilabs-zhgNYxnegkhmYFIIgP_uxA
Cabinet vétérinaire des Tuileries,"Chemin de l'Argile 3, 1293 Bellevue",1293,Bellevue,tel:+41227742525,https://www.local.ch/en/d/bellevue/1293/vet/cabinet-veterinaire-des-tuileries-2ecrXz64TSKG4bhrDZDE1A
Universität Bern,"Länggassstrasse 128, 3012 Bern",3012,Bern,tel:+41316842111,https://www.local.ch/en/d/bern/3012/universities/universitaet-bern-0vrC_ThH_i0lzQr7EDgaxg
Zentrum für Zahnmedizin,"Plattenstrasse 11, 8032 Zürich",8032,Zürich,tel:+41446343311,https://www.local.ch/en/d/zuerich/8032/dentist/zentrum-fuer-zahnmedizin-CMuz-VV-Syn7qCrDrwwISA
Association de la Clinique,"Chemin des Grangettes 7, 1224 Chêne-Bougeries",1224,Chêne-Bougeries,tel:+41223050111,https://www.local.ch/en/d/chene-bougeries/1224/hospital/association-de-la-clinique-N1rr42KSRL50CPBiOnIebQ
Adent Clinique Dentaire d'Aubonne,"Route de la Gare 11, 1165 Allaman",1165,Allaman,tel:+41218074444,https://www.local.ch/en/d/allaman/1165/dental-clinic/adent-clinique-dentaire-d-aubonne-fRVsOJ4mMdvmYDb1LWQylg
Adent Clinique Dentaire d'Ecublens,"Chemin du Croset 7, 1024 Ecublens VD",1024,VD,tel:+41216942000,https://www.local.ch/en/d/ecublens-vd/1024/dental-clinic/adent-clinique-dentaire-d-ecublens-A-khJeg7YSb3Z13Qvkbcpg
Adent Clinique Dentaire d'Yverdon,"En Chamard, 1442 Montagny-près-Yverdon",1442,Montagny-près-Yverdon,tel:+41244474000,https://www.local.ch/en/d/montagny-pres-yverdon/1442/dental-clinic/adent-clinique-dentaire-d-yverdon-3HGUQPlL36YUghZTU2JDqw
Adent Clinique Dentaire de Lausanne-Blécherette,"Route du Châtelard 54B, 1018 Lausanne",1018,Lausanne,tel:+41216442000,https://www.local.ch/en/d/lausanne/1018/adent-clinique-dentaire-de-lausanne-blecherette-mfnMGOwLTdeyCsi2WlEBGw
Adent Clinique Dentaire de Martigny,"Avenue de Fully 53, 1920 Martigny",1920,Martigny,tel:+41273993000,https://www.local.ch/en/d/martigny/1920/dental-clinic/adent-clinique-dentaire-de-martigny-FZbvcDpnzQ7oE9mnGNdg_A
Adent Clinique Dentaire de Monthey-Gare,"Avenue de la Gare 30, 1870 Monthey",1870,Monthey,tel:+41244429000,https://www.local.ch/en/d/monthey/1870/dental-clinic/adent-clinique-dentaire-de-monthey-gare-Ak-kveVlvNHpAb11EvKINg
Adent Clinique Dentaire des Eaux-Vives,"Avenue de Frontenex 34, 1207 Genève",1207,Genève,tel:+41227008100,https://www.local.ch/en/d/geneve/1207/dental-clinic/adent-clinique-dentaire-des-eaux-vives-IgWiWgRPXMf3Bd9n-LOmGQ
Adent Clinique Dentaire Genève - Charmilles,"Rue de Lyon 87, 1203 Genève",1203,Genève,tel:+41223380200,https://www.local.ch/en/d/geneve/1203/dental-clinic/adent-clinique-dentaire-geneve-charmilles-5lSGgexqJ5wrso3jLPD0Ow
Adent Clinique Dentaire Genève - Nations,"Avenue de France 29, 1202 Genève",1202,Genève,tel:+41223041755,https://www.local.ch/en/d/geneve/1202/dental-clinic/adent-clinique-dentaire-geneve-nations-JKPNUV_VEKS9VeYhJ4aEkA
Adent Clinique Dentaire Monthey-Crochetan | Dr Jean-Luc Vionnet,"Avenue du Crochetan 2, 1870 Monthey",1870,Monthey,tel:+41244714203,https://www.local.ch/en/d/monthey/1870/dentist/adent-clinique-dentaire-monthey-crochetan-dr-jean-luc-vionnet-4ghvtUz0IFUPGCrP9ih8ig
Allgemeinpsychiatrische Tageklinik St. Moritz,"Plazza Paracelsus 2, 7500 St. Moritz",7500,Moritz,tel:+41582251020,https://www.local.ch/en/d/st-moritz/7500/psychotherapy-general/allgemeinpsychiatrische-tageklinik-st-moritz-PsmKgQYw02xIHFR2Z_lLsg
Allgemeinpsychiatrische Tagesklinik Chur,"Loëstrasse 220, 7000 Chur",7000,Chur,tel:+41582252340,https://www.local.ch/en/d/chur/7000/psychotherapy-general/allgemeinpsychiatrische-tagesklinik-chur-Xt3FFZN18I5Qvc8boQLqDA
Allgemeinpsychiatrische Tagesklinik Glarus,"Burgstrasse 99, 8750 Glarus",8750,Glarus,tel:+41582251414,https://www.local.ch/en/d/glarus/8750/psychotherapy-general/allgemeinpsychiatrische-tagesklinik-glarus-lMKAD6G0e8NTgN6aQGY1zA
Allgemeinpsychiatrische Tagesklinik Thusis,"Altdorfstrasse 10, 7430 Thusis",7430,Thusis,tel:+41582251145,https://www.local.ch/en/d/thusis/7430/psychotherapy-general/allgemeinpsychiatrische-tagesklinik-thusis-DrwhnzZGBkd9Q9h7yYU5OQ
ARGUS Augen AG,"Obergrundstrasse 108, 6005 Luzern",6005,Luzern,tel:+41414960000,https://www.local.ch/en/d/luzern/6005/ophthalmology/argus-augen-ag-LiLXvURplBGpbDhpCW3Drg
Cabinet médical et de Psychologie clinique,"Rue d'Italie 58, 1800 Vevey",1800,Vevey,tel:+41219224774,https://www.local.ch/en/d/vevey/1800/cabinet-medical-et-de-psychologie-clinique-FtOejxdn8UP-onTaEnaxmA
Centre Actif + Clinique Bois-Cerf,"Avenue d'Ouchy 31, 1006 Lausanne",1006,Lausanne,tel:+41216196270,https://www.local.ch/en/d/lausanne/1006/physical-therapy/centre-actif-clinique-bois-cerf-E6yOA4KQWxAhYOIXZ-xMRA
Cetacea Consulting GmbH,"Fridolinsgasse 8, 4313 Möhlin",4313,Möhlin,tel:+41789130638,https://www.local.ch/en/d/moehlin/4313/clinical-pharmacology-and-toxicology/cetacea-consulting-gmbh-QFEx6x8tkEWKPIJCyz4YEA
Clinident Clinique dentaire de Gland SA,"Rue Mauverney 19, 1196 Gland",1196,Gland,tel:+41229950202,https://www.local.ch/en/d/gland/1196/dentist/clinident-clinique-dentaire-de-gland-sa-RiIwYyYyETaWmqvStDKTGA
Clinident Clinique dentaire de Nyon SA,"Rue de la Morâche 4, 1260 Nyon",1260,Nyon,tel:+41229900202,https://www.local.ch/en/d/nyon/1260/dentist/clinident-clinique-dentaire-de-nyon-sa-CuBmG13N1iO8icblqZzlig
Clinident-Clinique dentaire de Vevey SA,"Rue de la Madeleine 39, 1800 Vevey",1800,Vevey,tel:+41219233838,https://www.local.ch/en/d/vevey/1800/dentist/clinident-clinique-dentaire-de-vevey-sa-AGqgx623-LuHKcUcTnGlvA
CM Clinique Dentaire,"Rue Saint-Randoald 2, 2852 Courtételle",2852,Courtételle,tel:+41324220101,https://www.local.ch/en/d/courtetelle/2852/dentist/cm-clinique-dentaire-5yEo0CkrdMccGH4L6YI1yQ
Dentalys,"Rue Centrale 3, 1580 Avenches",1580,Avenches,tel:+41266624386,https://www.local.ch/en/d/avenches/1580/dentist/dentalys-FHFr-LzXv5WJNaljzGrZNA
Dentalys,"Rue de la Gare 27, 1530 Payerne",1530,Payerne,tel:+41266608912,https://www.local.ch/en/d/payerne/1530/dentist/dentalys-X02rcEPztBxIQKF0ybM23w
Detox Suisse Clinique de Médecine Intégrative,"Avenue Wendt 56, 1203 Genève",1203,Genève,tel:+41229103323,https://www.local.ch/en/d/geneve/1203/ozone-therapy/detox-suisse-clinique-de-medecine-integrative-hmG0MSKrHA9UJ0P4NHhefg
DJ Clinique Prestige Beauté Sàrl,"Route des Acacias 6, 1227 Les Acacias",1227,Acacias,tel:+41223425505,https://www.local.ch/en/d/les-acacias/1227/cosmetic-institute/dj-clinique-prestige-beaute-sarl-BsidHgn2JmY1Fow7PumoSw
Dr. med. Härtel Annett,"Beim Goldenen Löwen 13, 4052 Basel",4052,Basel,tel:+41616812277,https://www.local.ch/en/d/basel/4052/dermatology-and-venereology/dr-med-haertel-annett-OxoJrFMQQoKIuxzoNnZ9jQ
e-clinique,"Rue de Bâle 26, 1201 Genève",1201,Genève,tel:+41227320205,https://www.local.ch/en/d/geneve/1201/repairs/e-clinique-C5vFAbuQ7_BRzN3gPLmSEg
ESPACE CLINIQUE PODOLOGIQUE,"Place des Planches 2, 1820 Montreux",1820,Montreux,tel:+41219632535,https://www.local.ch/en/d/montreux/1820/podology/espace-clinique-podologique-lxIfM8ej75Dwfwg6owTVaQ
Frigo-Clinique R. Bruggmann SA,"Chemin de Castelver 4, 1255 Veyrier",1255,Veyrier,tel:+41227840791,https://www.local.ch/en/d/veyrier/1255/frigo-clinique-r-bruggmann-sa--DtGQ1gzKaCLMPfJH59_ow
Frigo-Clinique R. Bruggmann SA,"Chemin des Cytises 9, 1255 Veyrier",1255,Veyrier,tel:+41227840763,https://www.local.ch/en/d/veyrier/1255/frigo-clinique-r-bruggmann-sa-BkWDltDR3vNGS0DXEN2wvQ
HEALTH CENTER CLINIQUE LEMANA,"Chemin de l'Hôtel Mirador 5, 1801 Le Mont-Pèlerin",1801,Mont-Pèlerin,tel:+41219613812,https://www.local.ch/en/d/le-mont-pelerin/1801/health-center-clinique-lemana-aISG9Dokbd1jVrb_M5DPVA
Helvident Clinique Dentaire SA,"Chemin des Mémises 2, 1025 St-Sulpice VD",1025,VD,tel:+41216942525,https://www.local.ch/en/d/st-sulpice-vd/1025/dental-clinic/helvident-clinique-dentaire-sa-UQfl9R0esASHgcqql2kP9Q
Hirslanden Clinique des Tilleuls,"Crêt-des-Fleurs 105, 2503 Biel/Bienne",2503,Biel/Bienne,tel:+41323664111,https://www.local.ch/en/d/biel-bienne/2503/hirslanden-clinique-des-tilleuls-ahpnxwf6UEYhKR04ASzt-g
Institut de radiologie Clinique Bois-Cerf,"Avenue d'Ouchy 31, 1006 Lausanne",1006,Lausanne,tel:+41800619697,https://www.local.ch/en/d/lausanne/1006/radiological-institute/institut-de-radiologie-clinique-bois-cerf-Rg80B_IQkfbiHqcjUUjgfQ
Institut de radiologie Clinique Cecil,"Avenue Marc-Dufour 4, 1007 Lausanne",1007,Lausanne,tel:+41800005003,https://www.local.ch/en/d/lausanne/1007/radiological-institute/institut-de-radiologie-clinique-cecil-leorbUf15rN14kasPWOeUQ
L'Annexe de la Clinique Naturelle,"Rue de Carouge 28, 1205 Genève",1205,Genève,tel:+41225087350,https://www.local.ch/en/d/geneve/1205/l-annexe-de-la-clinique-naturelle-_779hfmVFdmOPjXoibDmww
medicswiss dental SA,"Via Borgo 55, 6612 Ascona",6612,Ascona,tel:+41917922526,https://www.local.ch/en/d/ascona/6612/dental-clinic/medicswiss-dental-sa-nUKhyQdz283tSocRljWtYQ
Physiothérapie - Clinique Le Noirmont,"Chemin de Roc-Montès 20, 2340 Le Noirmont",2340,Noirmont,tel:+41329575671,https://www.local.ch/en/d/le-noirmont/2340/physical-therapy/physiotherapie-clinique-le-noirmont-I0J8VF_dgY0-vV0xkPDDyw
Privatklinik MENTALVA,"La Nicca Strasse 17, 7408 Cazis",7408,Cazis,tel:+41582253350,https://www.local.ch/en/d/cazis/7408/psychiatry-and-psychotherapy/privatklinik-mentalva-VBk8hoX-9pmTAe7psKJWyA
Psychiatrische Dienste Grabünden (PDGR),"Via dals Bogns 323, 7550 Scuol",7550,Scuol,tel:+41582251010,https://www.local.ch/en/d/scuol/7550/psychotherapy-general/psychiatrische-dienste-grabuenden-pdgr-monR7TWBtoYHDrLjhYVhSw
Psychiatrische Dienste Graubünden (PDGR),"Burgstrasse 99, 8750 Glarus",8750,Glarus,tel:+41582251414,https://www.local.ch/en/d/glarus/8750/psychotherapy-general/psychiatrische-dienste-graubuenden-pdgr-P6KfnkZWZbdOpG0Ux7tx-Q
Psychotherapeutische Tagesklinik Chur,"Loëstrasse 220, 7000 Chur",7000,Chur,tel:+41582252310,https://www.local.ch/en/d/chur/7000/psychotherapy-general/psychotherapeutische-tagesklinik-chur-tEEmYA8btBt5bgNfJgbxIg
RFSM BULLE - Clinique de jour,"Rue de la Condémine 60, 1630 Bulle",1630,Bulle,tel:+41263081630,https://www.local.ch/en/d/bulle/1630/rfsm-bulle-clinique-de-jour--WcQoMb5rajF7RoXO2mP8g
RFSM FRIBOURG - Clinique de jour,"Chemin du Cardinal-Journet 3, 1752 Villars-sur-Glâne",1752,Villars-sur-Glâne,tel:+41263080000,https://www.local.ch/en/d/villars-sur-glane/1752/rfsm-fribourg-clinique-de-jour-iaf-ZBpVmQ_nV3dP8bCWHw
Service de pédopsychiatrie et Clinique de jour,"Chemin du Clos 24, 2502 Biel/Bienne",2502,Biel/Bienne,tel:+41323286699,https://www.local.ch/en/d/biel-bienne/2502/service-de-pedopsychiatrie-et-clinique-de-jour-cZ918cx0-X_roPgNYSLKcg
Service dentaire scolaire - Clinique dentaire,"Rue de la Léchère 40, 1630 Bulle",1630,Bulle,tel:+41263059860,https://www.local.ch/en/d/bulle/1630/dentist/service-dentaire-scolaire-clinique-dentaire-d7uUUp6aAkA19qPoqTEX2g
Service dentaire scolaire - Clinique dentaire,"Route d'Arruffens 17, 1680 Romont FR",1680,FR,tel:+41263058691,https://www.local.ch/en/d/romont-fr/1680/dentist/service-dentaire-scolaire-clinique-dentaire-AV2yG5cHZRuiKznLhzZrew
Service dentaire scolaire - Clinique orthodontique,"Rue de la Léchère 40, 1630 Bulle",1630,Bulle,tel:+41263059859,https://www.local.ch/en/d/bulle/1630/orthodontics/service-dentaire-scolaire-clinique-orthodontique-gDfF8KtzypE3Wbk01o7sKA
Smartphone Clinique Sàrl,"Rue Saint-Laurent 33, 1003 Lausanne",1003,Lausanne,tel:+41213111122,https://www.local.ch/en/d/lausanne/1003/repairs/smartphone-clinique-sarl-BSq69D2s16mNEOduyU2PfQ
Société d'Hypnose Clinique Suisse,"Route de Malagnou 4, 1208 Genève",1208,Genève,tel:+41227869258,https://www.local.ch/en/d/geneve/1208/hypnosis/societe-d-hypnose-clinique-suisse-wy1a882CkynLgAxe2fMLDw
Tagesklinik Alterspsychiatrie Chur,"Freifeldstrasse 27, 7000 Chur",7000,Chur,tel:+41582252270,https://www.local.ch/en/d/chur/7000/psychotherapy-general/tagesklinik-alterspsychiatrie-chur-xJISVmpoxCrjMD1Aaq28lA
Tagesklinik / Clinique de jour,"Lischenweg 2, 2503 Biel/Bienne",2503,Biel/Bienne,tel:+41324847272,https://www.local.ch/en/d/biel-bienne/2503/tagesklinik-clinique-de-jour-0-4xGofVzd052uwQbsVsDw
Télé-Clinique Lausanne SA,"Chemin de la Cure 2, 1066 Epalinges",1066,Epalinges,tel:+41217850211,https://www.local.ch/en/d/epalinges/1066/radio-and-television-shop/tele-clinique-lausanne-sa-XVnZaW2Ag_chs17DzPd9Dw
Tierarztpraxis Handke + Frei,"Aräljastrasse 17, 7214 Grüsch",7214,Grüsch,tel:+41813252152,https://www.local.ch/en/d/gruesch/7214/vet/tierarztpraxis-handke-frei-hHKm2d09ysyns_fN8dNuTg
Tiergesundheitszentrum AM BLAUEN,"Amthausstrasse 32, 4143 Dornach",4143,Dornach,tel:+41617020202,https://www.local.ch/en/d/dornach/4143/vet/tiergesundheitszentrum-am-blauen-HX1UV6bY8Ffif3m2Pw71xg
Tiergesundheitszentrum AM BLAUEN,"Lochbruggstrasse 15, 4242 Laufen",4242,Laufen,tel:+41617659700,https://www.local.ch/en/d/laufen/4242/vet/tiergesundheitszentrum-am-blauen-cK9HaalqH3yhJ_9-QJl8wA
WYTE CLINIQUE DENTAIRE,"Rue Beau-Séjour 7, 1003 Lausanne",1003,Lausanne,tel:+41215594141,https://www.local.ch/en/d/lausanne/1003/wyte-clinique-dentaire-_jQpT4NdLpbRppokewZuQQ
Blanchard Sabine,"Rue des Moulins 40, 1400 Yverdon-les-Bains",1400,Yverdon-les-Bains,tel:+41762623786,https://www.local.ch/en/d/yverdon-les-bains/1400/psychology/blanchard-sabine-CdDVQQYzClBl2kQQBbtbPw
VS Dental,"Avenue de la Gare 17A, 1950 Sion",1950,Sion,,https://www.local.ch/en/d/sion/1950/dentist/vs-dental-EwiR-O78-hU-VZGr4HR6_A
Boss taxi et mini-bus Sàrl,"La Theurre 14, 2350 Saignelégier",2350,Saignelégier,tel:+41329512118,https://www.local.ch/en/d/saignelegier/2350/taxi/boss-taxi-et-mini-bus-sarl-_BZ1K4dPf5zMBjBILff9eQ
Burger Pen AG,"Hauptstrasse 20, 1713 St. Antoni",1713,Antoni,tel:+41264959474,https://www.local.ch/en/d/st-antoni/1713/promotional-products/burger-pen-ag-zCGjUpjW7TRXty6nANkslQ
Cabinet Vétérinaire de la Charbonnière,"Route du Chasseur 15, 1008 Prilly",1008,Prilly,tel:+41216711155,https://www.local.ch/en/d/prilly/1008/vet/cabinet-veterinaire-de-la-charbonniere-dTjTZaigUuula2d-LWJ07A
Centre médical de Sierre,"Avenue Général-Guisan 30, 3960 Sierre",3960,Sierre,tel:+41274567580,https://www.local.ch/en/d/sierre/3960/practice/centre-medical-de-sierre-kd8VRL1UE51oQ5n-fRkxKQ
dentalsolutions,"Rue Louis-de-Savoie 57, 1110 Morges",1110,Morges,tel:+41218017816,https://www.local.ch/en/d/morges/1110/dentist/dentalsolutions-ihQ5NwvcIE1R3TBTLz0tTQ
Dr méd. Solidakis Aristide,"Rue Numa-Droz 187, 2300 La Chaux-de-Fonds",2300,Chaux-de-Fonds,tel:+41325562000,https://www.local.ch/en/d/la-chaux-de-fonds/2300/gynaecology-and-obstetrics/dr-med-solidakis-aristide-usGgDB_QCk1_mio23GQslw
Félix Tania,"Rue Vignier 2, 1205 Genève",1205,Genève,tel:+41766932867,https://www.local.ch/en/d/geneve/1205/podology/felix-tania-0iSl0_vbPsb25MBwhoRhMQ
MAT Architecture Management,"Avenue de Châtelaine 43, 1203 Genève",1203,Genève,tel:+41227969761,https://www.local.ch/en/d/geneve/1203/planning/mat-architecture-management-xvg9DJL39ORDdeLL20hQ8g
Moments Furniture SA,"Chemin du Croset 9, 1024 Ecublens VD",1024,VD,tel:+41216970505,https://www.local.ch/en/d/ecublens-vd/1024/interior-fittings/moments-furniture-sa-o9zU2dRAKOIRONTdjkniAw
MS-ECONET ENTREPRISE DE NETTOYAGE - Mulaku Shkelzen,"Chemin du Mâcheret 110, 1093 La Conversion",1093,Conversion,tel:+41799000007,https://www.local.ch/en/d/la-conversion/1093/cleaning-company/ms-econet-entreprise-de-nettoyage-mulaku-shkelzen-frUaU2bRbeZCw3Vl07qAlw
Odyssées funéraires Sàrl,"Rue de Soleure 25, 2740 Moutier",2740,Moutier,tel:+41766855815,https://www.local.ch/en/d/moutier/2740/undertakers/odyssees-funeraires-sarl-SD9mbY-lruA5Ff0lQEI-Fg
PMC Riviera,"Rue du Grammont 2, 1815 Clarens",1815,Clarens,tel:+41219892870,https://www.local.ch/en/d/clarens/1815/general-internal-medicine/pmc-riviera-4WG5Yb4niCE6Cw4gNbFnHw
Pratique Vétérinaire Valesia SA,"Rue du Canal 16, 1908 Riddes",1908,Riddes,tel:+41273067676,https://www.local.ch/en/d/riddes/1908/vet/pratique-veterinaire-valesia-sa-s0IPuMeX-EKWz-ssnipUbQ
Quai Santé - Belmont,"Avenue de Belmont 19, 1820 Montreux",1820,Montreux,tel:+41219628510,https://www.local.ch/en/d/montreux/1820/gastroenterology/quai-sante-belmont-mE28qqAEL-98rbCsjAO4xA
Quai Santé - Gare,"Avenue des Alpes 74, 1820 Montreux",1820,Montreux,tel:+41219643000,https://www.local.ch/en/d/montreux/1820/general-internal-medicine/quai-sante-gare-Xgj1uCb8_Xui0_DBkNszGQ
Quai Santé - Tour de Peilz,"Grand-Rue 1, 1814 La Tour-de-Peilz",1814,Tour-de-Peilz,tel:+41219444449,https://www.local.ch/en/d/la-tour-de-peilz/1814/general-internal-medicine/quai-sante-tour-de-peilz-5FzdclKsFaTGgJ5HfOCLMw
Ramuz Carron Isabelle,"Passage des Oliviers 3, 1920 Martigny",1920,Martigny,tel:+41787736791,https://www.local.ch/en/d/martigny/1920/dental-hygiene/ramuz-carron-isabelle-_JC81Oq13e0lDMdrZSkbLA
Dr Solomon Tomy,"Rue du Petit-Beaulieu 1, 1004 Lausanne",1004,Lausanne,tel:+41215255015,https://www.local.ch/en/d/lausanne/1004/psychiatry-and-psychotherapy/dr-solomon-tomy-wr9FeJYusjqv21EGxhYxYw
Studio Dentistico Dotesio SA,"Via Lisano 3, 6900 Massagno",6900,Massagno,tel:+41919509045,https://www.local.ch/en/d/massagno/6900/dentist/studio-dentistico-dotesio-sa-lt3kc9hA3K6vH1KlyBrWyw
Taxi Oasis,"Rue de la Blancherie 46, 1022 Chavannes-près-Renens",1022,Chavannes-près-Renens,tel:+41788845458,https://www.local.ch/en/d/chavannes-pres-renens/1022/taxi/taxi-oasis-Emmnbjd6zR3PtpFiiE1VmQ
Tierärztliche Praxis Sils,"Via dal Malögia 2, 7514 Sils/Segl Maria",7514,Maria,tel:+41818265560,https://www.local.ch/en/d/sils-segl-maria/7514/vet/tieraerztliche-praxis-sils-E6TbWgRMh0j39YlO6BcTkg
Pinna Lara,"Les Résidences-de-la-Côte 30, 1110 Morges",1110,Morges,tel:+41791732090,https://www.local.ch/en/d/morges/1110/sexology/pinna-lara-OT5oBASxLcBDeaOYVTeQBA
Dr Welti Stéphane,"Avenue de l'Elysée 35, 1006 Lausanne",1006,Lausanne,tel:+41216174032,https://www.local.ch/en/d/lausanne/1006/gynaecology-and-obstetrics/dr-welti-stephane-o6_KvKDj7KvdlwPXG3T22w
Hôpital Daler,"Route de Bertigny 34, 1700 Fribourg",1700,Fribourg,tel:+41264299111,https://www.local.ch/en/d/fribourg/1700/hospital/hopital-daler-KS3tQC77FIRyWm79-v5afA
Manini Shanon,"Ruelle des Anges 2, 1870 Monthey",1870,Monthey,tel:+41792796809,https://www.local.ch/en/d/monthey/1870/podology/manini-shanon-b4ukNQ4FVxu-Jzknc9QPGA
Medi-Emploi Sàrl,"Rue de la Combe 11, 1260 Nyon",1260,Nyon,tel:+41223621553,https://www.local.ch/en/d/nyon/1260/employment-agency/medi-emploi-sarl-AU4qb-iySU6qwFXb61zJLw
